<?xml version="1.0"?>
<gpx xmlns="http://www.topografix.com/GPX/1/1" xmlns:xsi="http://www.w3.org/2001/XMLSchema-instance" version="1.1" creator="AllTrails.com" xsi:schemaLocation="http://www.topografix.com/GPX/1/1 http://www.topografix.com/GPX/1/1/gpx.xsd">
  <metadata>
    <name><![CDATA[750 - Sunca]]></name>
    <desc><![CDATA[]]></desc>
    <link href="http://www.alltrails.com">
      <text>AllTrails, LLC</text>
    </link>
    <bounds minlat="43.28252" minlon="16.4122" maxlat="43.33456" maxlon="16.57828"/>
  </metadata>
  <trk>
    <name><![CDATA[750 - Sunca]]></name>
    <src>AllTrails</src>
    <trkseg>
      <trkpt lat="43.32476" lon="16.44956">
        <ele>6.78</ele>
      </trkpt>
      <trkpt lat="43.32502" lon="16.44978">
        <ele>6.01</ele>
      </trkpt>
      <trkpt lat="43.32463" lon="16.44997">
        <ele>6.74</ele>
      </trkpt>
      <trkpt lat="43.32508" lon="16.45037">
        <ele>7.76</ele>
      </trkpt>
      <trkpt lat="43.32487" lon="16.45045">
        <ele>7.57</ele>
      </trkpt>
      <trkpt lat="43.32446" lon="16.45097">
        <ele>11.49</ele>
      </trkpt>
      <trkpt lat="43.3241" lon="16.45188">
        <ele>8.34</ele>
      </trkpt>
      <trkpt lat="43.32377" lon="16.45193">
        <ele>8.26</ele>
      </trkpt>
      <trkpt lat="43.3237" lon="16.45224">
        <ele>9.04</ele>
      </trkpt>
      <trkpt lat="43.32366" lon="16.45267">
        <ele>9.58</ele>
      </trkpt>
      <trkpt lat="43.32362" lon="16.45292">
        <ele>10.45</ele>
      </trkpt>
      <trkpt lat="43.32322" lon="16.45414">
        <ele>24.32</ele>
      </trkpt>
      <trkpt lat="43.32318" lon="16.45478">
        <ele>24.15</ele>
      </trkpt>
      <trkpt lat="43.32324" lon="16.4554">
        <ele>27.52</ele>
      </trkpt>
      <trkpt lat="43.32323" lon="16.45595">
        <ele>30.86</ele>
      </trkpt>
      <trkpt lat="43.3231" lon="16.45669">
        <ele>34.28</ele>
      </trkpt>
      <trkpt lat="43.32314" lon="16.45697">
        <ele>36.18</ele>
      </trkpt>
      <trkpt lat="43.32339" lon="16.45744">
        <ele>34.38</ele>
      </trkpt>
      <trkpt lat="43.32351" lon="16.45769">
        <ele>33.57</ele>
      </trkpt>
      <trkpt lat="43.32354" lon="16.45821">
        <ele>33.46</ele>
      </trkpt>
      <trkpt lat="43.32367" lon="16.45865">
        <ele>32.55</ele>
      </trkpt>
      <trkpt lat="43.32368" lon="16.45917">
        <ele>32.49</ele>
      </trkpt>
      <trkpt lat="43.32354" lon="16.46046">
        <ele>27.67</ele>
      </trkpt>
      <trkpt lat="43.32394" lon="16.46057">
        <ele>20.61</ele>
      </trkpt>
      <trkpt lat="43.32432" lon="16.46095">
        <ele>25.97</ele>
      </trkpt>
      <trkpt lat="43.32447" lon="16.46153">
        <ele>28.88</ele>
      </trkpt>
      <trkpt lat="43.32454" lon="16.46228">
        <ele>37.14</ele>
      </trkpt>
      <trkpt lat="43.32415" lon="16.46265">
        <ele>46.23</ele>
      </trkpt>
      <trkpt lat="43.32387" lon="16.46338">
        <ele>46.03</ele>
      </trkpt>
      <trkpt lat="43.32382" lon="16.46432">
        <ele>50.37</ele>
      </trkpt>
      <trkpt lat="43.32416" lon="16.46445">
        <ele>52.04</ele>
      </trkpt>
      <trkpt lat="43.32441" lon="16.46507">
        <ele>57.28</ele>
      </trkpt>
      <trkpt lat="43.32455" lon="16.46572">
        <ele>62.11</ele>
      </trkpt>
      <trkpt lat="43.32458" lon="16.46623">
        <ele>64.4</ele>
      </trkpt>
      <trkpt lat="43.32502" lon="16.46587">
        <ele>66.88</ele>
      </trkpt>
      <trkpt lat="43.32563" lon="16.46542">
        <ele>60.59</ele>
      </trkpt>
      <trkpt lat="43.32627" lon="16.46479">
        <ele>42.16</ele>
      </trkpt>
      <trkpt lat="43.32658" lon="16.46475">
        <ele>43.54</ele>
      </trkpt>
      <trkpt lat="43.32683" lon="16.46336">
        <ele>56.86</ele>
      </trkpt>
      <trkpt lat="43.32728" lon="16.46338">
        <ele>65.21</ele>
      </trkpt>
      <trkpt lat="43.3273" lon="16.46415">
        <ele>65.56</ele>
      </trkpt>
      <trkpt lat="43.32718" lon="16.46499">
        <ele>62.44</ele>
      </trkpt>
      <trkpt lat="43.32723" lon="16.46649">
        <ele>64.36</ele>
      </trkpt>
      <trkpt lat="43.32721" lon="16.46721">
        <ele>61.86</ele>
      </trkpt>
      <trkpt lat="43.32696" lon="16.46787">
        <ele>66.44</ele>
      </trkpt>
      <trkpt lat="43.32643" lon="16.46793">
        <ele>65.58</ele>
      </trkpt>
      <trkpt lat="43.32629" lon="16.46857">
        <ele>72.52</ele>
      </trkpt>
      <trkpt lat="43.32638" lon="16.46926">
        <ele>78.64</ele>
      </trkpt>
      <trkpt lat="43.3262" lon="16.47023">
        <ele>83.26</ele>
      </trkpt>
      <trkpt lat="43.32604" lon="16.47101">
        <ele>86.07</ele>
      </trkpt>
      <trkpt lat="43.32558" lon="16.47187">
        <ele>88.95</ele>
      </trkpt>
      <trkpt lat="43.32547" lon="16.47242">
        <ele>93.62</ele>
      </trkpt>
      <trkpt lat="43.32511" lon="16.47284">
        <ele>100.54</ele>
      </trkpt>
      <trkpt lat="43.32482" lon="16.47362">
        <ele>108.4</ele>
      </trkpt>
      <trkpt lat="43.32454" lon="16.4744">
        <ele>114.42</ele>
      </trkpt>
      <trkpt lat="43.3244" lon="16.47524">
        <ele>121.79</ele>
      </trkpt>
      <trkpt lat="43.3244" lon="16.47583">
        <ele>127.32</ele>
      </trkpt>
      <trkpt lat="43.32421" lon="16.47687">
        <ele>138.97</ele>
      </trkpt>
      <trkpt lat="43.32407" lon="16.47767">
        <ele>146.12</ele>
      </trkpt>
      <trkpt lat="43.32408" lon="16.47873">
        <ele>156.38</ele>
      </trkpt>
      <trkpt lat="43.32381" lon="16.47986">
        <ele>166.57</ele>
      </trkpt>
      <trkpt lat="43.32327" lon="16.48118">
        <ele>174.62</ele>
      </trkpt>
      <trkpt lat="43.32277" lon="16.48267">
        <ele>187.65</ele>
      </trkpt>
      <trkpt lat="43.32253" lon="16.48331">
        <ele>191.01</ele>
      </trkpt>
      <trkpt lat="43.32243" lon="16.48426">
        <ele>196.25</ele>
      </trkpt>
      <trkpt lat="43.32205" lon="16.48648">
        <ele>203.56</ele>
      </trkpt>
      <trkpt lat="43.32204" lon="16.48861">
        <ele>214.71</ele>
      </trkpt>
      <trkpt lat="43.32181" lon="16.49104">
        <ele>226.81</ele>
      </trkpt>
      <trkpt lat="43.3216" lon="16.4922">
        <ele>229.78</ele>
      </trkpt>
      <trkpt lat="43.32187" lon="16.49301">
        <ele>228.78</ele>
      </trkpt>
      <trkpt lat="43.32165" lon="16.49414">
        <ele>227.39</ele>
      </trkpt>
      <trkpt lat="43.32186" lon="16.49492">
        <ele>228.3</ele>
      </trkpt>
      <trkpt lat="43.32193" lon="16.49593">
        <ele>233.02</ele>
      </trkpt>
      <trkpt lat="43.32216" lon="16.49711">
        <ele>240.7</ele>
      </trkpt>
      <trkpt lat="43.32291" lon="16.49768">
        <ele>248.25</ele>
      </trkpt>
      <trkpt lat="43.32253" lon="16.49844">
        <ele>249.38</ele>
      </trkpt>
      <trkpt lat="43.32329" lon="16.49962">
        <ele>265.65</ele>
      </trkpt>
      <trkpt lat="43.32323" lon="16.50195">
        <ele>295.06</ele>
      </trkpt>
      <trkpt lat="43.32334" lon="16.50385">
        <ele>308.46</ele>
      </trkpt>
      <trkpt lat="43.32371" lon="16.50565">
        <ele>306.89</ele>
      </trkpt>
      <trkpt lat="43.32421" lon="16.50732">
        <ele>321.36</ele>
      </trkpt>
      <trkpt lat="43.32471" lon="16.5081">
        <ele>326.11</ele>
      </trkpt>
      <trkpt lat="43.32506" lon="16.50905">
        <ele>328.42</ele>
      </trkpt>
      <trkpt lat="43.32514" lon="16.50979">
        <ele>326.0</ele>
      </trkpt>
      <trkpt lat="43.32508" lon="16.51064">
        <ele>328.0</ele>
      </trkpt>
      <trkpt lat="43.32468" lon="16.51232">
        <ele>324.06</ele>
      </trkpt>
      <trkpt lat="43.3243" lon="16.51332">
        <ele>327.54</ele>
      </trkpt>
      <trkpt lat="43.32447" lon="16.51378">
        <ele>327.81</ele>
      </trkpt>
      <trkpt lat="43.32522" lon="16.5141">
        <ele>328.87</ele>
      </trkpt>
      <trkpt lat="43.3259" lon="16.51449">
        <ele>321.25</ele>
      </trkpt>
      <trkpt lat="43.32608" lon="16.51502">
        <ele>316.64</ele>
      </trkpt>
      <trkpt lat="43.32696" lon="16.51537">
        <ele>310.53</ele>
      </trkpt>
      <trkpt lat="43.32814" lon="16.51596">
        <ele>298.11</ele>
      </trkpt>
      <trkpt lat="43.32883" lon="16.51596">
        <ele>290.65</ele>
      </trkpt>
      <trkpt lat="43.32986" lon="16.51623">
        <ele>268.15</ele>
      </trkpt>
      <trkpt lat="43.33012" lon="16.51634">
        <ele>266.08</ele>
      </trkpt>
      <trkpt lat="43.33011" lon="16.5166">
        <ele>260.15</ele>
      </trkpt>
      <trkpt lat="43.33141" lon="16.51726">
        <ele>271.09</ele>
      </trkpt>
      <trkpt lat="43.33159" lon="16.51769">
        <ele>280.34</ele>
      </trkpt>
      <trkpt lat="43.33178" lon="16.51779">
        <ele>280.62</ele>
      </trkpt>
      <trkpt lat="43.33171" lon="16.51894">
        <ele>277.29</ele>
      </trkpt>
      <trkpt lat="43.33127" lon="16.51983">
        <ele>277.73</ele>
      </trkpt>
      <trkpt lat="43.33144" lon="16.52014">
        <ele>274.28</ele>
      </trkpt>
      <trkpt lat="43.33166" lon="16.52025">
        <ele>271.92</ele>
      </trkpt>
      <trkpt lat="43.33219" lon="16.52051">
        <ele>267.81</ele>
      </trkpt>
      <trkpt lat="43.33257" lon="16.52072">
        <ele>266.26</ele>
      </trkpt>
      <trkpt lat="43.3327" lon="16.52085">
        <ele>267.08</ele>
      </trkpt>
      <trkpt lat="43.33286" lon="16.52139">
        <ele>265.0</ele>
      </trkpt>
      <trkpt lat="43.33301" lon="16.52227">
        <ele>261.85</ele>
      </trkpt>
      <trkpt lat="43.33322" lon="16.52322">
        <ele>260.3</ele>
      </trkpt>
      <trkpt lat="43.33334" lon="16.52334">
        <ele>258.93</ele>
      </trkpt>
      <trkpt lat="43.33338" lon="16.52346">
        <ele>257.86</ele>
      </trkpt>
      <trkpt lat="43.33345" lon="16.52355">
        <ele>257.64</ele>
      </trkpt>
      <trkpt lat="43.33355" lon="16.5236">
        <ele>258.37</ele>
      </trkpt>
      <trkpt lat="43.33366" lon="16.52362">
        <ele>258.68</ele>
      </trkpt>
      <trkpt lat="43.33382" lon="16.52359">
        <ele>258.13</ele>
      </trkpt>
      <trkpt lat="43.33392" lon="16.52361">
        <ele>257.77</ele>
      </trkpt>
      <trkpt lat="43.33401" lon="16.52366">
        <ele>257.63</ele>
      </trkpt>
      <trkpt lat="43.33414" lon="16.5238">
        <ele>258.78</ele>
      </trkpt>
      <trkpt lat="43.33425" lon="16.52401">
        <ele>259.24</ele>
      </trkpt>
      <trkpt lat="43.33441" lon="16.5245">
        <ele>259.7</ele>
      </trkpt>
      <trkpt lat="43.33454" lon="16.52511">
        <ele>252.85</ele>
      </trkpt>
      <trkpt lat="43.33456" lon="16.52536">
        <ele>252.45</ele>
      </trkpt>
      <trkpt lat="43.33455" lon="16.52561">
        <ele>255.14</ele>
      </trkpt>
      <trkpt lat="43.33443" lon="16.52603">
        <ele>254.2</ele>
      </trkpt>
      <trkpt lat="43.33426" lon="16.52647">
        <ele>249.88</ele>
      </trkpt>
      <trkpt lat="43.3342" lon="16.52666">
        <ele>248.69</ele>
      </trkpt>
      <trkpt lat="43.33419" lon="16.52679">
        <ele>248.9</ele>
      </trkpt>
      <trkpt lat="43.33417" lon="16.52713">
        <ele>251.69</ele>
      </trkpt>
      <trkpt lat="43.33412" lon="16.52746">
        <ele>255.61</ele>
      </trkpt>
      <trkpt lat="43.33402" lon="16.52785">
        <ele>257.96</ele>
      </trkpt>
      <trkpt lat="43.3338" lon="16.52858">
        <ele>259.46</ele>
      </trkpt>
      <trkpt lat="43.33372" lon="16.52899">
        <ele>264.31</ele>
      </trkpt>
      <trkpt lat="43.3337" lon="16.52941">
        <ele>268.99</ele>
      </trkpt>
      <trkpt lat="43.3337" lon="16.53008">
        <ele>269.8</ele>
      </trkpt>
      <trkpt lat="43.33375" lon="16.53101">
        <ele>267.05</ele>
      </trkpt>
      <trkpt lat="43.33378" lon="16.53156">
        <ele>267.85</ele>
      </trkpt>
      <trkpt lat="43.3337" lon="16.53236">
        <ele>263.89</ele>
      </trkpt>
      <trkpt lat="43.33367" lon="16.53249">
        <ele>263.23</ele>
      </trkpt>
      <trkpt lat="43.33357" lon="16.53279">
        <ele>261.86</ele>
      </trkpt>
      <trkpt lat="43.33337" lon="16.53316">
        <ele>258.51</ele>
      </trkpt>
      <trkpt lat="43.33329" lon="16.53332">
        <ele>259.12</ele>
      </trkpt>
      <trkpt lat="43.33324" lon="16.53356">
        <ele>260.97</ele>
      </trkpt>
      <trkpt lat="43.33322" lon="16.53374">
        <ele>261.41</ele>
      </trkpt>
      <trkpt lat="43.33323" lon="16.53394">
        <ele>261.6</ele>
      </trkpt>
      <trkpt lat="43.33327" lon="16.53427">
        <ele>262.57</ele>
      </trkpt>
      <trkpt lat="43.33322" lon="16.5348">
        <ele>261.98</ele>
      </trkpt>
      <trkpt lat="43.33312" lon="16.53531">
        <ele>262.09</ele>
      </trkpt>
      <trkpt lat="43.33308" lon="16.53555">
        <ele>262.89</ele>
      </trkpt>
      <trkpt lat="43.33308" lon="16.53574">
        <ele>264.06</ele>
      </trkpt>
      <trkpt lat="43.33314" lon="16.53594">
        <ele>263.78</ele>
      </trkpt>
      <trkpt lat="43.33332" lon="16.53656">
        <ele>263.55</ele>
      </trkpt>
      <trkpt lat="43.33337" lon="16.53695">
        <ele>263.39</ele>
      </trkpt>
      <trkpt lat="43.33335" lon="16.53739">
        <ele>263.06</ele>
      </trkpt>
      <trkpt lat="43.3333" lon="16.53783">
        <ele>263.93</ele>
      </trkpt>
      <trkpt lat="43.33329" lon="16.5382">
        <ele>264.76</ele>
      </trkpt>
      <trkpt lat="43.33333" lon="16.5391">
        <ele>268.57</ele>
      </trkpt>
      <trkpt lat="43.3333" lon="16.53927">
        <ele>270.55</ele>
      </trkpt>
      <trkpt lat="43.33329" lon="16.5395">
        <ele>272.87</ele>
      </trkpt>
      <trkpt lat="43.33327" lon="16.53964">
        <ele>274.09</ele>
      </trkpt>
      <trkpt lat="43.33319" lon="16.53994">
        <ele>275.55</ele>
      </trkpt>
      <trkpt lat="43.33317" lon="16.54004">
        <ele>275.65</ele>
      </trkpt>
      <trkpt lat="43.33267" lon="16.54215">
        <ele>285.64</ele>
      </trkpt>
      <trkpt lat="43.33198" lon="16.54301">
        <ele>284.89</ele>
      </trkpt>
      <trkpt lat="43.3323" lon="16.54507">
        <ele>296.54</ele>
      </trkpt>
      <trkpt lat="43.33167" lon="16.54764">
        <ele>306.48</ele>
      </trkpt>
      <trkpt lat="43.33073" lon="16.55142">
        <ele>327.07</ele>
      </trkpt>
      <trkpt lat="43.33061" lon="16.55374">
        <ele>319.84</ele>
      </trkpt>
      <trkpt lat="43.32974" lon="16.55597">
        <ele>340.76</ele>
      </trkpt>
      <trkpt lat="43.32955" lon="16.5618">
        <ele>360.52</ele>
      </trkpt>
      <trkpt lat="43.33042" lon="16.56464">
        <ele>339.65</ele>
      </trkpt>
      <trkpt lat="43.33105" lon="16.56755">
        <ele>335.1</ele>
      </trkpt>
      <trkpt lat="43.33073" lon="16.57004">
        <ele>337.75</ele>
      </trkpt>
      <trkpt lat="43.32899" lon="16.57167">
        <ele>362.54</ele>
      </trkpt>
      <trkpt lat="43.3288" lon="16.5703">
        <ele>381.77</ele>
      </trkpt>
      <trkpt lat="43.32705" lon="16.57107">
        <ele>410.98</ele>
      </trkpt>
      <trkpt lat="43.32593" lon="16.57236">
        <ele>429.37</ele>
      </trkpt>
      <trkpt lat="43.32299" lon="16.57373">
        <ele>469.31</ele>
      </trkpt>
      <trkpt lat="43.32174" lon="16.57391">
        <ele>479.39</ele>
      </trkpt>
      <trkpt lat="43.31718" lon="16.57734">
        <ele>531.3</ele>
      </trkpt>
      <trkpt lat="43.31594" lon="16.57828">
        <ele>539.76</ele>
      </trkpt>
      <trkpt lat="43.31119" lon="16.57803">
        <ele>558.31</ele>
      </trkpt>
      <trkpt lat="43.30832" lon="16.57674">
        <ele>559.03</ele>
      </trkpt>
      <trkpt lat="43.30519" lon="16.57682">
        <ele>544.3</ele>
      </trkpt>
      <trkpt lat="43.30307" lon="16.57622">
        <ele>548.15</ele>
      </trkpt>
      <trkpt lat="43.30338" lon="16.57382">
        <ele>539.3</ele>
      </trkpt>
      <trkpt lat="43.30257" lon="16.56961">
        <ele>531.19</ele>
      </trkpt>
      <trkpt lat="43.30376" lon="16.5661">
        <ele>518.07</ele>
      </trkpt>
      <trkpt lat="43.30276" lon="16.56472">
        <ele>532.8</ele>
      </trkpt>
      <trkpt lat="43.3027" lon="16.56052">
        <ele>528.31</ele>
      </trkpt>
      <trkpt lat="43.30563" lon="16.55648">
        <ele>518.66</ele>
      </trkpt>
      <trkpt lat="43.30626" lon="16.55382">
        <ele>509.92</ele>
      </trkpt>
      <trkpt lat="43.30563" lon="16.55142">
        <ele>502.54</ele>
      </trkpt>
      <trkpt lat="43.30432" lon="16.54799">
        <ele>504.27</ele>
      </trkpt>
      <trkpt lat="43.30619" lon="16.54567">
        <ele>486.21</ele>
      </trkpt>
      <trkpt lat="43.30807" lon="16.54438">
        <ele>467.5</ele>
      </trkpt>
      <trkpt lat="43.30676" lon="16.54181">
        <ele>455.19</ele>
      </trkpt>
      <trkpt lat="43.30576" lon="16.53854">
        <ele>433.48</ele>
      </trkpt>
      <trkpt lat="43.30382" lon="16.53794">
        <ele>420.78</ele>
      </trkpt>
      <trkpt lat="43.30076" lon="16.53494">
        <ele>381.67</ele>
      </trkpt>
      <trkpt lat="43.30007" lon="16.53185">
        <ele>379.11</ele>
      </trkpt>
      <trkpt lat="43.29895" lon="16.5291">
        <ele>388.75</ele>
      </trkpt>
      <trkpt lat="43.29764" lon="16.52721">
        <ele>376.79</ele>
      </trkpt>
      <trkpt lat="43.29526" lon="16.52653">
        <ele>350.12</ele>
      </trkpt>
      <trkpt lat="43.2937" lon="16.52438">
        <ele>333.07</ele>
      </trkpt>
      <trkpt lat="43.2912" lon="16.52361">
        <ele>290.26</ele>
      </trkpt>
      <trkpt lat="43.2892" lon="16.52164">
        <ele>255.58</ele>
      </trkpt>
      <trkpt lat="43.28758" lon="16.51958">
        <ele>238.76</ele>
      </trkpt>
      <trkpt lat="43.28645" lon="16.51786">
        <ele>234.93</ele>
      </trkpt>
      <trkpt lat="43.28464" lon="16.51606">
        <ele>235.98</ele>
      </trkpt>
      <trkpt lat="43.28708" lon="16.51683">
        <ele>214.76</ele>
      </trkpt>
      <trkpt lat="43.28851" lon="16.51837">
        <ele>209.87</ele>
      </trkpt>
      <trkpt lat="43.29133" lon="16.51906">
        <ele>190.48</ele>
      </trkpt>
      <trkpt lat="43.28995" lon="16.51674">
        <ele>169.27</ele>
      </trkpt>
      <trkpt lat="43.28889" lon="16.51528">
        <ele>148.98</ele>
      </trkpt>
      <trkpt lat="43.28901" lon="16.51314">
        <ele>126.66</ele>
      </trkpt>
      <trkpt lat="43.28908" lon="16.51159">
        <ele>113.06</ele>
      </trkpt>
      <trkpt lat="43.29026" lon="16.50988">
        <ele>131.68</ele>
      </trkpt>
      <trkpt lat="43.28776" lon="16.51039">
        <ele>92.55</ele>
      </trkpt>
      <trkpt lat="43.28552" lon="16.50962">
        <ele>64.28</ele>
      </trkpt>
      <trkpt lat="43.28358" lon="16.50842">
        <ele>20.5</ele>
      </trkpt>
      <trkpt lat="43.28252" lon="16.50661">
        <ele>1.31</ele>
      </trkpt>
      <trkpt lat="43.2832" lon="16.50361">
        <ele>45.07</ele>
      </trkpt>
      <trkpt lat="43.28558" lon="16.50292">
        <ele>59.62</ele>
      </trkpt>
      <trkpt lat="43.28764" lon="16.50318">
        <ele>56.24</ele>
      </trkpt>
      <trkpt lat="43.28776" lon="16.50138">
        <ele>45.27</ele>
      </trkpt>
      <trkpt lat="43.28851" lon="16.49992">
        <ele>56.36</ele>
      </trkpt>
      <trkpt lat="43.28776" lon="16.49855">
        <ele>53.83</ele>
      </trkpt>
      <trkpt lat="43.28908" lon="16.49632">
        <ele>48.25</ele>
      </trkpt>
      <trkpt lat="43.29376" lon="16.4988">
        <ele>10.87</ele>
      </trkpt>
      <trkpt lat="43.29333" lon="16.49649">
        <ele>12.2</ele>
      </trkpt>
      <trkpt lat="43.2927" lon="16.49451">
        <ele>11.78</ele>
      </trkpt>
      <trkpt lat="43.29314" lon="16.49237">
        <ele>24.73</ele>
      </trkpt>
      <trkpt lat="43.29101" lon="16.49245">
        <ele>26.89</ele>
      </trkpt>
      <trkpt lat="43.28889" lon="16.49117">
        <ele>46.26</ele>
      </trkpt>
      <trkpt lat="43.28895" lon="16.48971">
        <ele>39.68</ele>
      </trkpt>
      <trkpt lat="43.29064" lon="16.48816">
        <ele>46.73</ele>
      </trkpt>
      <trkpt lat="43.29295" lon="16.4879">
        <ele>42.1</ele>
      </trkpt>
      <trkpt lat="43.29395" lon="16.48636">
        <ele>51.18</ele>
      </trkpt>
      <trkpt lat="43.29439" lon="16.48537">
        <ele>56.87</ele>
      </trkpt>
      <trkpt lat="43.2957" lon="16.4858">
        <ele>50.95</ele>
      </trkpt>
      <trkpt lat="43.29614" lon="16.48473">
        <ele>41.1</ele>
      </trkpt>
      <trkpt lat="43.29864" lon="16.48396">
        <ele>37.85</ele>
      </trkpt>
      <trkpt lat="43.29739" lon="16.48327">
        <ele>23.22</ele>
      </trkpt>
      <trkpt lat="43.29595" lon="16.48241">
        <ele>14.52</ele>
      </trkpt>
      <trkpt lat="43.29495" lon="16.48151">
        <ele>5.09</ele>
      </trkpt>
      <trkpt lat="43.29501" lon="16.48005">
        <ele>22.76</ele>
      </trkpt>
      <trkpt lat="43.29545" lon="16.47911">
        <ele>26.68</ele>
      </trkpt>
      <trkpt lat="43.29617" lon="16.47808">
        <ele>33.88</ele>
      </trkpt>
      <trkpt lat="43.29536" lon="16.47705">
        <ele>38.13</ele>
      </trkpt>
      <trkpt lat="43.29489" lon="16.47602">
        <ele>36.65</ele>
      </trkpt>
      <trkpt lat="43.29586" lon="16.47507">
        <ele>44.15</ele>
      </trkpt>
      <trkpt lat="43.29735" lon="16.47559">
        <ele>42.12</ele>
      </trkpt>
      <trkpt lat="43.29807" lon="16.47391">
        <ele>45.67</ele>
      </trkpt>
      <trkpt lat="43.29963" lon="16.47331">
        <ele>49.72</ele>
      </trkpt>
      <trkpt lat="43.30017" lon="16.47164">
        <ele>41.35</ele>
      </trkpt>
      <trkpt lat="43.30113" lon="16.47052">
        <ele>29.48</ele>
      </trkpt>
      <trkpt lat="43.30288" lon="16.47121">
        <ele>12.98</ele>
      </trkpt>
      <trkpt lat="43.30379" lon="16.47057">
        <ele>7.96</ele>
      </trkpt>
      <trkpt lat="43.30291" lon="16.46898">
        <ele>0.0</ele>
      </trkpt>
      <trkpt lat="43.30323" lon="16.46752">
        <ele>0.0</ele>
      </trkpt>
      <trkpt lat="43.30279" lon="16.46679">
        <ele>0.0</ele>
      </trkpt>
      <trkpt lat="43.30323" lon="16.46589">
        <ele>2.0</ele>
      </trkpt>
      <trkpt lat="43.30488" lon="16.46593">
        <ele>15.71</ele>
      </trkpt>
      <trkpt lat="43.30666" lon="16.46657">
        <ele>12.58</ele>
      </trkpt>
      <trkpt lat="43.30882" lon="16.4655">
        <ele>12.85</ele>
      </trkpt>
      <trkpt lat="43.30882" lon="16.46541">
        <ele>13.42</ele>
      </trkpt>
      <trkpt lat="43.30879" lon="16.46529">
        <ele>13.86</ele>
      </trkpt>
      <trkpt lat="43.30872" lon="16.4652">
        <ele>14.59</ele>
      </trkpt>
      <trkpt lat="43.30753" lon="16.46486">
        <ele>0.0</ele>
      </trkpt>
      <trkpt lat="43.30745" lon="16.46481">
        <ele>0.0</ele>
      </trkpt>
      <trkpt lat="43.3073" lon="16.46469">
        <ele>0.0</ele>
      </trkpt>
      <trkpt lat="43.30717" lon="16.46452">
        <ele>0.0</ele>
      </trkpt>
      <trkpt lat="43.30708" lon="16.4643">
        <ele>0.0</ele>
      </trkpt>
      <trkpt lat="43.30703" lon="16.46406">
        <ele>1.54</ele>
      </trkpt>
      <trkpt lat="43.30702" lon="16.46381">
        <ele>3.61</ele>
      </trkpt>
      <trkpt lat="43.30703" lon="16.46369">
        <ele>4.22</ele>
      </trkpt>
      <trkpt lat="43.30728" lon="16.46295">
        <ele>20.18</ele>
      </trkpt>
      <trkpt lat="43.30754" lon="16.46243">
        <ele>28.76</ele>
      </trkpt>
      <trkpt lat="43.30788" lon="16.46189">
        <ele>34.88</ele>
      </trkpt>
      <trkpt lat="43.30806" lon="16.46165">
        <ele>34.88</ele>
      </trkpt>
      <trkpt lat="43.3082" lon="16.46153">
        <ele>34.53</ele>
      </trkpt>
      <trkpt lat="43.30833" lon="16.46148">
        <ele>34.98</ele>
      </trkpt>
      <trkpt lat="43.30955" lon="16.46134">
        <ele>44.11</ele>
      </trkpt>
      <trkpt lat="43.30969" lon="16.46129">
        <ele>47.55</ele>
      </trkpt>
      <trkpt lat="43.30981" lon="16.46118">
        <ele>46.85</ele>
      </trkpt>
      <trkpt lat="43.3099" lon="16.46103">
        <ele>46.8</ele>
      </trkpt>
      <trkpt lat="43.30996" lon="16.46082">
        <ele>47.14</ele>
      </trkpt>
      <trkpt lat="43.31007" lon="16.46053">
        <ele>49.88</ele>
      </trkpt>
      <trkpt lat="43.31022" lon="16.46026">
        <ele>53.13</ele>
      </trkpt>
      <trkpt lat="43.3104" lon="16.46004">
        <ele>56.35</ele>
      </trkpt>
      <trkpt lat="43.31108" lon="16.45948">
        <ele>49.36</ele>
      </trkpt>
      <trkpt lat="43.31131" lon="16.45922">
        <ele>49.71</ele>
      </trkpt>
      <trkpt lat="43.31151" lon="16.45891">
        <ele>50.28</ele>
      </trkpt>
      <trkpt lat="43.31168" lon="16.45855">
        <ele>49.86</ele>
      </trkpt>
      <trkpt lat="43.31182" lon="16.45814">
        <ele>51.48</ele>
      </trkpt>
      <trkpt lat="43.3122" lon="16.4563">
        <ele>44.97</ele>
      </trkpt>
      <trkpt lat="43.31228" lon="16.45602">
        <ele>45.02</ele>
      </trkpt>
      <trkpt lat="43.31241" lon="16.45576">
        <ele>44.15</ele>
      </trkpt>
      <trkpt lat="43.31258" lon="16.45555">
        <ele>42.97</ele>
      </trkpt>
      <trkpt lat="43.31278" lon="16.45538">
        <ele>41.12</ele>
      </trkpt>
      <trkpt lat="43.31294" lon="16.4553">
        <ele>40.92</ele>
      </trkpt>
      <trkpt lat="43.31317" lon="16.45522">
        <ele>42.57</ele>
      </trkpt>
      <trkpt lat="43.31338" lon="16.45509">
        <ele>46.29</ele>
      </trkpt>
      <trkpt lat="43.31356" lon="16.4549">
        <ele>43.8</ele>
      </trkpt>
      <trkpt lat="43.31371" lon="16.45466">
        <ele>42.11</ele>
      </trkpt>
      <trkpt lat="43.31383" lon="16.45437">
        <ele>41.35</ele>
      </trkpt>
      <trkpt lat="43.31454" lon="16.45129">
        <ele>31.91</ele>
      </trkpt>
      <trkpt lat="43.3146" lon="16.4509">
        <ele>31.27</ele>
      </trkpt>
      <trkpt lat="43.31471" lon="16.45052">
        <ele>33.71</ele>
      </trkpt>
      <trkpt lat="43.31486" lon="16.45013">
        <ele>30.67</ele>
      </trkpt>
      <trkpt lat="43.31514" lon="16.44967">
        <ele>30.5</ele>
      </trkpt>
      <trkpt lat="43.31542" lon="16.44927">
        <ele>28.94</ele>
      </trkpt>
      <trkpt lat="43.31586" lon="16.44874">
        <ele>31.48</ele>
      </trkpt>
      <trkpt lat="43.31733" lon="16.44687">
        <ele>28.24</ele>
      </trkpt>
      <trkpt lat="43.3174" lon="16.44679">
        <ele>27.45</ele>
      </trkpt>
      <trkpt lat="43.3176" lon="16.44663">
        <ele>27.51</ele>
      </trkpt>
      <trkpt lat="43.31783" lon="16.4465">
        <ele>28.27</ele>
      </trkpt>
      <trkpt lat="43.31724" lon="16.44571">
        <ele>30.37</ele>
      </trkpt>
      <trkpt lat="43.31704" lon="16.44541">
        <ele>29.43</ele>
      </trkpt>
      <trkpt lat="43.31668" lon="16.44498">
        <ele>30.81</ele>
      </trkpt>
      <trkpt lat="43.31639" lon="16.44472">
        <ele>31.02</ele>
      </trkpt>
      <trkpt lat="43.31628" lon="16.44459">
        <ele>31.25</ele>
      </trkpt>
      <trkpt lat="43.3162" lon="16.44445">
        <ele>31.9</ele>
      </trkpt>
      <trkpt lat="43.31606" lon="16.44416">
        <ele>27.05</ele>
      </trkpt>
      <trkpt lat="43.31569" lon="16.44391">
        <ele>24.19</ele>
      </trkpt>
      <trkpt lat="43.31382" lon="16.44284">
        <ele>18.69</ele>
      </trkpt>
      <trkpt lat="43.31362" lon="16.44275">
        <ele>21.0</ele>
      </trkpt>
      <trkpt lat="43.31352" lon="16.44264">
        <ele>22.81</ele>
      </trkpt>
      <trkpt lat="43.31342" lon="16.44258">
        <ele>24.46</ele>
      </trkpt>
      <trkpt lat="43.31316" lon="16.4425">
        <ele>24.75</ele>
      </trkpt>
      <trkpt lat="43.31304" lon="16.44244">
        <ele>23.83</ele>
      </trkpt>
      <trkpt lat="43.31281" lon="16.44217">
        <ele>21.3</ele>
      </trkpt>
      <trkpt lat="43.31258" lon="16.44193">
        <ele>21.0</ele>
      </trkpt>
      <trkpt lat="43.31249" lon="16.44177">
        <ele>20.91</ele>
      </trkpt>
      <trkpt lat="43.31248" lon="16.44165">
        <ele>20.84</ele>
      </trkpt>
      <trkpt lat="43.3125" lon="16.44157">
        <ele>21.35</ele>
      </trkpt>
      <trkpt lat="43.31258" lon="16.44138">
        <ele>21.71</ele>
      </trkpt>
      <trkpt lat="43.31277" lon="16.44101">
        <ele>21.03</ele>
      </trkpt>
      <trkpt lat="43.31289" lon="16.44068">
        <ele>21.91</ele>
      </trkpt>
      <trkpt lat="43.31298" lon="16.44008">
        <ele>19.85</ele>
      </trkpt>
      <trkpt lat="43.31306" lon="16.43967">
        <ele>18.85</ele>
      </trkpt>
      <trkpt lat="43.31316" lon="16.4392">
        <ele>19.79</ele>
      </trkpt>
      <trkpt lat="43.31319" lon="16.43897">
        <ele>20.08</ele>
      </trkpt>
      <trkpt lat="43.31323" lon="16.43877">
        <ele>20.13</ele>
      </trkpt>
      <trkpt lat="43.31329" lon="16.43866">
        <ele>20.11</ele>
      </trkpt>
      <trkpt lat="43.31341" lon="16.43862">
        <ele>20.32</ele>
      </trkpt>
      <trkpt lat="43.31384" lon="16.4386">
        <ele>16.03</ele>
      </trkpt>
      <trkpt lat="43.31421" lon="16.43849">
        <ele>16.18</ele>
      </trkpt>
      <trkpt lat="43.31438" lon="16.43839">
        <ele>16.62</ele>
      </trkpt>
      <trkpt lat="43.31453" lon="16.43834">
        <ele>17.36</ele>
      </trkpt>
      <trkpt lat="43.31473" lon="16.43821">
        <ele>16.31</ele>
      </trkpt>
      <trkpt lat="43.31489" lon="16.43813">
        <ele>16.88</ele>
      </trkpt>
      <trkpt lat="43.31511" lon="16.4381">
        <ele>18.76</ele>
      </trkpt>
      <trkpt lat="43.31551" lon="16.43802">
        <ele>19.57</ele>
      </trkpt>
      <trkpt lat="43.31576" lon="16.43794">
        <ele>19.79</ele>
      </trkpt>
      <trkpt lat="43.31589" lon="16.43785">
        <ele>19.47</ele>
      </trkpt>
      <trkpt lat="43.31624" lon="16.43761">
        <ele>19.42</ele>
      </trkpt>
      <trkpt lat="43.31669" lon="16.43728">
        <ele>20.76</ele>
      </trkpt>
      <trkpt lat="43.31696" lon="16.43695">
        <ele>21.19</ele>
      </trkpt>
      <trkpt lat="43.31718" lon="16.43662">
        <ele>21.04</ele>
      </trkpt>
      <trkpt lat="43.31707" lon="16.43647">
        <ele>18.23</ele>
      </trkpt>
      <trkpt lat="43.31668" lon="16.43589">
        <ele>13.38</ele>
      </trkpt>
      <trkpt lat="43.31641" lon="16.43547">
        <ele>13.99</ele>
      </trkpt>
      <trkpt lat="43.31603" lon="16.43493">
        <ele>8.91</ele>
      </trkpt>
      <trkpt lat="43.31591" lon="16.43472">
        <ele>7.83</ele>
      </trkpt>
      <trkpt lat="43.31584" lon="16.43449">
        <ele>7.87</ele>
      </trkpt>
      <trkpt lat="43.3158" lon="16.43425">
        <ele>8.62</ele>
      </trkpt>
      <trkpt lat="43.3158" lon="16.43412">
        <ele>8.9</ele>
      </trkpt>
      <trkpt lat="43.31575" lon="16.43402">
        <ele>8.86</ele>
      </trkpt>
      <trkpt lat="43.31563" lon="16.43389">
        <ele>9.0</ele>
      </trkpt>
      <trkpt lat="43.31552" lon="16.43386">
        <ele>9.46</ele>
      </trkpt>
      <trkpt lat="43.31544" lon="16.43387">
        <ele>9.97</ele>
      </trkpt>
      <trkpt lat="43.3153" lon="16.43394">
        <ele>10.49</ele>
      </trkpt>
      <trkpt lat="43.31504" lon="16.43393">
        <ele>10.58</ele>
      </trkpt>
      <trkpt lat="43.31492" lon="16.43388">
        <ele>11.01</ele>
      </trkpt>
      <trkpt lat="43.31481" lon="16.43376">
        <ele>11.32</ele>
      </trkpt>
      <trkpt lat="43.31451" lon="16.43342">
        <ele>11.96</ele>
      </trkpt>
      <trkpt lat="43.31433" lon="16.43305">
        <ele>14.22</ele>
      </trkpt>
      <trkpt lat="43.31404" lon="16.43247">
        <ele>16.17</ele>
      </trkpt>
      <trkpt lat="43.31378" lon="16.43214">
        <ele>16.35</ele>
      </trkpt>
      <trkpt lat="43.31349" lon="16.43191">
        <ele>18.24</ele>
      </trkpt>
      <trkpt lat="43.31333" lon="16.4318">
        <ele>20.56</ele>
      </trkpt>
      <trkpt lat="43.31316" lon="16.43171">
        <ele>21.53</ele>
      </trkpt>
      <trkpt lat="43.31298" lon="16.43157">
        <ele>22.75</ele>
      </trkpt>
      <trkpt lat="43.31231" lon="16.42911">
        <ele>46.31</ele>
      </trkpt>
      <trkpt lat="43.31138" lon="16.42731">
        <ele>27.4</ele>
      </trkpt>
      <trkpt lat="43.3145" lon="16.42379">
        <ele>32.79</ele>
      </trkpt>
      <trkpt lat="43.31843" lon="16.42516">
        <ele>35.27</ele>
      </trkpt>
      <trkpt lat="43.32037" lon="16.41907">
        <ele>26.85</ele>
      </trkpt>
      <trkpt lat="43.32043" lon="16.41598">
        <ele>13.6</ele>
      </trkpt>
      <trkpt lat="43.32162" lon="16.41636">
        <ele>25.03</ele>
      </trkpt>
      <trkpt lat="43.32181" lon="16.41246">
        <ele>8.37</ele>
      </trkpt>
      <trkpt lat="43.32318" lon="16.4122">
        <ele>8.06</ele>
      </trkpt>
      <trkpt lat="43.32327" lon="16.41606">
        <ele>30.63</ele>
      </trkpt>
      <trkpt lat="43.32262" lon="16.41714">
        <ele>31.67</ele>
      </trkpt>
      <trkpt lat="43.32206" lon="16.42177">
        <ele>22.2</ele>
      </trkpt>
      <trkpt lat="43.32124" lon="16.42512">
        <ele>19.73</ele>
      </trkpt>
      <trkpt lat="43.32059" lon="16.42787">
        <ele>25.79</ele>
      </trkpt>
      <trkpt lat="43.32024" lon="16.43143">
        <ele>17.27</ele>
      </trkpt>
      <trkpt lat="43.32018" lon="16.43332">
        <ele>18.26</ele>
      </trkpt>
      <trkpt lat="43.32143" lon="16.43276">
        <ele>16.94</ele>
      </trkpt>
      <trkpt lat="43.32215" lon="16.43503">
        <ele>18.23</ele>
      </trkpt>
      <trkpt lat="43.32215" lon="16.43692">
        <ele>21.87</ele>
      </trkpt>
      <trkpt lat="43.32193" lon="16.43808">
        <ele>21.21</ele>
      </trkpt>
      <trkpt lat="43.32274" lon="16.4398">
        <ele>24.79</ele>
      </trkpt>
      <trkpt lat="43.32433" lon="16.44027">
        <ele>30.9</ele>
      </trkpt>
      <trkpt lat="43.32496" lon="16.44177">
        <ele>33.97</ele>
      </trkpt>
      <trkpt lat="43.32521" lon="16.44276">
        <ele>31.97</ele>
      </trkpt>
      <trkpt lat="43.32508" lon="16.44387">
        <ele>29.85</ele>
      </trkpt>
      <trkpt lat="43.32493" lon="16.44529">
        <ele>27.78</ele>
      </trkpt>
      <trkpt lat="43.32437" lon="16.44688">
        <ele>24.47</ele>
      </trkpt>
      <trkpt lat="43.32408" lon="16.44808">
        <ele>16.45</ele>
      </trkpt>
      <trkpt lat="43.32446" lon="16.4486">
        <ele>10.97</ele>
      </trkpt>
      <trkpt lat="43.32476" lon="16.44869">
        <ele>8.24</ele>
      </trkpt>
      <trkpt lat="43.32492" lon="16.44899">
        <ele>7.0</ele>
      </trkpt>
      <trkpt lat="43.32476" lon="16.44952">
        <ele>6.76</ele>
      </trkpt>
    </trkseg>
  </trk>
</gpx>
