<?xml version="1.0"?>
<gpx xmlns="http://www.topografix.com/GPX/1/1" xmlns:xsi="http://www.w3.org/2001/XMLSchema-instance" version="1.1" creator="AllTrails.com" xsi:schemaLocation="http://www.topografix.com/GPX/1/1 http://www.topografix.com/GPX/1/1/gpx.xsd">
  <metadata>
    <name><![CDATA[752 - Cvrčka]]></name>
    <desc><![CDATA[]]></desc>
    <link href="http://www.alltrails.com">
      <text>AllTrails, LLC</text>
    </link>
    <bounds minlat="43.31096" minlon="16.4461" maxlat="43.35346" maxlon="16.50157"/>
  </metadata>
  <trk>
    <name><![CDATA[752 - Cvrčka]]></name>
    <src>AllTrails</src>
    <trkseg>
      <trkpt lat="43.32496" lon="16.44974">
        <ele>6.13</ele>
      </trkpt>
      <trkpt lat="43.32579" lon="16.44971">
        <ele>5.99</ele>
      </trkpt>
      <trkpt lat="43.32594" lon="16.44966">
        <ele>6.68</ele>
      </trkpt>
      <trkpt lat="43.32605" lon="16.44958">
        <ele>7.16</ele>
      </trkpt>
      <trkpt lat="43.32616" lon="16.44943">
        <ele>7.35</ele>
      </trkpt>
      <trkpt lat="43.32622" lon="16.44929">
        <ele>7.78</ele>
      </trkpt>
      <trkpt lat="43.32626" lon="16.44909">
        <ele>8.22</ele>
      </trkpt>
      <trkpt lat="43.32627" lon="16.44888">
        <ele>8.73</ele>
      </trkpt>
      <trkpt lat="43.32632" lon="16.44871">
        <ele>9.42</ele>
      </trkpt>
      <trkpt lat="43.32641" lon="16.44857">
        <ele>9.86</ele>
      </trkpt>
      <trkpt lat="43.32651" lon="16.44848">
        <ele>9.93</ele>
      </trkpt>
      <trkpt lat="43.32739" lon="16.44798">
        <ele>10.44</ele>
      </trkpt>
      <trkpt lat="43.32757" lon="16.4479">
        <ele>10.3</ele>
      </trkpt>
      <trkpt lat="43.32773" lon="16.44786">
        <ele>9.71</ele>
      </trkpt>
      <trkpt lat="43.32797" lon="16.44787">
        <ele>8.74</ele>
      </trkpt>
      <trkpt lat="43.32809" lon="16.4479">
        <ele>8.32</ele>
      </trkpt>
      <trkpt lat="43.32816" lon="16.44794">
        <ele>8.21</ele>
      </trkpt>
      <trkpt lat="43.32823" lon="16.44804">
        <ele>8.32</ele>
      </trkpt>
      <trkpt lat="43.32845" lon="16.44834">
        <ele>9.04</ele>
      </trkpt>
      <trkpt lat="43.32849" lon="16.44835">
        <ele>9.09</ele>
      </trkpt>
      <trkpt lat="43.32855" lon="16.44833">
        <ele>8.99</ele>
      </trkpt>
      <trkpt lat="43.32861" lon="16.44827">
        <ele>8.77</ele>
      </trkpt>
      <trkpt lat="43.32865" lon="16.44816">
        <ele>8.94</ele>
      </trkpt>
      <trkpt lat="43.32863" lon="16.44762">
        <ele>6.67</ele>
      </trkpt>
      <trkpt lat="43.32866" lon="16.44726">
        <ele>5.51</ele>
      </trkpt>
      <trkpt lat="43.32875" lon="16.44691">
        <ele>4.94</ele>
      </trkpt>
      <trkpt lat="43.32877" lon="16.44678">
        <ele>4.81</ele>
      </trkpt>
      <trkpt lat="43.32877" lon="16.44671">
        <ele>4.66</ele>
      </trkpt>
      <trkpt lat="43.32883" lon="16.44662">
        <ele>4.96</ele>
      </trkpt>
      <trkpt lat="43.3289" lon="16.44652">
        <ele>5.57</ele>
      </trkpt>
      <trkpt lat="43.32894" lon="16.44646">
        <ele>5.93</ele>
      </trkpt>
      <trkpt lat="43.32906" lon="16.4464">
        <ele>6.58</ele>
      </trkpt>
      <trkpt lat="43.32923" lon="16.44634">
        <ele>7.94</ele>
      </trkpt>
      <trkpt lat="43.32962" lon="16.4463">
        <ele>10.76</ele>
      </trkpt>
      <trkpt lat="43.32976" lon="16.44624">
        <ele>11.27</ele>
      </trkpt>
      <trkpt lat="43.32998" lon="16.4461">
        <ele>13.04</ele>
      </trkpt>
      <trkpt lat="43.33002" lon="16.44612">
        <ele>13.19</ele>
      </trkpt>
      <trkpt lat="43.33005" lon="16.44622">
        <ele>13.22</ele>
      </trkpt>
      <trkpt lat="43.33005" lon="16.44629">
        <ele>13.01</ele>
      </trkpt>
      <trkpt lat="43.33016" lon="16.4464">
        <ele>14.32</ele>
      </trkpt>
      <trkpt lat="43.33028" lon="16.44658">
        <ele>16.06</ele>
      </trkpt>
      <trkpt lat="43.33041" lon="16.44675">
        <ele>20.88</ele>
      </trkpt>
      <trkpt lat="43.33072" lon="16.44705">
        <ele>28.47</ele>
      </trkpt>
      <trkpt lat="43.33112" lon="16.44724">
        <ele>32.98</ele>
      </trkpt>
      <trkpt lat="43.33129" lon="16.4473">
        <ele>36.1</ele>
      </trkpt>
      <trkpt lat="43.33141" lon="16.44727">
        <ele>38.49</ele>
      </trkpt>
      <trkpt lat="43.33167" lon="16.44714">
        <ele>42.05</ele>
      </trkpt>
      <trkpt lat="43.33174" lon="16.44709">
        <ele>43.06</ele>
      </trkpt>
      <trkpt lat="43.33185" lon="16.4471">
        <ele>44.64</ele>
      </trkpt>
      <trkpt lat="43.33178" lon="16.44762">
        <ele>46.09</ele>
      </trkpt>
      <trkpt lat="43.33178" lon="16.44768">
        <ele>46.52</ele>
      </trkpt>
      <trkpt lat="43.3317" lon="16.4477">
        <ele>45.8</ele>
      </trkpt>
      <trkpt lat="43.33178" lon="16.44768">
        <ele>46.52</ele>
      </trkpt>
      <trkpt lat="43.33178" lon="16.44762">
        <ele>46.09</ele>
      </trkpt>
      <trkpt lat="43.33197" lon="16.4476">
        <ele>47.94</ele>
      </trkpt>
      <trkpt lat="43.33237" lon="16.44754">
        <ele>51.48</ele>
      </trkpt>
      <trkpt lat="43.33256" lon="16.44752">
        <ele>54.21</ele>
      </trkpt>
      <trkpt lat="43.33272" lon="16.44753">
        <ele>57.09</ele>
      </trkpt>
      <trkpt lat="43.3329" lon="16.44758">
        <ele>58.41</ele>
      </trkpt>
      <trkpt lat="43.33306" lon="16.44762">
        <ele>58.91</ele>
      </trkpt>
      <trkpt lat="43.33319" lon="16.4476">
        <ele>60.31</ele>
      </trkpt>
      <trkpt lat="43.33329" lon="16.44757">
        <ele>61.45</ele>
      </trkpt>
      <trkpt lat="43.33347" lon="16.44757">
        <ele>62.74</ele>
      </trkpt>
      <trkpt lat="43.33362" lon="16.44752">
        <ele>63.21</ele>
      </trkpt>
      <trkpt lat="43.3338" lon="16.44749">
        <ele>64.32</ele>
      </trkpt>
      <trkpt lat="43.33427" lon="16.44744">
        <ele>68.44</ele>
      </trkpt>
      <trkpt lat="43.3344" lon="16.44737">
        <ele>71.09</ele>
      </trkpt>
      <trkpt lat="43.33458" lon="16.44725">
        <ele>73.64</ele>
      </trkpt>
      <trkpt lat="43.33467" lon="16.44722">
        <ele>75.03</ele>
      </trkpt>
      <trkpt lat="43.33482" lon="16.44722">
        <ele>77.38</ele>
      </trkpt>
      <trkpt lat="43.33505" lon="16.4472">
        <ele>79.68</ele>
      </trkpt>
      <trkpt lat="43.33516" lon="16.44718">
        <ele>79.39</ele>
      </trkpt>
      <trkpt lat="43.33526" lon="16.44702">
        <ele>77.09</ele>
      </trkpt>
      <trkpt lat="43.33542" lon="16.44693">
        <ele>78.0</ele>
      </trkpt>
      <trkpt lat="43.33553" lon="16.44686">
        <ele>79.58</ele>
      </trkpt>
      <trkpt lat="43.33562" lon="16.44677">
        <ele>80.72</ele>
      </trkpt>
      <trkpt lat="43.33577" lon="16.44668">
        <ele>81.66</ele>
      </trkpt>
      <trkpt lat="43.33585" lon="16.44671">
        <ele>82.66</ele>
      </trkpt>
      <trkpt lat="43.33597" lon="16.4468">
        <ele>85.15</ele>
      </trkpt>
      <trkpt lat="43.33609" lon="16.44685">
        <ele>87.36</ele>
      </trkpt>
      <trkpt lat="43.33661" lon="16.44688">
        <ele>98.12</ele>
      </trkpt>
      <trkpt lat="43.3372" lon="16.44688">
        <ele>109.58</ele>
      </trkpt>
      <trkpt lat="43.33741" lon="16.4469">
        <ele>110.97</ele>
      </trkpt>
      <trkpt lat="43.33752" lon="16.44687">
        <ele>111.88</ele>
      </trkpt>
      <trkpt lat="43.33776" lon="16.44674">
        <ele>115.46</ele>
      </trkpt>
      <trkpt lat="43.33787" lon="16.4467">
        <ele>116.69</ele>
      </trkpt>
      <trkpt lat="43.33794" lon="16.4467">
        <ele>117.7</ele>
      </trkpt>
      <trkpt lat="43.33812" lon="16.44686">
        <ele>121.32</ele>
      </trkpt>
      <trkpt lat="43.33823" lon="16.44688">
        <ele>121.93</ele>
      </trkpt>
      <trkpt lat="43.33842" lon="16.44687">
        <ele>122.9</ele>
      </trkpt>
      <trkpt lat="43.33862" lon="16.44683">
        <ele>124.28</ele>
      </trkpt>
      <trkpt lat="43.33882" lon="16.44668">
        <ele>124.67</ele>
      </trkpt>
      <trkpt lat="43.33891" lon="16.4466">
        <ele>124.52</ele>
      </trkpt>
      <trkpt lat="43.33895" lon="16.44658">
        <ele>124.38</ele>
      </trkpt>
      <trkpt lat="43.33906" lon="16.44655">
        <ele>124.16</ele>
      </trkpt>
      <trkpt lat="43.33925" lon="16.44655">
        <ele>124.96</ele>
      </trkpt>
      <trkpt lat="43.33972" lon="16.44665">
        <ele>130.09</ele>
      </trkpt>
      <trkpt lat="43.34003" lon="16.44676">
        <ele>132.9</ele>
      </trkpt>
      <trkpt lat="43.34029" lon="16.44687">
        <ele>133.06</ele>
      </trkpt>
      <trkpt lat="43.34043" lon="16.44689">
        <ele>131.42</ele>
      </trkpt>
      <trkpt lat="43.34068" lon="16.44691">
        <ele>130.28</ele>
      </trkpt>
      <trkpt lat="43.34105" lon="16.44688">
        <ele>134.04</ele>
      </trkpt>
      <trkpt lat="43.3413" lon="16.44686">
        <ele>135.58</ele>
      </trkpt>
      <trkpt lat="43.34155" lon="16.44678">
        <ele>135.55</ele>
      </trkpt>
      <trkpt lat="43.34167" lon="16.44675">
        <ele>134.87</ele>
      </trkpt>
      <trkpt lat="43.34179" lon="16.44675">
        <ele>133.7</ele>
      </trkpt>
      <trkpt lat="43.34192" lon="16.44678">
        <ele>132.86</ele>
      </trkpt>
      <trkpt lat="43.34204" lon="16.44683">
        <ele>133.35</ele>
      </trkpt>
      <trkpt lat="43.34216" lon="16.44689">
        <ele>134.22</ele>
      </trkpt>
      <trkpt lat="43.34223" lon="16.44696">
        <ele>135.25</ele>
      </trkpt>
      <trkpt lat="43.34226" lon="16.44706">
        <ele>136.89</ele>
      </trkpt>
      <trkpt lat="43.34222" lon="16.44728">
        <ele>139.98</ele>
      </trkpt>
      <trkpt lat="43.34224" lon="16.44738">
        <ele>139.91</ele>
      </trkpt>
      <trkpt lat="43.3423" lon="16.44746">
        <ele>139.68</ele>
      </trkpt>
      <trkpt lat="43.34341" lon="16.448">
        <ele>121.22</ele>
      </trkpt>
      <trkpt lat="43.34358" lon="16.44805">
        <ele>121.87</ele>
      </trkpt>
      <trkpt lat="43.34364" lon="16.44804">
        <ele>121.73</ele>
      </trkpt>
      <trkpt lat="43.34367" lon="16.44798">
        <ele>121.25</ele>
      </trkpt>
      <trkpt lat="43.34395" lon="16.44743">
        <ele>114.83</ele>
      </trkpt>
      <trkpt lat="43.34406" lon="16.44736">
        <ele>115.23</ele>
      </trkpt>
      <trkpt lat="43.34419" lon="16.44738">
        <ele>115.84</ele>
      </trkpt>
      <trkpt lat="43.3444" lon="16.44738">
        <ele>114.43</ele>
      </trkpt>
      <trkpt lat="43.34557" lon="16.44731">
        <ele>94.3</ele>
      </trkpt>
      <trkpt lat="43.34578" lon="16.44733">
        <ele>94.07</ele>
      </trkpt>
      <trkpt lat="43.34591" lon="16.44736">
        <ele>92.62</ele>
      </trkpt>
      <trkpt lat="43.34606" lon="16.44741">
        <ele>89.92</ele>
      </trkpt>
      <trkpt lat="43.34614" lon="16.44748">
        <ele>88.89</ele>
      </trkpt>
      <trkpt lat="43.3462" lon="16.44759">
        <ele>89.32</ele>
      </trkpt>
      <trkpt lat="43.34625" lon="16.44767">
        <ele>90.03</ele>
      </trkpt>
      <trkpt lat="43.3463" lon="16.44767">
        <ele>90.18</ele>
      </trkpt>
      <trkpt lat="43.34634" lon="16.44763">
        <ele>89.8</ele>
      </trkpt>
      <trkpt lat="43.3464" lon="16.44756">
        <ele>88.86</ele>
      </trkpt>
      <trkpt lat="43.34649" lon="16.44751">
        <ele>88.13</ele>
      </trkpt>
      <trkpt lat="43.34655" lon="16.44752">
        <ele>88.25</ele>
      </trkpt>
      <trkpt lat="43.34661" lon="16.44755">
        <ele>88.58</ele>
      </trkpt>
      <trkpt lat="43.34668" lon="16.44761">
        <ele>88.89</ele>
      </trkpt>
      <trkpt lat="43.34671" lon="16.44765">
        <ele>88.59</ele>
      </trkpt>
      <trkpt lat="43.34693" lon="16.44772">
        <ele>83.38</ele>
      </trkpt>
      <trkpt lat="43.34708" lon="16.44775">
        <ele>81.05</ele>
      </trkpt>
      <trkpt lat="43.34714" lon="16.44776">
        <ele>80.18</ele>
      </trkpt>
      <trkpt lat="43.34745" lon="16.44804">
        <ele>80.55</ele>
      </trkpt>
      <trkpt lat="43.34776" lon="16.44842">
        <ele>77.42</ele>
      </trkpt>
      <trkpt lat="43.34787" lon="16.44857">
        <ele>73.64</ele>
      </trkpt>
      <trkpt lat="43.34809" lon="16.44882">
        <ele>65.91</ele>
      </trkpt>
      <trkpt lat="43.34819" lon="16.44888">
        <ele>64.08</ele>
      </trkpt>
      <trkpt lat="43.34827" lon="16.44891">
        <ele>62.57</ele>
      </trkpt>
      <trkpt lat="43.3484" lon="16.44892">
        <ele>59.47</ele>
      </trkpt>
      <trkpt lat="43.34855" lon="16.44893">
        <ele>54.73</ele>
      </trkpt>
      <trkpt lat="43.34872" lon="16.44897">
        <ele>49.57</ele>
      </trkpt>
      <trkpt lat="43.34888" lon="16.44908">
        <ele>44.57</ele>
      </trkpt>
      <trkpt lat="43.34897" lon="16.4491">
        <ele>42.27</ele>
      </trkpt>
      <trkpt lat="43.34904" lon="16.44907">
        <ele>40.73</ele>
      </trkpt>
      <trkpt lat="43.34908" lon="16.44902">
        <ele>40.08</ele>
      </trkpt>
      <trkpt lat="43.34913" lon="16.44891">
        <ele>39.65</ele>
      </trkpt>
      <trkpt lat="43.3492" lon="16.44884">
        <ele>39.05</ele>
      </trkpt>
      <trkpt lat="43.34927" lon="16.44883">
        <ele>38.15</ele>
      </trkpt>
      <trkpt lat="43.34943" lon="16.44896">
        <ele>34.45</ele>
      </trkpt>
      <trkpt lat="43.34963" lon="16.44913">
        <ele>31.15</ele>
      </trkpt>
      <trkpt lat="43.3498" lon="16.44925">
        <ele>27.55</ele>
      </trkpt>
      <trkpt lat="43.34997" lon="16.44932">
        <ele>24.66</ele>
      </trkpt>
      <trkpt lat="43.35008" lon="16.44934">
        <ele>22.11</ele>
      </trkpt>
      <trkpt lat="43.35017" lon="16.44932">
        <ele>20.06</ele>
      </trkpt>
      <trkpt lat="43.35025" lon="16.44925">
        <ele>18.8</ele>
      </trkpt>
      <trkpt lat="43.35036" lon="16.44916">
        <ele>16.38</ele>
      </trkpt>
      <trkpt lat="43.35049" lon="16.4491">
        <ele>12.42</ele>
      </trkpt>
      <trkpt lat="43.35064" lon="16.44904">
        <ele>9.41</ele>
      </trkpt>
      <trkpt lat="43.35068" lon="16.44905">
        <ele>8.89</ele>
      </trkpt>
      <trkpt lat="43.35069" lon="16.44912">
        <ele>8.63</ele>
      </trkpt>
      <trkpt lat="43.35069" lon="16.44931">
        <ele>7.77</ele>
      </trkpt>
      <trkpt lat="43.35069" lon="16.44978">
        <ele>6.03</ele>
      </trkpt>
      <trkpt lat="43.3507" lon="16.44997">
        <ele>6.0</ele>
      </trkpt>
      <trkpt lat="43.35074" lon="16.45012">
        <ele>6.29</ele>
      </trkpt>
      <trkpt lat="43.35081" lon="16.45019">
        <ele>6.11</ele>
      </trkpt>
      <trkpt lat="43.35089" lon="16.45023">
        <ele>6.37</ele>
      </trkpt>
      <trkpt lat="43.35107" lon="16.4502">
        <ele>7.47</ele>
      </trkpt>
      <trkpt lat="43.35115" lon="16.45021">
        <ele>8.14</ele>
      </trkpt>
      <trkpt lat="43.35123" lon="16.45025">
        <ele>9.14</ele>
      </trkpt>
      <trkpt lat="43.35126" lon="16.45031">
        <ele>9.65</ele>
      </trkpt>
      <trkpt lat="43.35125" lon="16.45037">
        <ele>9.67</ele>
      </trkpt>
      <trkpt lat="43.35073" lon="16.45093">
        <ele>14.55</ele>
      </trkpt>
      <trkpt lat="43.35035" lon="16.45136">
        <ele>23.65</ele>
      </trkpt>
      <trkpt lat="43.35005" lon="16.45179">
        <ele>33.98</ele>
      </trkpt>
      <trkpt lat="43.35" lon="16.45182">
        <ele>35.0</ele>
      </trkpt>
      <trkpt lat="43.35005" lon="16.45179">
        <ele>33.98</ele>
      </trkpt>
      <trkpt lat="43.35019" lon="16.45177">
        <ele>30.98</ele>
      </trkpt>
      <trkpt lat="43.35026" lon="16.45179">
        <ele>29.69</ele>
      </trkpt>
      <trkpt lat="43.35032" lon="16.45185">
        <ele>28.97</ele>
      </trkpt>
      <trkpt lat="43.35036" lon="16.45193">
        <ele>28.79</ele>
      </trkpt>
      <trkpt lat="43.35038" lon="16.45207">
        <ele>29.49</ele>
      </trkpt>
      <trkpt lat="43.35038" lon="16.4522">
        <ele>30.6</ele>
      </trkpt>
      <trkpt lat="43.35034" lon="16.45235">
        <ele>30.99</ele>
      </trkpt>
      <trkpt lat="43.34973" lon="16.45355">
        <ele>30.15</ele>
      </trkpt>
      <trkpt lat="43.34968" lon="16.45366">
        <ele>30.13</ele>
      </trkpt>
      <trkpt lat="43.34981" lon="16.45357">
        <ele>29.29</ele>
      </trkpt>
      <trkpt lat="43.35016" lon="16.45334">
        <ele>25.31</ele>
      </trkpt>
      <trkpt lat="43.35054" lon="16.45313">
        <ele>14.8</ele>
      </trkpt>
      <trkpt lat="43.35064" lon="16.45305">
        <ele>12.94</ele>
      </trkpt>
      <trkpt lat="43.35085" lon="16.45282">
        <ele>9.58</ele>
      </trkpt>
      <trkpt lat="43.35116" lon="16.45262">
        <ele>9.62</ele>
      </trkpt>
      <trkpt lat="43.35123" lon="16.45267">
        <ele>8.2</ele>
      </trkpt>
      <trkpt lat="43.35124" lon="16.45273">
        <ele>7.52</ele>
      </trkpt>
      <trkpt lat="43.35122" lon="16.45288">
        <ele>6.62</ele>
      </trkpt>
      <trkpt lat="43.35115" lon="16.45318">
        <ele>5.54</ele>
      </trkpt>
      <trkpt lat="43.35109" lon="16.4533">
        <ele>5.34</ele>
      </trkpt>
      <trkpt lat="43.35102" lon="16.45339">
        <ele>5.98</ele>
      </trkpt>
      <trkpt lat="43.35101" lon="16.45355">
        <ele>6.09</ele>
      </trkpt>
      <trkpt lat="43.35105" lon="16.4537">
        <ele>5.91</ele>
      </trkpt>
      <trkpt lat="43.35111" lon="16.45388">
        <ele>5.98</ele>
      </trkpt>
      <trkpt lat="43.35114" lon="16.45392">
        <ele>6.43</ele>
      </trkpt>
      <trkpt lat="43.3512" lon="16.45396">
        <ele>7.01</ele>
      </trkpt>
      <trkpt lat="43.35128" lon="16.45394">
        <ele>7.05</ele>
      </trkpt>
      <trkpt lat="43.35145" lon="16.45384">
        <ele>7.45</ele>
      </trkpt>
      <trkpt lat="43.35155" lon="16.45382">
        <ele>8.35</ele>
      </trkpt>
      <trkpt lat="43.35164" lon="16.45377">
        <ele>8.9</ele>
      </trkpt>
      <trkpt lat="43.35229" lon="16.45356">
        <ele>8.74</ele>
      </trkpt>
      <trkpt lat="43.35241" lon="16.45349">
        <ele>8.66</ele>
      </trkpt>
      <trkpt lat="43.35268" lon="16.45337">
        <ele>7.62</ele>
      </trkpt>
      <trkpt lat="43.35285" lon="16.4533">
        <ele>6.18</ele>
      </trkpt>
      <trkpt lat="43.35298" lon="16.45329">
        <ele>5.3</ele>
      </trkpt>
      <trkpt lat="43.35306" lon="16.45333">
        <ele>4.97</ele>
      </trkpt>
      <trkpt lat="43.35318" lon="16.45347">
        <ele>6.74</ele>
      </trkpt>
      <trkpt lat="43.35332" lon="16.45369">
        <ele>9.01</ele>
      </trkpt>
      <trkpt lat="43.35335" lon="16.45387">
        <ele>8.82</ele>
      </trkpt>
      <trkpt lat="43.35339" lon="16.45404">
        <ele>8.07</ele>
      </trkpt>
      <trkpt lat="43.35345" lon="16.45445">
        <ele>6.56</ele>
      </trkpt>
      <trkpt lat="43.35346" lon="16.45458">
        <ele>6.06</ele>
      </trkpt>
      <trkpt lat="43.35342" lon="16.45485">
        <ele>5.08</ele>
      </trkpt>
      <trkpt lat="43.35324" lon="16.45536">
        <ele>6.2</ele>
      </trkpt>
      <trkpt lat="43.3531" lon="16.45586">
        <ele>7.52</ele>
      </trkpt>
      <trkpt lat="43.35305" lon="16.45614">
        <ele>5.85</ele>
      </trkpt>
      <trkpt lat="43.35292" lon="16.45641">
        <ele>4.78</ele>
      </trkpt>
      <trkpt lat="43.35284" lon="16.45652">
        <ele>4.76</ele>
      </trkpt>
      <trkpt lat="43.35272" lon="16.45662">
        <ele>5.65</ele>
      </trkpt>
      <trkpt lat="43.35256" lon="16.4568">
        <ele>6.3</ele>
      </trkpt>
      <trkpt lat="43.35211" lon="16.4573">
        <ele>7.37</ele>
      </trkpt>
      <trkpt lat="43.35206" lon="16.45738">
        <ele>7.05</ele>
      </trkpt>
      <trkpt lat="43.352" lon="16.45758">
        <ele>6.17</ele>
      </trkpt>
      <trkpt lat="43.35185" lon="16.45807">
        <ele>4.64</ele>
      </trkpt>
      <trkpt lat="43.35171" lon="16.45841">
        <ele>3.72</ele>
      </trkpt>
      <trkpt lat="43.35155" lon="16.45859">
        <ele>4.79</ele>
      </trkpt>
      <trkpt lat="43.35137" lon="16.45884">
        <ele>5.64</ele>
      </trkpt>
      <trkpt lat="43.35118" lon="16.45908">
        <ele>6.46</ele>
      </trkpt>
      <trkpt lat="43.3509" lon="16.45938">
        <ele>8.63</ele>
      </trkpt>
      <trkpt lat="43.35078" lon="16.45957">
        <ele>8.85</ele>
      </trkpt>
      <trkpt lat="43.35054" lon="16.45979">
        <ele>8.76</ele>
      </trkpt>
      <trkpt lat="43.35034" lon="16.46011">
        <ele>7.21</ele>
      </trkpt>
      <trkpt lat="43.35026" lon="16.46026">
        <ele>6.26</ele>
      </trkpt>
      <trkpt lat="43.35022" lon="16.46041">
        <ele>5.94</ele>
      </trkpt>
      <trkpt lat="43.35006" lon="16.46102">
        <ele>5.78</ele>
      </trkpt>
      <trkpt lat="43.35006" lon="16.4612">
        <ele>5.78</ele>
      </trkpt>
      <trkpt lat="43.3501" lon="16.46132">
        <ele>5.64</ele>
      </trkpt>
      <trkpt lat="43.3502" lon="16.46143">
        <ele>5.47</ele>
      </trkpt>
      <trkpt lat="43.35026" lon="16.46153">
        <ele>5.6</ele>
      </trkpt>
      <trkpt lat="43.35032" lon="16.46174">
        <ele>6.18</ele>
      </trkpt>
      <trkpt lat="43.35035" lon="16.46203">
        <ele>6.56</ele>
      </trkpt>
      <trkpt lat="43.35032" lon="16.46231">
        <ele>6.9</ele>
      </trkpt>
      <trkpt lat="43.35026" lon="16.46251">
        <ele>7.0</ele>
      </trkpt>
      <trkpt lat="43.35016" lon="16.46276">
        <ele>7.0</ele>
      </trkpt>
      <trkpt lat="43.35007" lon="16.46294">
        <ele>7.0</ele>
      </trkpt>
      <trkpt lat="43.34981" lon="16.46353">
        <ele>7.2</ele>
      </trkpt>
      <trkpt lat="43.3496" lon="16.46387">
        <ele>6.59</ele>
      </trkpt>
      <trkpt lat="43.34937" lon="16.46416">
        <ele>7.52</ele>
      </trkpt>
      <trkpt lat="43.34933" lon="16.46429">
        <ele>7.9</ele>
      </trkpt>
      <trkpt lat="43.34933" lon="16.46442">
        <ele>7.98</ele>
      </trkpt>
      <trkpt lat="43.34938" lon="16.46459">
        <ele>8.0</ele>
      </trkpt>
      <trkpt lat="43.34932" lon="16.46465">
        <ele>8.0</ele>
      </trkpt>
      <trkpt lat="43.34922" lon="16.4648">
        <ele>8.05</ele>
      </trkpt>
      <trkpt lat="43.34906" lon="16.46523">
        <ele>9.28</ele>
      </trkpt>
      <trkpt lat="43.34892" lon="16.46554">
        <ele>9.89</ele>
      </trkpt>
      <trkpt lat="43.34868" lon="16.46591">
        <ele>12.39</ele>
      </trkpt>
      <trkpt lat="43.34861" lon="16.466">
        <ele>13.01</ele>
      </trkpt>
      <trkpt lat="43.34852" lon="16.46606">
        <ele>13.98</ele>
      </trkpt>
      <trkpt lat="43.34822" lon="16.46613">
        <ele>18.02</ele>
      </trkpt>
      <trkpt lat="43.34807" lon="16.46621">
        <ele>20.08</ele>
      </trkpt>
      <trkpt lat="43.34787" lon="16.46638">
        <ele>22.34</ele>
      </trkpt>
      <trkpt lat="43.34773" lon="16.46655">
        <ele>22.6</ele>
      </trkpt>
      <trkpt lat="43.34764" lon="16.46676">
        <ele>20.98</ele>
      </trkpt>
      <trkpt lat="43.34752" lon="16.46736">
        <ele>19.42</ele>
      </trkpt>
      <trkpt lat="43.34746" lon="16.46767">
        <ele>22.06</ele>
      </trkpt>
      <trkpt lat="43.34737" lon="16.468">
        <ele>31.69</ele>
      </trkpt>
      <trkpt lat="43.34723" lon="16.4683">
        <ele>36.52</ele>
      </trkpt>
      <trkpt lat="43.34687" lon="16.46886">
        <ele>42.14</ele>
      </trkpt>
      <trkpt lat="43.3468" lon="16.46902">
        <ele>42.62</ele>
      </trkpt>
      <trkpt lat="43.34675" lon="16.46918">
        <ele>41.84</ele>
      </trkpt>
      <trkpt lat="43.34673" lon="16.46935">
        <ele>43.54</ele>
      </trkpt>
      <trkpt lat="43.34669" lon="16.46949">
        <ele>44.51</ele>
      </trkpt>
      <trkpt lat="43.34652" lon="16.46982">
        <ele>50.37</ele>
      </trkpt>
      <trkpt lat="43.34649" lon="16.46993">
        <ele>52.13</ele>
      </trkpt>
      <trkpt lat="43.34649" lon="16.47005">
        <ele>53.76</ele>
      </trkpt>
      <trkpt lat="43.34649" lon="16.47015">
        <ele>55.46</ele>
      </trkpt>
      <trkpt lat="43.34644" lon="16.47027">
        <ele>57.69</ele>
      </trkpt>
      <trkpt lat="43.34622" lon="16.47068">
        <ele>56.66</ele>
      </trkpt>
      <trkpt lat="43.34615" lon="16.47083">
        <ele>55.25</ele>
      </trkpt>
      <trkpt lat="43.34612" lon="16.47097">
        <ele>54.83</ele>
      </trkpt>
      <trkpt lat="43.3461" lon="16.47114">
        <ele>55.94</ele>
      </trkpt>
      <trkpt lat="43.34605" lon="16.47132">
        <ele>60.43</ele>
      </trkpt>
      <trkpt lat="43.34598" lon="16.47158">
        <ele>66.34</ele>
      </trkpt>
      <trkpt lat="43.34597" lon="16.47184">
        <ele>70.98</ele>
      </trkpt>
      <trkpt lat="43.34597" lon="16.47214">
        <ele>74.93</ele>
      </trkpt>
      <trkpt lat="43.34593" lon="16.47236">
        <ele>77.72</ele>
      </trkpt>
      <trkpt lat="43.34569" lon="16.47314">
        <ele>89.37</ele>
      </trkpt>
      <trkpt lat="43.34569" lon="16.47337">
        <ele>93.18</ele>
      </trkpt>
      <trkpt lat="43.34571" lon="16.47348">
        <ele>95.08</ele>
      </trkpt>
      <trkpt lat="43.3458" lon="16.47354">
        <ele>95.84</ele>
      </trkpt>
      <trkpt lat="43.34542" lon="16.47413">
        <ele>101.72</ele>
      </trkpt>
      <trkpt lat="43.34519" lon="16.47417">
        <ele>100.7</ele>
      </trkpt>
      <trkpt lat="43.34498" lon="16.4746">
        <ele>109.42</ele>
      </trkpt>
      <trkpt lat="43.34483" lon="16.47474">
        <ele>112.31</ele>
      </trkpt>
      <trkpt lat="43.34469" lon="16.47486">
        <ele>113.38</ele>
      </trkpt>
      <trkpt lat="43.34462" lon="16.4752">
        <ele>115.7</ele>
      </trkpt>
      <trkpt lat="43.34455" lon="16.47535">
        <ele>117.4</ele>
      </trkpt>
      <trkpt lat="43.34447" lon="16.47547">
        <ele>118.98</ele>
      </trkpt>
      <trkpt lat="43.34426" lon="16.47533">
        <ele>120.76</ele>
      </trkpt>
      <trkpt lat="43.34413" lon="16.47539">
        <ele>123.78</ele>
      </trkpt>
      <trkpt lat="43.34385" lon="16.47542">
        <ele>130.76</ele>
      </trkpt>
      <trkpt lat="43.34366" lon="16.47542">
        <ele>134.6</ele>
      </trkpt>
      <trkpt lat="43.34337" lon="16.47542">
        <ele>140.77</ele>
      </trkpt>
      <trkpt lat="43.34317" lon="16.47539">
        <ele>143.84</ele>
      </trkpt>
      <trkpt lat="43.34292" lon="16.47534">
        <ele>148.16</ele>
      </trkpt>
      <trkpt lat="43.34269" lon="16.47528">
        <ele>153.53</ele>
      </trkpt>
      <trkpt lat="43.34245" lon="16.47528">
        <ele>159.17</ele>
      </trkpt>
      <trkpt lat="43.34218" lon="16.47521">
        <ele>160.5</ele>
      </trkpt>
      <trkpt lat="43.34196" lon="16.47511">
        <ele>165.6</ele>
      </trkpt>
      <trkpt lat="43.34175" lon="16.47543">
        <ele>170.07</ele>
      </trkpt>
      <trkpt lat="43.34157" lon="16.47559">
        <ele>170.45</ele>
      </trkpt>
      <trkpt lat="43.34133" lon="16.4756">
        <ele>174.59</ele>
      </trkpt>
      <trkpt lat="43.34119" lon="16.47551">
        <ele>181.92</ele>
      </trkpt>
      <trkpt lat="43.34093" lon="16.47557">
        <ele>185.49</ele>
      </trkpt>
      <trkpt lat="43.34055" lon="16.47572">
        <ele>188.02</ele>
      </trkpt>
      <trkpt lat="43.34027" lon="16.47588">
        <ele>186.27</ele>
      </trkpt>
      <trkpt lat="43.33996" lon="16.47602">
        <ele>195.33</ele>
      </trkpt>
      <trkpt lat="43.33959" lon="16.47614">
        <ele>197.74</ele>
      </trkpt>
      <trkpt lat="43.33933" lon="16.47617">
        <ele>199.05</ele>
      </trkpt>
      <trkpt lat="43.33905" lon="16.47621">
        <ele>202.53</ele>
      </trkpt>
      <trkpt lat="43.3387" lon="16.47625">
        <ele>207.9</ele>
      </trkpt>
      <trkpt lat="43.33838" lon="16.47636">
        <ele>210.28</ele>
      </trkpt>
      <trkpt lat="43.33806" lon="16.47645">
        <ele>216.78</ele>
      </trkpt>
      <trkpt lat="43.33747" lon="16.47663">
        <ele>221.74</ele>
      </trkpt>
      <trkpt lat="43.33724" lon="16.47679">
        <ele>221.52</ele>
      </trkpt>
      <trkpt lat="43.33704" lon="16.47697">
        <ele>221.31</ele>
      </trkpt>
      <trkpt lat="43.33679" lon="16.47722">
        <ele>223.42</ele>
      </trkpt>
      <trkpt lat="43.33656" lon="16.47753">
        <ele>225.75</ele>
      </trkpt>
      <trkpt lat="43.33631" lon="16.47782">
        <ele>230.85</ele>
      </trkpt>
      <trkpt lat="43.33615" lon="16.4781">
        <ele>231.88</ele>
      </trkpt>
      <trkpt lat="43.33592" lon="16.47846">
        <ele>234.46</ele>
      </trkpt>
      <trkpt lat="43.33571" lon="16.47875">
        <ele>235.05</ele>
      </trkpt>
      <trkpt lat="43.33536" lon="16.47916">
        <ele>241.51</ele>
      </trkpt>
      <trkpt lat="43.33512" lon="16.47947">
        <ele>243.38</ele>
      </trkpt>
      <trkpt lat="43.33493" lon="16.47987">
        <ele>245.52</ele>
      </trkpt>
      <trkpt lat="43.33475" lon="16.48017">
        <ele>248.86</ele>
      </trkpt>
      <trkpt lat="43.33434" lon="16.48078">
        <ele>257.7</ele>
      </trkpt>
      <trkpt lat="43.33409" lon="16.48123">
        <ele>259.41</ele>
      </trkpt>
      <trkpt lat="43.3339" lon="16.48165">
        <ele>263.8</ele>
      </trkpt>
      <trkpt lat="43.33373" lon="16.482">
        <ele>265.03</ele>
      </trkpt>
      <trkpt lat="43.33373" lon="16.48242">
        <ele>265.96</ele>
      </trkpt>
      <trkpt lat="43.33361" lon="16.48281">
        <ele>267.77</ele>
      </trkpt>
      <trkpt lat="43.33343" lon="16.48315">
        <ele>267.96</ele>
      </trkpt>
      <trkpt lat="43.3332" lon="16.4835">
        <ele>269.67</ele>
      </trkpt>
      <trkpt lat="43.33297" lon="16.48382">
        <ele>269.92</ele>
      </trkpt>
      <trkpt lat="43.33288" lon="16.48404">
        <ele>270.34</ele>
      </trkpt>
      <trkpt lat="43.33268" lon="16.48425">
        <ele>270.0</ele>
      </trkpt>
      <trkpt lat="43.33246" lon="16.48448">
        <ele>267.33</ele>
      </trkpt>
      <trkpt lat="43.33207" lon="16.48473">
        <ele>262.29</ele>
      </trkpt>
      <trkpt lat="43.33184" lon="16.48497">
        <ele>258.46</ele>
      </trkpt>
      <trkpt lat="43.33156" lon="16.4852">
        <ele>255.51</ele>
      </trkpt>
      <trkpt lat="43.33129" lon="16.4854">
        <ele>253.49</ele>
      </trkpt>
      <trkpt lat="43.33108" lon="16.48567">
        <ele>251.54</ele>
      </trkpt>
      <trkpt lat="43.33086" lon="16.48614">
        <ele>248.02</ele>
      </trkpt>
      <trkpt lat="43.33055" lon="16.48644">
        <ele>237.86</ele>
      </trkpt>
      <trkpt lat="43.33032" lon="16.4868">
        <ele>237.81</ele>
      </trkpt>
      <trkpt lat="43.33012" lon="16.48708">
        <ele>236.74</ele>
      </trkpt>
      <trkpt lat="43.32992" lon="16.48731">
        <ele>236.57</ele>
      </trkpt>
      <trkpt lat="43.32968" lon="16.48752">
        <ele>239.48</ele>
      </trkpt>
      <trkpt lat="43.32944" lon="16.48764">
        <ele>238.94</ele>
      </trkpt>
      <trkpt lat="43.32925" lon="16.48797">
        <ele>234.39</ele>
      </trkpt>
      <trkpt lat="43.32893" lon="16.48835">
        <ele>228.09</ele>
      </trkpt>
      <trkpt lat="43.3287" lon="16.48863">
        <ele>224.98</ele>
      </trkpt>
      <trkpt lat="43.32843" lon="16.48888">
        <ele>226.01</ele>
      </trkpt>
      <trkpt lat="43.32811" lon="16.48909">
        <ele>226.08</ele>
      </trkpt>
      <trkpt lat="43.32775" lon="16.48942">
        <ele>225.81</ele>
      </trkpt>
      <trkpt lat="43.32747" lon="16.48958">
        <ele>223.34</ele>
      </trkpt>
      <trkpt lat="43.32725" lon="16.48971">
        <ele>226.43</ele>
      </trkpt>
      <trkpt lat="43.32696" lon="16.48991">
        <ele>223.38</ele>
      </trkpt>
      <trkpt lat="43.32669" lon="16.49011">
        <ele>225.19</ele>
      </trkpt>
      <trkpt lat="43.32645" lon="16.49044">
        <ele>224.57</ele>
      </trkpt>
      <trkpt lat="43.32614" lon="16.49077">
        <ele>224.37</ele>
      </trkpt>
      <trkpt lat="43.32591" lon="16.49112">
        <ele>221.88</ele>
      </trkpt>
      <trkpt lat="43.32572" lon="16.49142">
        <ele>219.27</ele>
      </trkpt>
      <trkpt lat="43.32554" lon="16.49189">
        <ele>217.8</ele>
      </trkpt>
      <trkpt lat="43.3254" lon="16.49238">
        <ele>213.31</ele>
      </trkpt>
      <trkpt lat="43.32548" lon="16.49258">
        <ele>214.03</ele>
      </trkpt>
      <trkpt lat="43.32512" lon="16.49335">
        <ele>218.07</ele>
      </trkpt>
      <trkpt lat="43.32477" lon="16.4941">
        <ele>223.65</ele>
      </trkpt>
      <trkpt lat="43.32446" lon="16.49481">
        <ele>227.12</ele>
      </trkpt>
      <trkpt lat="43.3244" lon="16.49539">
        <ele>232.65</ele>
      </trkpt>
      <trkpt lat="43.32401" lon="16.49578">
        <ele>236.35</ele>
      </trkpt>
      <trkpt lat="43.32369" lon="16.49623">
        <ele>243.59</ele>
      </trkpt>
      <trkpt lat="43.32349" lon="16.49683">
        <ele>246.82</ele>
      </trkpt>
      <trkpt lat="43.32323" lon="16.49739">
        <ele>247.44</ele>
      </trkpt>
      <trkpt lat="43.3229" lon="16.49771">
        <ele>248.39</ele>
      </trkpt>
      <trkpt lat="43.32262" lon="16.49812">
        <ele>247.29</ele>
      </trkpt>
      <trkpt lat="43.32241" lon="16.49855">
        <ele>249.68</ele>
      </trkpt>
      <trkpt lat="43.32193" lon="16.49891">
        <ele>249.25</ele>
      </trkpt>
      <trkpt lat="43.32151" lon="16.4993">
        <ele>252.81</ele>
      </trkpt>
      <trkpt lat="43.32115" lon="16.49973">
        <ele>256.22</ele>
      </trkpt>
      <trkpt lat="43.32068" lon="16.50016">
        <ele>259.18</ele>
      </trkpt>
      <trkpt lat="43.3204" lon="16.50059">
        <ele>263.89</ele>
      </trkpt>
      <trkpt lat="43.31989" lon="16.50086">
        <ele>262.25</ele>
      </trkpt>
      <trkpt lat="43.31929" lon="16.50067">
        <ele>261.07</ele>
      </trkpt>
      <trkpt lat="43.31898" lon="16.50059">
        <ele>259.87</ele>
      </trkpt>
      <trkpt lat="43.31868" lon="16.50074">
        <ele>263.91</ele>
      </trkpt>
      <trkpt lat="43.31817" lon="16.50099">
        <ele>266.7</ele>
      </trkpt>
      <trkpt lat="43.31786" lon="16.50106">
        <ele>266.45</ele>
      </trkpt>
      <trkpt lat="43.31767" lon="16.50138">
        <ele>268.94</ele>
      </trkpt>
      <trkpt lat="43.31723" lon="16.50157">
        <ele>266.74</ele>
      </trkpt>
      <trkpt lat="43.31676" lon="16.50149">
        <ele>264.34</ele>
      </trkpt>
      <trkpt lat="43.31614" lon="16.50123">
        <ele>259.53</ele>
      </trkpt>
      <trkpt lat="43.31567" lon="16.50102">
        <ele>255.12</ele>
      </trkpt>
      <trkpt lat="43.31574" lon="16.50065">
        <ele>253.11</ele>
      </trkpt>
      <trkpt lat="43.31597" lon="16.50011">
        <ele>252.15</ele>
      </trkpt>
      <trkpt lat="43.31613" lon="16.49969">
        <ele>250.82</ele>
      </trkpt>
      <trkpt lat="43.31627" lon="16.49943">
        <ele>250.22</ele>
      </trkpt>
      <trkpt lat="43.31651" lon="16.49912">
        <ele>248.6</ele>
      </trkpt>
      <trkpt lat="43.31676" lon="16.49875">
        <ele>243.68</ele>
      </trkpt>
      <trkpt lat="43.31697" lon="16.49843">
        <ele>243.87</ele>
      </trkpt>
      <trkpt lat="43.31722" lon="16.49813">
        <ele>247.96</ele>
      </trkpt>
      <trkpt lat="43.31673" lon="16.49797">
        <ele>238.29</ele>
      </trkpt>
      <trkpt lat="43.31647" lon="16.4978">
        <ele>230.28</ele>
      </trkpt>
      <trkpt lat="43.31601" lon="16.49734">
        <ele>233.13</ele>
      </trkpt>
      <trkpt lat="43.31573" lon="16.49681">
        <ele>243.3</ele>
      </trkpt>
      <trkpt lat="43.3152" lon="16.49649">
        <ele>252.36</ele>
      </trkpt>
      <trkpt lat="43.3147" lon="16.49606">
        <ele>256.59</ele>
      </trkpt>
      <trkpt lat="43.3142" lon="16.49556">
        <ele>258.24</ele>
      </trkpt>
      <trkpt lat="43.31359" lon="16.49533">
        <ele>256.42</ele>
      </trkpt>
      <trkpt lat="43.31286" lon="16.49498">
        <ele>256.98</ele>
      </trkpt>
      <trkpt lat="43.31228" lon="16.49447">
        <ele>253.23</ele>
      </trkpt>
      <trkpt lat="43.31242" lon="16.49395">
        <ele>250.66</ele>
      </trkpt>
      <trkpt lat="43.31203" lon="16.4935">
        <ele>248.43</ele>
      </trkpt>
      <trkpt lat="43.31144" lon="16.49316">
        <ele>252.07</ele>
      </trkpt>
      <trkpt lat="43.31096" lon="16.49269">
        <ele>245.19</ele>
      </trkpt>
      <trkpt lat="43.31117" lon="16.49189">
        <ele>244.11</ele>
      </trkpt>
      <trkpt lat="43.31139" lon="16.49134">
        <ele>246.18</ele>
      </trkpt>
      <trkpt lat="43.3117" lon="16.49084">
        <ele>245.78</ele>
      </trkpt>
      <trkpt lat="43.31203" lon="16.49044">
        <ele>241.17</ele>
      </trkpt>
      <trkpt lat="43.3123" lon="16.49024">
        <ele>237.49</ele>
      </trkpt>
      <trkpt lat="43.31233" lon="16.48977">
        <ele>236.51</ele>
      </trkpt>
      <trkpt lat="43.31266" lon="16.48896">
        <ele>232.23</ele>
      </trkpt>
      <trkpt lat="43.31283" lon="16.48848">
        <ele>230.05</ele>
      </trkpt>
      <trkpt lat="43.31295" lon="16.48825">
        <ele>228.46</ele>
      </trkpt>
      <trkpt lat="43.31327" lon="16.48803">
        <ele>223.42</ele>
      </trkpt>
      <trkpt lat="43.31363" lon="16.48775">
        <ele>223.73</ele>
      </trkpt>
      <trkpt lat="43.31356" lon="16.4873">
        <ele>225.59</ele>
      </trkpt>
      <trkpt lat="43.31353" lon="16.48702">
        <ele>223.21</ele>
      </trkpt>
      <trkpt lat="43.31386" lon="16.48642">
        <ele>217.41</ele>
      </trkpt>
      <trkpt lat="43.31417" lon="16.48576">
        <ele>210.48</ele>
      </trkpt>
      <trkpt lat="43.31461" lon="16.48503">
        <ele>207.7</ele>
      </trkpt>
      <trkpt lat="43.31461" lon="16.48462">
        <ele>203.97</ele>
      </trkpt>
      <trkpt lat="43.31519" lon="16.4837">
        <ele>185.39</ele>
      </trkpt>
      <trkpt lat="43.31534" lon="16.48334">
        <ele>181.72</ele>
      </trkpt>
      <trkpt lat="43.31537" lon="16.48288">
        <ele>176.17</ele>
      </trkpt>
      <trkpt lat="43.31547" lon="16.48192">
        <ele>168.6</ele>
      </trkpt>
      <trkpt lat="43.31555" lon="16.48161">
        <ele>168.69</ele>
      </trkpt>
      <trkpt lat="43.31592" lon="16.48095">
        <ele>163.72</ele>
      </trkpt>
      <trkpt lat="43.31628" lon="16.48019">
        <ele>155.18</ele>
      </trkpt>
      <trkpt lat="43.31662" lon="16.47997">
        <ele>150.19</ele>
      </trkpt>
      <trkpt lat="43.31704" lon="16.47961">
        <ele>144.85</ele>
      </trkpt>
      <trkpt lat="43.31743" lon="16.4793">
        <ele>135.86</ele>
      </trkpt>
      <trkpt lat="43.31778" lon="16.47883">
        <ele>134.24</ele>
      </trkpt>
      <trkpt lat="43.31806" lon="16.47814">
        <ele>143.5</ele>
      </trkpt>
      <trkpt lat="43.31821" lon="16.47764">
        <ele>147.68</ele>
      </trkpt>
      <trkpt lat="43.31834" lon="16.47698">
        <ele>144.8</ele>
      </trkpt>
      <trkpt lat="43.31832" lon="16.47647">
        <ele>139.7</ele>
      </trkpt>
      <trkpt lat="43.31827" lon="16.47584">
        <ele>136.56</ele>
      </trkpt>
      <trkpt lat="43.31829" lon="16.47522">
        <ele>133.21</ele>
      </trkpt>
      <trkpt lat="43.31832" lon="16.47451">
        <ele>129.0</ele>
      </trkpt>
      <trkpt lat="43.31832" lon="16.47411">
        <ele>128.4</ele>
      </trkpt>
      <trkpt lat="43.31845" lon="16.47316">
        <ele>121.33</ele>
      </trkpt>
      <trkpt lat="43.31857" lon="16.47241">
        <ele>115.48</ele>
      </trkpt>
      <trkpt lat="43.31852" lon="16.4722">
        <ele>114.13</ele>
      </trkpt>
      <trkpt lat="43.31879" lon="16.47087">
        <ele>100.91</ele>
      </trkpt>
      <trkpt lat="43.31887" lon="16.47049">
        <ele>98.16</ele>
      </trkpt>
      <trkpt lat="43.31895" lon="16.47013">
        <ele>95.38</ele>
      </trkpt>
      <trkpt lat="43.31907" lon="16.46957">
        <ele>91.56</ele>
      </trkpt>
      <trkpt lat="43.31905" lon="16.46944">
        <ele>90.54</ele>
      </trkpt>
      <trkpt lat="43.31888" lon="16.46927">
        <ele>87.5</ele>
      </trkpt>
      <trkpt lat="43.31886" lon="16.46866">
        <ele>84.25</ele>
      </trkpt>
      <trkpt lat="43.31887" lon="16.46817">
        <ele>82.41</ele>
      </trkpt>
      <trkpt lat="43.31897" lon="16.46782">
        <ele>80.55</ele>
      </trkpt>
      <trkpt lat="43.31895" lon="16.46694">
        <ele>74.2</ele>
      </trkpt>
      <trkpt lat="43.31897" lon="16.46657">
        <ele>72.06</ele>
      </trkpt>
      <trkpt lat="43.31922" lon="16.46602">
        <ele>69.67</ele>
      </trkpt>
      <trkpt lat="43.31943" lon="16.4652">
        <ele>65.09</ele>
      </trkpt>
      <trkpt lat="43.31971" lon="16.46415">
        <ele>59.91</ele>
      </trkpt>
      <trkpt lat="43.31969" lon="16.46308">
        <ele>57.09</ele>
      </trkpt>
      <trkpt lat="43.31967" lon="16.46271">
        <ele>57.24</ele>
      </trkpt>
      <trkpt lat="43.31981" lon="16.46235">
        <ele>57.46</ele>
      </trkpt>
      <trkpt lat="43.31985" lon="16.46208">
        <ele>57.19</ele>
      </trkpt>
      <trkpt lat="43.32006" lon="16.4611">
        <ele>53.14</ele>
      </trkpt>
      <trkpt lat="43.32028" lon="16.46079">
        <ele>51.86</ele>
      </trkpt>
      <trkpt lat="43.32048" lon="16.46035">
        <ele>50.45</ele>
      </trkpt>
      <trkpt lat="43.32069" lon="16.46">
        <ele>49.45</ele>
      </trkpt>
      <trkpt lat="43.32086" lon="16.45945">
        <ele>48.3</ele>
      </trkpt>
      <trkpt lat="43.32113" lon="16.45876">
        <ele>48.74</ele>
      </trkpt>
      <trkpt lat="43.32132" lon="16.45825">
        <ele>47.68</ele>
      </trkpt>
      <trkpt lat="43.32143" lon="16.45774">
        <ele>44.59</ele>
      </trkpt>
      <trkpt lat="43.32141" lon="16.45757">
        <ele>44.16</ele>
      </trkpt>
      <trkpt lat="43.32152" lon="16.45709">
        <ele>42.52</ele>
      </trkpt>
      <trkpt lat="43.32145" lon="16.45662">
        <ele>39.14</ele>
      </trkpt>
      <trkpt lat="43.32148" lon="16.45634">
        <ele>37.87</ele>
      </trkpt>
      <trkpt lat="43.32197" lon="16.45582">
        <ele>40.81</ele>
      </trkpt>
      <trkpt lat="43.32229" lon="16.4554">
        <ele>37.33</ele>
      </trkpt>
      <trkpt lat="43.32256" lon="16.45498">
        <ele>36.44</ele>
      </trkpt>
      <trkpt lat="43.32277" lon="16.45455">
        <ele>33.99</ele>
      </trkpt>
      <trkpt lat="43.32288" lon="16.45395">
        <ele>32.02</ele>
      </trkpt>
      <trkpt lat="43.32286" lon="16.45376">
        <ele>31.4</ele>
      </trkpt>
      <trkpt lat="43.32298" lon="16.45356">
        <ele>28.63</ele>
      </trkpt>
      <trkpt lat="43.32326" lon="16.45322">
        <ele>22.07</ele>
      </trkpt>
      <trkpt lat="43.32362" lon="16.45303">
        <ele>10.84</ele>
      </trkpt>
      <trkpt lat="43.32372" lon="16.45262">
        <ele>8.99</ele>
      </trkpt>
      <trkpt lat="43.32367" lon="16.45234">
        <ele>9.36</ele>
      </trkpt>
      <trkpt lat="43.32381" lon="16.452">
        <ele>7.85</ele>
      </trkpt>
      <trkpt lat="43.32366" lon="16.45149">
        <ele>8.12</ele>
      </trkpt>
      <trkpt lat="43.32342" lon="16.45123">
        <ele>9.55</ele>
      </trkpt>
      <trkpt lat="43.32314" lon="16.45109">
        <ele>12.21</ele>
      </trkpt>
      <trkpt lat="43.32291" lon="16.45118">
        <ele>14.31</ele>
      </trkpt>
      <trkpt lat="43.32271" lon="16.45101">
        <ele>13.94</ele>
      </trkpt>
      <trkpt lat="43.32243" lon="16.451">
        <ele>12.55</ele>
      </trkpt>
      <trkpt lat="43.32215" lon="16.45106">
        <ele>13.84</ele>
      </trkpt>
      <trkpt lat="43.32198" lon="16.45084">
        <ele>16.13</ele>
      </trkpt>
      <trkpt lat="43.322" lon="16.45048">
        <ele>15.36</ele>
      </trkpt>
      <trkpt lat="43.32191" lon="16.44968">
        <ele>21.28</ele>
      </trkpt>
      <trkpt lat="43.32222" lon="16.44898">
        <ele>22.34</ele>
      </trkpt>
      <trkpt lat="43.32231" lon="16.44856">
        <ele>21.81</ele>
      </trkpt>
      <trkpt lat="43.32251" lon="16.4482">
        <ele>22.98</ele>
      </trkpt>
      <trkpt lat="43.32291" lon="16.44845">
        <ele>23.44</ele>
      </trkpt>
      <trkpt lat="43.32335" lon="16.4486">
        <ele>20.08</ele>
      </trkpt>
      <trkpt lat="43.32376" lon="16.44849">
        <ele>17.96</ele>
      </trkpt>
      <trkpt lat="43.32414" lon="16.44813">
        <ele>15.66</ele>
      </trkpt>
      <trkpt lat="43.32414" lon="16.44855">
        <ele>13.41</ele>
      </trkpt>
      <trkpt lat="43.32394" lon="16.44905">
        <ele>13.92</ele>
      </trkpt>
      <trkpt lat="43.3244" lon="16.44871">
        <ele>10.61</ele>
      </trkpt>
      <trkpt lat="43.32463" lon="16.44867">
        <ele>9.24</ele>
      </trkpt>
      <trkpt lat="43.32494" lon="16.44899">
        <ele>7.0</ele>
      </trkpt>
      <trkpt lat="43.32493" lon="16.44973">
        <ele>6.24</ele>
      </trkpt>
    </trkseg>
  </trk>
</gpx>
