<?xml version="1.0"?>
<gpx xmlns="http://www.topografix.com/GPX/1/1" xmlns:xsi="http://www.w3.org/2001/XMLSchema-instance" version="1.1" creator="AllTrails.com" xsi:schemaLocation="http://www.topografix.com/GPX/1/1 http://www.topografix.com/GPX/1/1/gpx.xsd">
  <metadata>
    <name><![CDATA[754 - Maestral]]></name>
    <desc><![CDATA[]]></desc>
    <link href="http://www.alltrails.com">
      <text>AllTrails, LLC</text>
    </link>
    <bounds minlat="43.37463" minlon="16.43718" maxlat="43.39168" maxlon="16.47933"/>
  </metadata>
  <trk>
    <name><![CDATA[754 - Maestral]]></name>
    <src>AllTrails</src>
    <trkseg>
      <trkpt lat="43.38552" lon="16.47933">
        <ele>5.33</ele>
      </trkpt>
      <trkpt lat="43.38549" lon="16.47931">
        <ele>5.59</ele>
      </trkpt>
      <trkpt lat="43.38548" lon="16.4785">
        <ele>7.89</ele>
      </trkpt>
      <trkpt lat="43.38553" lon="16.47844">
        <ele>7.6</ele>
      </trkpt>
      <trkpt lat="43.38559" lon="16.47843">
        <ele>6.98</ele>
      </trkpt>
      <trkpt lat="43.3865" lon="16.47746">
        <ele>5.74</ele>
      </trkpt>
      <trkpt lat="43.38658" lon="16.47726">
        <ele>6.18</ele>
      </trkpt>
      <trkpt lat="43.38664" lon="16.47707">
        <ele>6.7</ele>
      </trkpt>
      <trkpt lat="43.38707" lon="16.4768">
        <ele>5.33</ele>
      </trkpt>
      <trkpt lat="43.38716" lon="16.47672">
        <ele>5.08</ele>
      </trkpt>
      <trkpt lat="43.38723" lon="16.47662">
        <ele>5.04</ele>
      </trkpt>
      <trkpt lat="43.38742" lon="16.47618">
        <ele>5.9</ele>
      </trkpt>
      <trkpt lat="43.38749" lon="16.47575">
        <ele>8.31</ele>
      </trkpt>
      <trkpt lat="43.3875" lon="16.4754">
        <ele>9.0</ele>
      </trkpt>
      <trkpt lat="43.38748" lon="16.47492">
        <ele>8.78</ele>
      </trkpt>
      <trkpt lat="43.38745" lon="16.4745">
        <ele>8.84</ele>
      </trkpt>
      <trkpt lat="43.38734" lon="16.47404">
        <ele>9.23</ele>
      </trkpt>
      <trkpt lat="43.38723" lon="16.47368">
        <ele>8.96</ele>
      </trkpt>
      <trkpt lat="43.38713" lon="16.47345">
        <ele>8.86</ele>
      </trkpt>
      <trkpt lat="43.38698" lon="16.47305">
        <ele>7.98</ele>
      </trkpt>
      <trkpt lat="43.38688" lon="16.47262">
        <ele>6.43</ele>
      </trkpt>
      <trkpt lat="43.38686" lon="16.47234">
        <ele>5.25</ele>
      </trkpt>
      <trkpt lat="43.38689" lon="16.4721">
        <ele>4.89</ele>
      </trkpt>
      <trkpt lat="43.38698" lon="16.47172">
        <ele>5.7</ele>
      </trkpt>
      <trkpt lat="43.38711" lon="16.4714">
        <ele>6.18</ele>
      </trkpt>
      <trkpt lat="43.38734" lon="16.47073">
        <ele>6.52</ele>
      </trkpt>
      <trkpt lat="43.38735" lon="16.47072">
        <ele>6.49</ele>
      </trkpt>
      <trkpt lat="43.38742" lon="16.47044">
        <ele>6.58</ele>
      </trkpt>
      <trkpt lat="43.38751" lon="16.47018">
        <ele>5.96</ele>
      </trkpt>
      <trkpt lat="43.38776" lon="16.46955">
        <ele>4.52</ele>
      </trkpt>
      <trkpt lat="43.38781" lon="16.46927">
        <ele>4.0</ele>
      </trkpt>
      <trkpt lat="43.38783" lon="16.46912">
        <ele>4.14</ele>
      </trkpt>
      <trkpt lat="43.38784" lon="16.46871">
        <ele>4.28</ele>
      </trkpt>
      <trkpt lat="43.38791" lon="16.46846">
        <ele>4.26</ele>
      </trkpt>
      <trkpt lat="43.38798" lon="16.46824">
        <ele>4.82</ele>
      </trkpt>
      <trkpt lat="43.38814" lon="16.46807">
        <ele>5.0</ele>
      </trkpt>
      <trkpt lat="43.38825" lon="16.468">
        <ele>5.0</ele>
      </trkpt>
      <trkpt lat="43.38839" lon="16.46792">
        <ele>4.7</ele>
      </trkpt>
      <trkpt lat="43.38851" lon="16.46772">
        <ele>3.99</ele>
      </trkpt>
      <trkpt lat="43.38861" lon="16.46752">
        <ele>4.86</ele>
      </trkpt>
      <trkpt lat="43.38871" lon="16.46723">
        <ele>5.61</ele>
      </trkpt>
      <trkpt lat="43.38878" lon="16.46678">
        <ele>7.14</ele>
      </trkpt>
      <trkpt lat="43.38885" lon="16.46559">
        <ele>6.67</ele>
      </trkpt>
      <trkpt lat="43.38901" lon="16.46414">
        <ele>6.73</ele>
      </trkpt>
      <trkpt lat="43.38903" lon="16.46392">
        <ele>6.93</ele>
      </trkpt>
      <trkpt lat="43.38898" lon="16.46369">
        <ele>7.58</ele>
      </trkpt>
      <trkpt lat="43.38887" lon="16.46327">
        <ele>7.86</ele>
      </trkpt>
      <trkpt lat="43.38883" lon="16.46297">
        <ele>7.12</ele>
      </trkpt>
      <trkpt lat="43.38886" lon="16.46245">
        <ele>6.27</ele>
      </trkpt>
      <trkpt lat="43.38885" lon="16.46224">
        <ele>6.94</ele>
      </trkpt>
      <trkpt lat="43.38882" lon="16.46202">
        <ele>7.73</ele>
      </trkpt>
      <trkpt lat="43.38854" lon="16.4617">
        <ele>9.42</ele>
      </trkpt>
      <trkpt lat="43.38814" lon="16.46127">
        <ele>9.67</ele>
      </trkpt>
      <trkpt lat="43.38796" lon="16.46108">
        <ele>7.78</ele>
      </trkpt>
      <trkpt lat="43.38786" lon="16.46096">
        <ele>6.91</ele>
      </trkpt>
      <trkpt lat="43.38773" lon="16.46078">
        <ele>5.97</ele>
      </trkpt>
      <trkpt lat="43.38774" lon="16.46043">
        <ele>5.93</ele>
      </trkpt>
      <trkpt lat="43.38776" lon="16.46042">
        <ele>5.97</ele>
      </trkpt>
      <trkpt lat="43.38785" lon="16.46006">
        <ele>7.04</ele>
      </trkpt>
      <trkpt lat="43.38856" lon="16.46013">
        <ele>6.18</ele>
      </trkpt>
      <trkpt lat="43.38932" lon="16.4594">
        <ele>5.13</ele>
      </trkpt>
      <trkpt lat="43.3895" lon="16.45902">
        <ele>5.66</ele>
      </trkpt>
      <trkpt lat="43.38954" lon="16.45828">
        <ele>10.13</ele>
      </trkpt>
      <trkpt lat="43.38935" lon="16.45768">
        <ele>9.36</ele>
      </trkpt>
      <trkpt lat="43.38937" lon="16.45724">
        <ele>8.14</ele>
      </trkpt>
      <trkpt lat="43.38952" lon="16.45681">
        <ele>6.0</ele>
      </trkpt>
      <trkpt lat="43.38958" lon="16.45612">
        <ele>8.48</ele>
      </trkpt>
      <trkpt lat="43.38953" lon="16.45563">
        <ele>6.03</ele>
      </trkpt>
      <trkpt lat="43.38937" lon="16.45542">
        <ele>5.27</ele>
      </trkpt>
      <trkpt lat="43.38939" lon="16.45497">
        <ele>4.2</ele>
      </trkpt>
      <trkpt lat="43.38948" lon="16.45462">
        <ele>4.37</ele>
      </trkpt>
      <trkpt lat="43.38971" lon="16.4543">
        <ele>5.54</ele>
      </trkpt>
      <trkpt lat="43.38988" lon="16.45368">
        <ele>6.19</ele>
      </trkpt>
      <trkpt lat="43.38982" lon="16.45272">
        <ele>7.5</ele>
      </trkpt>
      <trkpt lat="43.38982" lon="16.45211">
        <ele>6.89</ele>
      </trkpt>
      <trkpt lat="43.38996" lon="16.45168">
        <ele>5.29</ele>
      </trkpt>
      <trkpt lat="43.3902" lon="16.451">
        <ele>6.97</ele>
      </trkpt>
      <trkpt lat="43.39017" lon="16.45029">
        <ele>8.0</ele>
      </trkpt>
      <trkpt lat="43.39013" lon="16.44992">
        <ele>8.47</ele>
      </trkpt>
      <trkpt lat="43.38999" lon="16.44963">
        <ele>7.67</ele>
      </trkpt>
      <trkpt lat="43.3897" lon="16.44854">
        <ele>7.0</ele>
      </trkpt>
      <trkpt lat="43.3895" lon="16.44788">
        <ele>4.66</ele>
      </trkpt>
      <trkpt lat="43.38951" lon="16.44746">
        <ele>5.25</ele>
      </trkpt>
      <trkpt lat="43.38975" lon="16.44712">
        <ele>6.1</ele>
      </trkpt>
      <trkpt lat="43.38977" lon="16.44702">
        <ele>6.17</ele>
      </trkpt>
      <trkpt lat="43.39002" lon="16.44699">
        <ele>6.78</ele>
      </trkpt>
      <trkpt lat="43.39026" lon="16.44683">
        <ele>4.19</ele>
      </trkpt>
      <trkpt lat="43.39042" lon="16.44578">
        <ele>4.59</ele>
      </trkpt>
      <trkpt lat="43.39055" lon="16.44541">
        <ele>5.53</ele>
      </trkpt>
      <trkpt lat="43.39091" lon="16.44485">
        <ele>6.21</ele>
      </trkpt>
      <trkpt lat="43.39151" lon="16.44434">
        <ele>5.13</ele>
      </trkpt>
      <trkpt lat="43.39168" lon="16.44357">
        <ele>4.3</ele>
      </trkpt>
      <trkpt lat="43.39162" lon="16.44292">
        <ele>7.0</ele>
      </trkpt>
      <trkpt lat="43.39128" lon="16.44249">
        <ele>5.01</ele>
      </trkpt>
      <trkpt lat="43.39096" lon="16.44252">
        <ele>7.75</ele>
      </trkpt>
      <trkpt lat="43.39068" lon="16.44236">
        <ele>13.31</ele>
      </trkpt>
      <trkpt lat="43.39033" lon="16.44224">
        <ele>16.05</ele>
      </trkpt>
      <trkpt lat="43.39003" lon="16.44194">
        <ele>17.89</ele>
      </trkpt>
      <trkpt lat="43.3899" lon="16.44077">
        <ele>19.29</ele>
      </trkpt>
      <trkpt lat="43.38964" lon="16.44063">
        <ele>21.78</ele>
      </trkpt>
      <trkpt lat="43.38929" lon="16.44074">
        <ele>23.2</ele>
      </trkpt>
      <trkpt lat="43.38914" lon="16.44057">
        <ele>26.29</ele>
      </trkpt>
      <trkpt lat="43.38849" lon="16.43915">
        <ele>43.86</ele>
      </trkpt>
      <trkpt lat="43.38853" lon="16.43877">
        <ele>51.51</ele>
      </trkpt>
      <trkpt lat="43.38882" lon="16.43845">
        <ele>53.91</ele>
      </trkpt>
      <trkpt lat="43.38889" lon="16.43824">
        <ele>54.99</ele>
      </trkpt>
      <trkpt lat="43.38889" lon="16.43797">
        <ele>57.9</ele>
      </trkpt>
      <trkpt lat="43.38812" lon="16.43783">
        <ele>66.61</ele>
      </trkpt>
      <trkpt lat="43.38809" lon="16.43718">
        <ele>67.96</ele>
      </trkpt>
      <trkpt lat="43.38767" lon="16.43723">
        <ele>70.12</ele>
      </trkpt>
      <trkpt lat="43.38747" lon="16.43745">
        <ele>74.23</ele>
      </trkpt>
      <trkpt lat="43.38702" lon="16.43752">
        <ele>76.96</ele>
      </trkpt>
      <trkpt lat="43.38669" lon="16.43794">
        <ele>84.35</ele>
      </trkpt>
      <trkpt lat="43.38663" lon="16.43885">
        <ele>86.82</ele>
      </trkpt>
      <trkpt lat="43.38637" lon="16.43948">
        <ele>91.81</ele>
      </trkpt>
      <trkpt lat="43.38636" lon="16.44026">
        <ele>94.15</ele>
      </trkpt>
      <trkpt lat="43.3862" lon="16.44048">
        <ele>93.98</ele>
      </trkpt>
      <trkpt lat="43.38608" lon="16.44081">
        <ele>93.63</ele>
      </trkpt>
      <trkpt lat="43.38602" lon="16.44124">
        <ele>92.86</ele>
      </trkpt>
      <trkpt lat="43.38578" lon="16.44176">
        <ele>92.55</ele>
      </trkpt>
      <trkpt lat="43.3853" lon="16.44283">
        <ele>88.91</ele>
      </trkpt>
      <trkpt lat="43.38507" lon="16.44378">
        <ele>84.05</ele>
      </trkpt>
      <trkpt lat="43.38482" lon="16.44452">
        <ele>86.45</ele>
      </trkpt>
      <trkpt lat="43.38454" lon="16.44382">
        <ele>83.9</ele>
      </trkpt>
      <trkpt lat="43.38432" lon="16.44374">
        <ele>82.38</ele>
      </trkpt>
      <trkpt lat="43.3841" lon="16.44389">
        <ele>79.08</ele>
      </trkpt>
      <trkpt lat="43.3831" lon="16.44572">
        <ele>80.07</ele>
      </trkpt>
      <trkpt lat="43.38263" lon="16.44636">
        <ele>85.58</ele>
      </trkpt>
      <trkpt lat="43.38242" lon="16.44712">
        <ele>87.4</ele>
      </trkpt>
      <trkpt lat="43.38178" lon="16.4481">
        <ele>85.23</ele>
      </trkpt>
      <trkpt lat="43.3811" lon="16.44888">
        <ele>83.81</ele>
      </trkpt>
      <trkpt lat="43.38054" lon="16.44962">
        <ele>85.08</ele>
      </trkpt>
      <trkpt lat="43.38034" lon="16.45019">
        <ele>85.98</ele>
      </trkpt>
      <trkpt lat="43.38004" lon="16.45036">
        <ele>82.79</ele>
      </trkpt>
      <trkpt lat="43.3798" lon="16.4508">
        <ele>79.77</ele>
      </trkpt>
      <trkpt lat="43.37899" lon="16.45178">
        <ele>80.85</ele>
      </trkpt>
      <trkpt lat="43.37873" lon="16.45273">
        <ele>84.37</ele>
      </trkpt>
      <trkpt lat="43.37837" lon="16.45346">
        <ele>86.45</ele>
      </trkpt>
      <trkpt lat="43.37796" lon="16.4541">
        <ele>84.95</ele>
      </trkpt>
      <trkpt lat="43.37732" lon="16.4545">
        <ele>88.66</ele>
      </trkpt>
      <trkpt lat="43.37691" lon="16.45514">
        <ele>90.07</ele>
      </trkpt>
      <trkpt lat="43.37654" lon="16.45505">
        <ele>88.89</ele>
      </trkpt>
      <trkpt lat="43.376" lon="16.45575">
        <ele>91.1</ele>
      </trkpt>
      <trkpt lat="43.37557" lon="16.45564">
        <ele>86.56</ele>
      </trkpt>
      <trkpt lat="43.37545" lon="16.45637">
        <ele>89.17</ele>
      </trkpt>
      <trkpt lat="43.37545" lon="16.45683">
        <ele>87.4</ele>
      </trkpt>
      <trkpt lat="43.37528" lon="16.45748">
        <ele>85.1</ele>
      </trkpt>
      <trkpt lat="43.37522" lon="16.45792">
        <ele>86.69</ele>
      </trkpt>
      <trkpt lat="43.375" lon="16.45844">
        <ele>86.62</ele>
      </trkpt>
      <trkpt lat="43.37486" lon="16.46052">
        <ele>89.81</ele>
      </trkpt>
      <trkpt lat="43.37482" lon="16.46127">
        <ele>89.78</ele>
      </trkpt>
      <trkpt lat="43.37469" lon="16.46206">
        <ele>89.48</ele>
      </trkpt>
      <trkpt lat="43.37478" lon="16.46245">
        <ele>90.21</ele>
      </trkpt>
      <trkpt lat="43.37463" lon="16.46458">
        <ele>91.16</ele>
      </trkpt>
      <trkpt lat="43.37583" lon="16.46471">
        <ele>90.99</ele>
      </trkpt>
      <trkpt lat="43.37649" lon="16.46515">
        <ele>89.5</ele>
      </trkpt>
      <trkpt lat="43.37722" lon="16.46593">
        <ele>90.69</ele>
      </trkpt>
      <trkpt lat="43.37789" lon="16.4664">
        <ele>87.74</ele>
      </trkpt>
      <trkpt lat="43.37874" lon="16.46734">
        <ele>81.31</ele>
      </trkpt>
      <trkpt lat="43.37915" lon="16.46753">
        <ele>79.74</ele>
      </trkpt>
      <trkpt lat="43.37948" lon="16.468">
        <ele>77.53</ele>
      </trkpt>
      <trkpt lat="43.37963" lon="16.46868">
        <ele>76.35</ele>
      </trkpt>
      <trkpt lat="43.37978" lon="16.46905">
        <ele>73.88</ele>
      </trkpt>
      <trkpt lat="43.38001" lon="16.46931">
        <ele>71.94</ele>
      </trkpt>
      <trkpt lat="43.38029" lon="16.47014">
        <ele>66.93</ele>
      </trkpt>
      <trkpt lat="43.38054" lon="16.4709">
        <ele>60.22</ele>
      </trkpt>
      <trkpt lat="43.38078" lon="16.47181">
        <ele>54.32</ele>
      </trkpt>
      <trkpt lat="43.38114" lon="16.47272">
        <ele>50.12</ele>
      </trkpt>
      <trkpt lat="43.38132" lon="16.47328">
        <ele>51.3</ele>
      </trkpt>
      <trkpt lat="43.38135" lon="16.47391">
        <ele>49.8</ele>
      </trkpt>
      <trkpt lat="43.38149" lon="16.47432">
        <ele>50.8</ele>
      </trkpt>
      <trkpt lat="43.38174" lon="16.47502">
        <ele>45.71</ele>
      </trkpt>
      <trkpt lat="43.38231" lon="16.47573">
        <ele>37.03</ele>
      </trkpt>
      <trkpt lat="43.38268" lon="16.47662">
        <ele>33.21</ele>
      </trkpt>
      <trkpt lat="43.38296" lon="16.47713">
        <ele>22.13</ele>
      </trkpt>
      <trkpt lat="43.38383" lon="16.47774">
        <ele>18.33</ele>
      </trkpt>
      <trkpt lat="43.38408" lon="16.47826">
        <ele>11.69</ele>
      </trkpt>
      <trkpt lat="43.38441" lon="16.47862">
        <ele>7.28</ele>
      </trkpt>
      <trkpt lat="43.38419" lon="16.47926">
        <ele>8.73</ele>
      </trkpt>
      <trkpt lat="43.38547" lon="16.47933">
        <ele>5.8</ele>
      </trkpt>
    </trkseg>
  </trk>
</gpx>
