<?xml version="1.0"?>
<gpx xmlns="http://www.topografix.com/GPX/1/1" xmlns:xsi="http://www.w3.org/2001/XMLSchema-instance" version="1.1" creator="AllTrails.com" xsi:schemaLocation="http://www.topografix.com/GPX/1/1 http://www.topografix.com/GPX/1/1/gpx.xsd">
  <metadata>
    <name><![CDATA[755 - Tramuntana]]></name>
    <desc><![CDATA[]]></desc>
    <link href="http://www.alltrails.com">
      <text>AllTrails, LLC</text>
    </link>
    <bounds minlat="43.3454" minlon="16.45519" maxlat="43.3864" maxlon="16.50592"/>
  </metadata>
  <trk>
    <name><![CDATA[755 - Tramuntana]]></name>
    <src>AllTrails</src>
    <trkseg>
      <trkpt lat="43.38551" lon="16.47931">
        <ele>5.41</ele>
      </trkpt>
      <trkpt lat="43.38545" lon="16.47834">
        <ele>9.47</ele>
      </trkpt>
      <trkpt lat="43.38575" lon="16.47764">
        <ele>11.18</ele>
      </trkpt>
      <trkpt lat="43.38594" lon="16.47641">
        <ele>15.59</ele>
      </trkpt>
      <trkpt lat="43.38628" lon="16.47577">
        <ele>15.31</ele>
      </trkpt>
      <trkpt lat="43.3864" lon="16.47534">
        <ele>14.18</ele>
      </trkpt>
      <trkpt lat="43.385" lon="16.47523">
        <ele>32.0</ele>
      </trkpt>
      <trkpt lat="43.38461" lon="16.4753">
        <ele>39.15</ele>
      </trkpt>
      <trkpt lat="43.38371" lon="16.47588">
        <ele>46.1</ele>
      </trkpt>
      <trkpt lat="43.38341" lon="16.4759">
        <ele>45.94</ele>
      </trkpt>
      <trkpt lat="43.38291" lon="16.47576">
        <ele>45.31</ele>
      </trkpt>
      <trkpt lat="43.38213" lon="16.4747">
        <ele>49.27</ele>
      </trkpt>
      <trkpt lat="43.38114" lon="16.47289">
        <ele>49.96</ele>
      </trkpt>
      <trkpt lat="43.38036" lon="16.47031">
        <ele>65.51</ele>
      </trkpt>
      <trkpt lat="43.38008" lon="16.46951">
        <ele>69.98</ele>
      </trkpt>
      <trkpt lat="43.37974" lon="16.46895">
        <ele>75.72</ele>
      </trkpt>
      <trkpt lat="43.37944" lon="16.4679">
        <ele>77.52</ele>
      </trkpt>
      <trkpt lat="43.37907" lon="16.46748">
        <ele>80.39</ele>
      </trkpt>
      <trkpt lat="43.37881" lon="16.46737">
        <ele>81.13</ele>
      </trkpt>
      <trkpt lat="43.37777" lon="16.46626">
        <ele>86.25</ele>
      </trkpt>
      <trkpt lat="43.3772" lon="16.466">
        <ele>91.06</ele>
      </trkpt>
      <trkpt lat="43.37668" lon="16.46531">
        <ele>90.0</ele>
      </trkpt>
      <trkpt lat="43.37647" lon="16.46514">
        <ele>89.57</ele>
      </trkpt>
      <trkpt lat="43.37586" lon="16.46472">
        <ele>90.81</ele>
      </trkpt>
      <trkpt lat="43.37316" lon="16.46438">
        <ele>96.61</ele>
      </trkpt>
      <trkpt lat="43.37178" lon="16.4641">
        <ele>93.96</ele>
      </trkpt>
      <trkpt lat="43.37156" lon="16.46421">
        <ele>92.6</ele>
      </trkpt>
      <trkpt lat="43.37062" lon="16.4638">
        <ele>96.38</ele>
      </trkpt>
      <trkpt lat="43.37014" lon="16.46374">
        <ele>96.06</ele>
      </trkpt>
      <trkpt lat="43.37001" lon="16.46354">
        <ele>98.18</ele>
      </trkpt>
      <trkpt lat="43.36915" lon="16.46293">
        <ele>95.52</ele>
      </trkpt>
      <trkpt lat="43.36884" lon="16.46296">
        <ele>93.62</ele>
      </trkpt>
      <trkpt lat="43.36846" lon="16.4628">
        <ele>90.2</ele>
      </trkpt>
      <trkpt lat="43.3678" lon="16.46181">
        <ele>88.79</ele>
      </trkpt>
      <trkpt lat="43.3667" lon="16.46123">
        <ele>80.48</ele>
      </trkpt>
      <trkpt lat="43.36601" lon="16.46072">
        <ele>68.19</ele>
      </trkpt>
      <trkpt lat="43.36587" lon="16.46074">
        <ele>65.95</ele>
      </trkpt>
      <trkpt lat="43.36538" lon="16.46045">
        <ele>53.27</ele>
      </trkpt>
      <trkpt lat="43.36494" lon="16.45943">
        <ele>44.72</ele>
      </trkpt>
      <trkpt lat="43.36535" lon="16.45861">
        <ele>37.48</ele>
      </trkpt>
      <trkpt lat="43.36514" lon="16.45768">
        <ele>46.25</ele>
      </trkpt>
      <trkpt lat="43.36526" lon="16.45736">
        <ele>47.79</ele>
      </trkpt>
      <trkpt lat="43.36523" lon="16.45685">
        <ele>48.23</ele>
      </trkpt>
      <trkpt lat="43.36512" lon="16.45659">
        <ele>49.03</ele>
      </trkpt>
      <trkpt lat="43.3648" lon="16.45632">
        <ele>55.21</ele>
      </trkpt>
      <trkpt lat="43.36461" lon="16.45636">
        <ele>57.8</ele>
      </trkpt>
      <trkpt lat="43.3641" lon="16.45605">
        <ele>60.76</ele>
      </trkpt>
      <trkpt lat="43.36336" lon="16.45519">
        <ele>58.03</ele>
      </trkpt>
      <trkpt lat="43.36307" lon="16.45536">
        <ele>58.71</ele>
      </trkpt>
      <trkpt lat="43.36227" lon="16.45683">
        <ele>66.42</ele>
      </trkpt>
      <trkpt lat="43.36196" lon="16.45709">
        <ele>63.37</ele>
      </trkpt>
      <trkpt lat="43.36164" lon="16.45717">
        <ele>59.87</ele>
      </trkpt>
      <trkpt lat="43.36084" lon="16.45846">
        <ele>62.53</ele>
      </trkpt>
      <trkpt lat="43.36019" lon="16.45968">
        <ele>69.53</ele>
      </trkpt>
      <trkpt lat="43.35981" lon="16.46091">
        <ele>70.64</ele>
      </trkpt>
      <trkpt lat="43.35878" lon="16.46256">
        <ele>67.65</ele>
      </trkpt>
      <trkpt lat="43.35842" lon="16.46339">
        <ele>70.92</ele>
      </trkpt>
      <trkpt lat="43.35814" lon="16.46314">
        <ele>66.31</ele>
      </trkpt>
      <trkpt lat="43.35793" lon="16.4631">
        <ele>65.41</ele>
      </trkpt>
      <trkpt lat="43.35776" lon="16.46317">
        <ele>65.76</ele>
      </trkpt>
      <trkpt lat="43.35731" lon="16.463">
        <ele>62.31</ele>
      </trkpt>
      <trkpt lat="43.35711" lon="16.46248">
        <ele>59.82</ele>
      </trkpt>
      <trkpt lat="43.35696" lon="16.4619">
        <ele>58.06</ele>
      </trkpt>
      <trkpt lat="43.35701" lon="16.46132">
        <ele>56.33</ele>
      </trkpt>
      <trkpt lat="43.35693" lon="16.45939">
        <ele>49.25</ele>
      </trkpt>
      <trkpt lat="43.35721" lon="16.45897">
        <ele>50.4</ele>
      </trkpt>
      <trkpt lat="43.35704" lon="16.45895">
        <ele>47.67</ele>
      </trkpt>
      <trkpt lat="43.35635" lon="16.45969">
        <ele>47.12</ele>
      </trkpt>
      <trkpt lat="43.35549" lon="16.46007">
        <ele>38.18</ele>
      </trkpt>
      <trkpt lat="43.35502" lon="16.46046">
        <ele>40.15</ele>
      </trkpt>
      <trkpt lat="43.35441" lon="16.46015">
        <ele>28.13</ele>
      </trkpt>
      <trkpt lat="43.35421" lon="16.46068">
        <ele>19.07</ele>
      </trkpt>
      <trkpt lat="43.3543" lon="16.46121">
        <ele>14.0</ele>
      </trkpt>
      <trkpt lat="43.35471" lon="16.46174">
        <ele>13.97</ele>
      </trkpt>
      <trkpt lat="43.3547" lon="16.46191">
        <ele>13.79</ele>
      </trkpt>
      <trkpt lat="43.35416" lon="16.46208">
        <ele>8.0</ele>
      </trkpt>
      <trkpt lat="43.35408" lon="16.46225">
        <ele>7.14</ele>
      </trkpt>
      <trkpt lat="43.35394" lon="16.46271">
        <ele>8.26</ele>
      </trkpt>
      <trkpt lat="43.35388" lon="16.46338">
        <ele>9.0</ele>
      </trkpt>
      <trkpt lat="43.35392" lon="16.464">
        <ele>10.52</ele>
      </trkpt>
      <trkpt lat="43.35377" lon="16.46423">
        <ele>9.01</ele>
      </trkpt>
      <trkpt lat="43.35331" lon="16.46375">
        <ele>9.63</ele>
      </trkpt>
      <trkpt lat="43.35303" lon="16.46308">
        <ele>9.36</ele>
      </trkpt>
      <trkpt lat="43.35255" lon="16.46107">
        <ele>9.34</ele>
      </trkpt>
      <trkpt lat="43.35213" lon="16.46006">
        <ele>6.55</ele>
      </trkpt>
      <trkpt lat="43.35168" lon="16.46021">
        <ele>5.99</ele>
      </trkpt>
      <trkpt lat="43.35131" lon="16.46065">
        <ele>5.47</ele>
      </trkpt>
      <trkpt lat="43.35078" lon="16.46286">
        <ele>6.43</ele>
      </trkpt>
      <trkpt lat="43.35052" lon="16.46333">
        <ele>7.86</ele>
      </trkpt>
      <trkpt lat="43.34966" lon="16.46409">
        <ele>6.94</ele>
      </trkpt>
      <trkpt lat="43.34935" lon="16.46454">
        <ele>8.0</ele>
      </trkpt>
      <trkpt lat="43.34881" lon="16.46565">
        <ele>10.85</ele>
      </trkpt>
      <trkpt lat="43.34778" lon="16.4664">
        <ele>23.84</ele>
      </trkpt>
      <trkpt lat="43.34751" lon="16.46709">
        <ele>19.4</ele>
      </trkpt>
      <trkpt lat="43.34738" lon="16.4679">
        <ele>28.3</ele>
      </trkpt>
      <trkpt lat="43.34679" lon="16.46881">
        <ele>43.56</ele>
      </trkpt>
      <trkpt lat="43.34667" lon="16.46943">
        <ele>43.92</ele>
      </trkpt>
      <trkpt lat="43.34648" lon="16.46978">
        <ele>50.65</ele>
      </trkpt>
      <trkpt lat="43.34645" lon="16.47013">
        <ele>55.42</ele>
      </trkpt>
      <trkpt lat="43.34615" lon="16.47063">
        <ele>54.85</ele>
      </trkpt>
      <trkpt lat="43.34598" lon="16.47151">
        <ele>64.58</ele>
      </trkpt>
      <trkpt lat="43.34594" lon="16.47222">
        <ele>75.51</ele>
      </trkpt>
      <trkpt lat="43.34569" lon="16.47302">
        <ele>87.43</ele>
      </trkpt>
      <trkpt lat="43.34563" lon="16.47355">
        <ele>96.63</ele>
      </trkpt>
      <trkpt lat="43.34554" lon="16.47365">
        <ele>98.4</ele>
      </trkpt>
      <trkpt lat="43.3454" lon="16.47415">
        <ele>101.61</ele>
      </trkpt>
      <trkpt lat="43.34557" lon="16.47423">
        <ele>104.62</ele>
      </trkpt>
      <trkpt lat="43.34615" lon="16.47492">
        <ele>102.93</ele>
      </trkpt>
      <trkpt lat="43.34627" lon="16.47463">
        <ele>98.52</ele>
      </trkpt>
      <trkpt lat="43.34669" lon="16.47509">
        <ele>89.65</ele>
      </trkpt>
      <trkpt lat="43.34656" lon="16.47535">
        <ele>92.32</ele>
      </trkpt>
      <trkpt lat="43.34674" lon="16.47608">
        <ele>79.93</ele>
      </trkpt>
      <trkpt lat="43.34669" lon="16.47639">
        <ele>79.58</ele>
      </trkpt>
      <trkpt lat="43.34648" lon="16.47696">
        <ele>79.61</ele>
      </trkpt>
      <trkpt lat="43.34601" lon="16.4777">
        <ele>84.2</ele>
      </trkpt>
      <trkpt lat="43.34601" lon="16.47794">
        <ele>83.59</ele>
      </trkpt>
      <trkpt lat="43.3469" lon="16.47786">
        <ele>86.0</ele>
      </trkpt>
      <trkpt lat="43.34721" lon="16.47805">
        <ele>85.98</ele>
      </trkpt>
      <trkpt lat="43.34748" lon="16.47796">
        <ele>83.19</ele>
      </trkpt>
      <trkpt lat="43.34686" lon="16.47982">
        <ele>57.52</ele>
      </trkpt>
      <trkpt lat="43.34695" lon="16.48005">
        <ele>51.69</ele>
      </trkpt>
      <trkpt lat="43.34778" lon="16.47982">
        <ele>60.76</ele>
      </trkpt>
      <trkpt lat="43.34885" lon="16.47981">
        <ele>83.77</ele>
      </trkpt>
      <trkpt lat="43.34821" lon="16.48026">
        <ele>85.27</ele>
      </trkpt>
      <trkpt lat="43.34754" lon="16.48235">
        <ele>110.39</ele>
      </trkpt>
      <trkpt lat="43.34774" lon="16.48225">
        <ele>114.33</ele>
      </trkpt>
      <trkpt lat="43.34792" lon="16.48325">
        <ele>123.77</ele>
      </trkpt>
      <trkpt lat="43.34821" lon="16.48382">
        <ele>127.22</ele>
      </trkpt>
      <trkpt lat="43.34863" lon="16.48507">
        <ele>128.16</ele>
      </trkpt>
      <trkpt lat="43.34932" lon="16.48589">
        <ele>125.67</ele>
      </trkpt>
      <trkpt lat="43.34967" lon="16.48698">
        <ele>136.75</ele>
      </trkpt>
      <trkpt lat="43.3499" lon="16.48741">
        <ele>139.11</ele>
      </trkpt>
      <trkpt lat="43.3503" lon="16.48874">
        <ele>144.43</ele>
      </trkpt>
      <trkpt lat="43.3508" lon="16.48989">
        <ele>147.33</ele>
      </trkpt>
      <trkpt lat="43.35191" lon="16.49137">
        <ele>148.93</ele>
      </trkpt>
      <trkpt lat="43.35237" lon="16.49173">
        <ele>151.71</ele>
      </trkpt>
      <trkpt lat="43.35318" lon="16.49208">
        <ele>151.89</ele>
      </trkpt>
      <trkpt lat="43.3536" lon="16.49239">
        <ele>142.91</ele>
      </trkpt>
      <trkpt lat="43.3538" lon="16.49236">
        <ele>139.44</ele>
      </trkpt>
      <trkpt lat="43.35372" lon="16.49213">
        <ele>139.7</ele>
      </trkpt>
      <trkpt lat="43.35413" lon="16.49228">
        <ele>133.66</ele>
      </trkpt>
      <trkpt lat="43.35442" lon="16.49225">
        <ele>137.56</ele>
      </trkpt>
      <trkpt lat="43.3545" lon="16.49239">
        <ele>139.6</ele>
      </trkpt>
      <trkpt lat="43.35445" lon="16.4926">
        <ele>138.52</ele>
      </trkpt>
      <trkpt lat="43.35462" lon="16.49244">
        <ele>143.06</ele>
      </trkpt>
      <trkpt lat="43.35465" lon="16.49312">
        <ele>145.79</ele>
      </trkpt>
      <trkpt lat="43.35499" lon="16.49396">
        <ele>157.5</ele>
      </trkpt>
      <trkpt lat="43.35539" lon="16.49447">
        <ele>165.99</ele>
      </trkpt>
      <trkpt lat="43.35596" lon="16.49467">
        <ele>172.64</ele>
      </trkpt>
      <trkpt lat="43.35622" lon="16.49493">
        <ele>177.02</ele>
      </trkpt>
      <trkpt lat="43.35699" lon="16.49626">
        <ele>187.77</ele>
      </trkpt>
      <trkpt lat="43.35667" lon="16.49663">
        <ele>190.62</ele>
      </trkpt>
      <trkpt lat="43.35605" lon="16.49877">
        <ele>202.02</ele>
      </trkpt>
      <trkpt lat="43.35592" lon="16.49889">
        <ele>201.25</ele>
      </trkpt>
      <trkpt lat="43.35584" lon="16.49917">
        <ele>200.23</ele>
      </trkpt>
      <trkpt lat="43.35572" lon="16.49927">
        <ele>200.18</ele>
      </trkpt>
      <trkpt lat="43.35538" lon="16.50006">
        <ele>200.54</ele>
      </trkpt>
      <trkpt lat="43.35495" lon="16.50039">
        <ele>195.72</ele>
      </trkpt>
      <trkpt lat="43.35452" lon="16.50061">
        <ele>191.34</ele>
      </trkpt>
      <trkpt lat="43.35417" lon="16.50116">
        <ele>191.6</ele>
      </trkpt>
      <trkpt lat="43.35349" lon="16.50305">
        <ele>202.77</ele>
      </trkpt>
      <trkpt lat="43.35355" lon="16.50346">
        <ele>204.76</ele>
      </trkpt>
      <trkpt lat="43.35392" lon="16.50411">
        <ele>208.27</ele>
      </trkpt>
      <trkpt lat="43.35387" lon="16.50453">
        <ele>211.72</ele>
      </trkpt>
      <trkpt lat="43.3541" lon="16.5052">
        <ele>221.12</ele>
      </trkpt>
      <trkpt lat="43.35417" lon="16.50592">
        <ele>223.69</ele>
      </trkpt>
      <trkpt lat="43.35534" lon="16.50505">
        <ele>232.84</ele>
      </trkpt>
      <trkpt lat="43.35629" lon="16.50234">
        <ele>223.22</ele>
      </trkpt>
      <trkpt lat="43.35662" lon="16.50199">
        <ele>225.82</ele>
      </trkpt>
      <trkpt lat="43.35695" lon="16.50141">
        <ele>223.13</ele>
      </trkpt>
      <trkpt lat="43.35729" lon="16.50108">
        <ele>218.99</ele>
      </trkpt>
      <trkpt lat="43.35768" lon="16.50126">
        <ele>222.19</ele>
      </trkpt>
      <trkpt lat="43.35831" lon="16.50072">
        <ele>219.7</ele>
      </trkpt>
      <trkpt lat="43.35912" lon="16.50033">
        <ele>215.93</ele>
      </trkpt>
      <trkpt lat="43.35953" lon="16.49983">
        <ele>214.96</ele>
      </trkpt>
      <trkpt lat="43.35989" lon="16.499">
        <ele>212.09</ele>
      </trkpt>
      <trkpt lat="43.36015" lon="16.49912">
        <ele>214.14</ele>
      </trkpt>
      <trkpt lat="43.3607" lon="16.50082">
        <ele>213.33</ele>
      </trkpt>
      <trkpt lat="43.36128" lon="16.50104">
        <ele>209.4</ele>
      </trkpt>
      <trkpt lat="43.36157" lon="16.50091">
        <ele>209.2</ele>
      </trkpt>
      <trkpt lat="43.36201" lon="16.50144">
        <ele>211.76</ele>
      </trkpt>
      <trkpt lat="43.3623" lon="16.50157">
        <ele>209.88</ele>
      </trkpt>
      <trkpt lat="43.36285" lon="16.50164">
        <ele>209.12</ele>
      </trkpt>
      <trkpt lat="43.36314" lon="16.50149">
        <ele>212.27</ele>
      </trkpt>
      <trkpt lat="43.36343" lon="16.50151">
        <ele>213.33</ele>
      </trkpt>
      <trkpt lat="43.36364" lon="16.50167">
        <ele>213.48</ele>
      </trkpt>
      <trkpt lat="43.36386" lon="16.50208">
        <ele>211.36</ele>
      </trkpt>
      <trkpt lat="43.36475" lon="16.50269">
        <ele>193.44</ele>
      </trkpt>
      <trkpt lat="43.36541" lon="16.50205">
        <ele>187.28</ele>
      </trkpt>
      <trkpt lat="43.36601" lon="16.50125">
        <ele>183.32</ele>
      </trkpt>
      <trkpt lat="43.36619" lon="16.50054">
        <ele>179.24</ele>
      </trkpt>
      <trkpt lat="43.36649" lon="16.49999">
        <ele>178.56</ele>
      </trkpt>
      <trkpt lat="43.36757" lon="16.49874">
        <ele>172.93</ele>
      </trkpt>
      <trkpt lat="43.36807" lon="16.49782">
        <ele>166.78</ele>
      </trkpt>
      <trkpt lat="43.36949" lon="16.49595">
        <ele>148.7</ele>
      </trkpt>
      <trkpt lat="43.36995" lon="16.49556">
        <ele>147.02</ele>
      </trkpt>
      <trkpt lat="43.3704" lon="16.49496">
        <ele>140.86</ele>
      </trkpt>
      <trkpt lat="43.37073" lon="16.49445">
        <ele>137.78</ele>
      </trkpt>
      <trkpt lat="43.37091" lon="16.49378">
        <ele>134.74</ele>
      </trkpt>
      <trkpt lat="43.37163" lon="16.49372">
        <ele>131.32</ele>
      </trkpt>
      <trkpt lat="43.37208" lon="16.49353">
        <ele>135.34</ele>
      </trkpt>
      <trkpt lat="43.37254" lon="16.49316">
        <ele>129.35</ele>
      </trkpt>
      <trkpt lat="43.37464" lon="16.49262">
        <ele>120.71</ele>
      </trkpt>
      <trkpt lat="43.37543" lon="16.49199">
        <ele>115.86</ele>
      </trkpt>
      <trkpt lat="43.37622" lon="16.49071">
        <ele>106.0</ele>
      </trkpt>
      <trkpt lat="43.37661" lon="16.49042">
        <ele>105.22</ele>
      </trkpt>
      <trkpt lat="43.37739" lon="16.48906">
        <ele>93.01</ele>
      </trkpt>
      <trkpt lat="43.37834" lon="16.48776">
        <ele>84.87</ele>
      </trkpt>
      <trkpt lat="43.37893" lon="16.48722">
        <ele>79.97</ele>
      </trkpt>
      <trkpt lat="43.37955" lon="16.48644">
        <ele>72.82</ele>
      </trkpt>
      <trkpt lat="43.37972" lon="16.48595">
        <ele>72.81</ele>
      </trkpt>
      <trkpt lat="43.38001" lon="16.48545">
        <ele>72.17</ele>
      </trkpt>
      <trkpt lat="43.38002" lon="16.48423">
        <ele>58.95</ele>
      </trkpt>
      <trkpt lat="43.38018" lon="16.48342">
        <ele>55.16</ele>
      </trkpt>
      <trkpt lat="43.38054" lon="16.48339">
        <ele>57.87</ele>
      </trkpt>
      <trkpt lat="43.38108" lon="16.48381">
        <ele>44.5</ele>
      </trkpt>
      <trkpt lat="43.38196" lon="16.48315">
        <ele>30.9</ele>
      </trkpt>
      <trkpt lat="43.38237" lon="16.48269">
        <ele>32.71</ele>
      </trkpt>
      <trkpt lat="43.38284" lon="16.48232">
        <ele>30.9</ele>
      </trkpt>
      <trkpt lat="43.38408" lon="16.48037">
        <ele>12.14</ele>
      </trkpt>
      <trkpt lat="43.38397" lon="16.48003">
        <ele>14.2</ele>
      </trkpt>
      <trkpt lat="43.38417" lon="16.47933">
        <ele>9.18</ele>
      </trkpt>
      <trkpt lat="43.38549" lon="16.47931">
        <ele>5.59</ele>
      </trkpt>
    </trkseg>
  </trk>
</gpx>
