<?xml version="1.0"?>
<gpx xmlns="http://www.topografix.com/GPX/1/1" xmlns:xsi="http://www.w3.org/2001/XMLSchema-instance" version="1.1" creator="AllTrails.com" xsi:schemaLocation="http://www.topografix.com/GPX/1/1 http://www.topografix.com/GPX/1/1/gpx.xsd">
  <metadata>
    <name><![CDATA[759 - Sv.Petar]]></name>
    <desc><![CDATA[]]></desc>
    <link href="http://www.alltrails.com">
      <text>AllTrails, LLC</text>
    </link>
    <bounds minlat="43.30478" minlon="16.52625" maxlat="43.38534" maxlon="16.66514"/>
  </metadata>
  <trk>
    <name><![CDATA[759 - Sv.Petar]]></name>
    <src>AllTrails</src>
    <trkseg>
      <trkpt lat="43.38481" lon="16.55588">
        <ele>9.37</ele>
      </trkpt>
      <trkpt lat="43.38467" lon="16.55653">
        <ele>9.0</ele>
      </trkpt>
      <trkpt lat="43.38501" lon="16.55674">
        <ele>6.71</ele>
      </trkpt>
      <trkpt lat="43.38534" lon="16.55533">
        <ele>4.19</ele>
      </trkpt>
      <trkpt lat="43.38385" lon="16.55408">
        <ele>5.74</ele>
      </trkpt>
      <trkpt lat="43.38401" lon="16.55341">
        <ele>5.72</ele>
      </trkpt>
      <trkpt lat="43.3846" lon="16.55339">
        <ele>5.91</ele>
      </trkpt>
      <trkpt lat="43.38466" lon="16.55318">
        <ele>6.12</ele>
      </trkpt>
      <trkpt lat="43.38482" lon="16.55108">
        <ele>5.65</ele>
      </trkpt>
      <trkpt lat="43.38505" lon="16.55026">
        <ele>5.88</ele>
      </trkpt>
      <trkpt lat="43.38534" lon="16.54762">
        <ele>7.78</ele>
      </trkpt>
      <trkpt lat="43.38514" lon="16.54705">
        <ele>9.99</ele>
      </trkpt>
      <trkpt lat="43.3845" lon="16.54434">
        <ele>11.92</ele>
      </trkpt>
      <trkpt lat="43.38436" lon="16.54294">
        <ele>14.14</ele>
      </trkpt>
      <trkpt lat="43.38403" lon="16.54187">
        <ele>17.97</ele>
      </trkpt>
      <trkpt lat="43.38405" lon="16.54013">
        <ele>12.58</ele>
      </trkpt>
      <trkpt lat="43.38394" lon="16.53952">
        <ele>10.25</ele>
      </trkpt>
      <trkpt lat="43.38355" lon="16.5392">
        <ele>8.45</ele>
      </trkpt>
      <trkpt lat="43.38271" lon="16.53927">
        <ele>10.05</ele>
      </trkpt>
      <trkpt lat="43.38263" lon="16.53904">
        <ele>10.06</ele>
      </trkpt>
      <trkpt lat="43.38278" lon="16.53815">
        <ele>12.96</ele>
      </trkpt>
      <trkpt lat="43.38316" lon="16.53752">
        <ele>10.83</ele>
      </trkpt>
      <trkpt lat="43.38332" lon="16.53712">
        <ele>10.43</ele>
      </trkpt>
      <trkpt lat="43.38339" lon="16.53666">
        <ele>12.41</ele>
      </trkpt>
      <trkpt lat="43.38331" lon="16.53624">
        <ele>13.51</ele>
      </trkpt>
      <trkpt lat="43.38297" lon="16.53543">
        <ele>12.05</ele>
      </trkpt>
      <trkpt lat="43.38313" lon="16.53422">
        <ele>9.78</ele>
      </trkpt>
      <trkpt lat="43.38308" lon="16.53394">
        <ele>11.47</ele>
      </trkpt>
      <trkpt lat="43.3827" lon="16.533">
        <ele>14.14</ele>
      </trkpt>
      <trkpt lat="43.38229" lon="16.53233">
        <ele>14.31</ele>
      </trkpt>
      <trkpt lat="43.3821" lon="16.53166">
        <ele>15.3</ele>
      </trkpt>
      <trkpt lat="43.38102" lon="16.53011">
        <ele>12.27</ele>
      </trkpt>
      <trkpt lat="43.38074" lon="16.53015">
        <ele>11.97</ele>
      </trkpt>
      <trkpt lat="43.38058" lon="16.52964">
        <ele>14.27</ele>
      </trkpt>
      <trkpt lat="43.37967" lon="16.52834">
        <ele>25.89</ele>
      </trkpt>
      <trkpt lat="43.37911" lon="16.52807">
        <ele>33.15</ele>
      </trkpt>
      <trkpt lat="43.37846" lon="16.5274">
        <ele>35.37</ele>
      </trkpt>
      <trkpt lat="43.37808" lon="16.52641">
        <ele>24.17</ele>
      </trkpt>
      <trkpt lat="43.37793" lon="16.52625">
        <ele>22.82</ele>
      </trkpt>
      <trkpt lat="43.37779" lon="16.52657">
        <ele>24.32</ele>
      </trkpt>
      <trkpt lat="43.37782" lon="16.52706">
        <ele>28.97</ele>
      </trkpt>
      <trkpt lat="43.37773" lon="16.52758">
        <ele>34.7</ele>
      </trkpt>
      <trkpt lat="43.37785" lon="16.52839">
        <ele>33.38</ele>
      </trkpt>
      <trkpt lat="43.37768" lon="16.52938">
        <ele>38.38</ele>
      </trkpt>
      <trkpt lat="43.37714" lon="16.52925">
        <ele>45.05</ele>
      </trkpt>
      <trkpt lat="43.37683" lon="16.52933">
        <ele>45.82</ele>
      </trkpt>
      <trkpt lat="43.37609" lon="16.53019">
        <ele>51.2</ele>
      </trkpt>
      <trkpt lat="43.37587" lon="16.53018">
        <ele>53.3</ele>
      </trkpt>
      <trkpt lat="43.37507" lon="16.53063">
        <ele>63.28</ele>
      </trkpt>
      <trkpt lat="43.37501" lon="16.53088">
        <ele>65.46</ele>
      </trkpt>
      <trkpt lat="43.3751" lon="16.53114">
        <ele>67.28</ele>
      </trkpt>
      <trkpt lat="43.37506" lon="16.53178">
        <ele>67.16</ele>
      </trkpt>
      <trkpt lat="43.37492" lon="16.53245">
        <ele>64.6</ele>
      </trkpt>
      <trkpt lat="43.3747" lon="16.53266">
        <ele>64.55</ele>
      </trkpt>
      <trkpt lat="43.37442" lon="16.53271">
        <ele>66.35</ele>
      </trkpt>
      <trkpt lat="43.37411" lon="16.53262">
        <ele>70.9</ele>
      </trkpt>
      <trkpt lat="43.37384" lon="16.53273">
        <ele>75.82</ele>
      </trkpt>
      <trkpt lat="43.37358" lon="16.53259">
        <ele>79.08</ele>
      </trkpt>
      <trkpt lat="43.37365" lon="16.53298">
        <ele>81.51</ele>
      </trkpt>
      <trkpt lat="43.37363" lon="16.53369">
        <ele>87.59</ele>
      </trkpt>
      <trkpt lat="43.37376" lon="16.53412">
        <ele>85.62</ele>
      </trkpt>
      <trkpt lat="43.37385" lon="16.5349">
        <ele>82.69</ele>
      </trkpt>
      <trkpt lat="43.37374" lon="16.53526">
        <ele>83.64</ele>
      </trkpt>
      <trkpt lat="43.37376" lon="16.53568">
        <ele>83.32</ele>
      </trkpt>
      <trkpt lat="43.37383" lon="16.53579">
        <ele>82.06</ele>
      </trkpt>
      <trkpt lat="43.37381" lon="16.5362">
        <ele>83.42</ele>
      </trkpt>
      <trkpt lat="43.37406" lon="16.5381">
        <ele>85.6</ele>
      </trkpt>
      <trkpt lat="43.37408" lon="16.5388">
        <ele>87.5</ele>
      </trkpt>
      <trkpt lat="43.37453" lon="16.53993">
        <ele>67.38</ele>
      </trkpt>
      <trkpt lat="43.37473" lon="16.54097">
        <ele>62.35</ele>
      </trkpt>
      <trkpt lat="43.37505" lon="16.54112">
        <ele>59.43</ele>
      </trkpt>
      <trkpt lat="43.37528" lon="16.54171">
        <ele>66.5</ele>
      </trkpt>
      <trkpt lat="43.37554" lon="16.54125">
        <ele>64.39</ele>
      </trkpt>
      <trkpt lat="43.37587" lon="16.54133">
        <ele>72.79</ele>
      </trkpt>
      <trkpt lat="43.3763" lon="16.54223">
        <ele>83.71</ele>
      </trkpt>
      <trkpt lat="43.37643" lon="16.54332">
        <ele>87.25</ele>
      </trkpt>
      <trkpt lat="43.37583" lon="16.54325">
        <ele>87.94</ele>
      </trkpt>
      <trkpt lat="43.37493" lon="16.54383">
        <ele>82.34</ele>
      </trkpt>
      <trkpt lat="43.37482" lon="16.54434">
        <ele>85.63</ele>
      </trkpt>
      <trkpt lat="43.37451" lon="16.54496">
        <ele>89.49</ele>
      </trkpt>
      <trkpt lat="43.37444" lon="16.54585">
        <ele>104.02</ele>
      </trkpt>
      <trkpt lat="43.37376" lon="16.54862">
        <ele>126.61</ele>
      </trkpt>
      <trkpt lat="43.37355" lon="16.55">
        <ele>140.44</ele>
      </trkpt>
      <trkpt lat="43.37333" lon="16.55065">
        <ele>144.97</ele>
      </trkpt>
      <trkpt lat="43.37302" lon="16.55123">
        <ele>144.56</ele>
      </trkpt>
      <trkpt lat="43.37269" lon="16.55162">
        <ele>146.79</ele>
      </trkpt>
      <trkpt lat="43.37266" lon="16.55221">
        <ele>149.21</ele>
      </trkpt>
      <trkpt lat="43.37167" lon="16.55257">
        <ele>152.75</ele>
      </trkpt>
      <trkpt lat="43.37098" lon="16.55309">
        <ele>160.73</ele>
      </trkpt>
      <trkpt lat="43.37" lon="16.55364">
        <ele>164.52</ele>
      </trkpt>
      <trkpt lat="43.36896" lon="16.55475">
        <ele>179.61</ele>
      </trkpt>
      <trkpt lat="43.36835" lon="16.55511">
        <ele>179.9</ele>
      </trkpt>
      <trkpt lat="43.36793" lon="16.55585">
        <ele>194.46</ele>
      </trkpt>
      <trkpt lat="43.36637" lon="16.5573">
        <ele>215.23</ele>
      </trkpt>
      <trkpt lat="43.3662" lon="16.55763">
        <ele>216.36</ele>
      </trkpt>
      <trkpt lat="43.36535" lon="16.5578">
        <ele>218.12</ele>
      </trkpt>
      <trkpt lat="43.36476" lon="16.55776">
        <ele>228.04</ele>
      </trkpt>
      <trkpt lat="43.3635" lon="16.55796">
        <ele>239.56</ele>
      </trkpt>
      <trkpt lat="43.36326" lon="16.55816">
        <ele>245.06</ele>
      </trkpt>
      <trkpt lat="43.36305" lon="16.55848">
        <ele>248.71</ele>
      </trkpt>
      <trkpt lat="43.36269" lon="16.55851">
        <ele>258.66</ele>
      </trkpt>
      <trkpt lat="43.36242" lon="16.55864">
        <ele>260.3</ele>
      </trkpt>
      <trkpt lat="43.36236" lon="16.56057">
        <ele>257.51</ele>
      </trkpt>
      <trkpt lat="43.36206" lon="16.56142">
        <ele>262.87</ele>
      </trkpt>
      <trkpt lat="43.36247" lon="16.5619">
        <ele>253.75</ele>
      </trkpt>
      <trkpt lat="43.36281" lon="16.5618">
        <ele>247.1</ele>
      </trkpt>
      <trkpt lat="43.36308" lon="16.56161">
        <ele>245.99</ele>
      </trkpt>
      <trkpt lat="43.36351" lon="16.56162">
        <ele>243.03</ele>
      </trkpt>
      <trkpt lat="43.36371" lon="16.56155">
        <ele>239.05</ele>
      </trkpt>
      <trkpt lat="43.36428" lon="16.56164">
        <ele>226.56</ele>
      </trkpt>
      <trkpt lat="43.35951" lon="16.56353">
        <ele>281.81</ele>
      </trkpt>
      <trkpt lat="43.35852" lon="16.56384">
        <ele>293.25</ele>
      </trkpt>
      <trkpt lat="43.35761" lon="16.56442">
        <ele>298.18</ele>
      </trkpt>
      <trkpt lat="43.35715" lon="16.56452">
        <ele>306.76</ele>
      </trkpt>
      <trkpt lat="43.3564" lon="16.56495">
        <ele>315.09</ele>
      </trkpt>
      <trkpt lat="43.3557" lon="16.56505">
        <ele>325.15</ele>
      </trkpt>
      <trkpt lat="43.35484" lon="16.56546">
        <ele>336.78</ele>
      </trkpt>
      <trkpt lat="43.35435" lon="16.56552">
        <ele>341.98</ele>
      </trkpt>
      <trkpt lat="43.35374" lon="16.56549">
        <ele>345.65</ele>
      </trkpt>
      <trkpt lat="43.35303" lon="16.56504">
        <ele>351.55</ele>
      </trkpt>
      <trkpt lat="43.35233" lon="16.56387">
        <ele>356.97</ele>
      </trkpt>
      <trkpt lat="43.35198" lon="16.56357">
        <ele>355.98</ele>
      </trkpt>
      <trkpt lat="43.35127" lon="16.56363">
        <ele>352.03</ele>
      </trkpt>
      <trkpt lat="43.34994" lon="16.56389">
        <ele>346.92</ele>
      </trkpt>
      <trkpt lat="43.34889" lon="16.56321">
        <ele>347.34</ele>
      </trkpt>
      <trkpt lat="43.34785" lon="16.56327">
        <ele>334.49</ele>
      </trkpt>
      <trkpt lat="43.34395" lon="16.5623">
        <ele>306.78</ele>
      </trkpt>
      <trkpt lat="43.34257" lon="16.5618">
        <ele>322.86</ele>
      </trkpt>
      <trkpt lat="43.3421" lon="16.56175">
        <ele>323.31</ele>
      </trkpt>
      <trkpt lat="43.34185" lon="16.56195">
        <ele>323.35</ele>
      </trkpt>
      <trkpt lat="43.34164" lon="16.56237">
        <ele>323.7</ele>
      </trkpt>
      <trkpt lat="43.3414" lon="16.56246">
        <ele>324.52</ele>
      </trkpt>
      <trkpt lat="43.34103" lon="16.56224">
        <ele>328.54</ele>
      </trkpt>
      <trkpt lat="43.34068" lon="16.56221">
        <ele>331.12</ele>
      </trkpt>
      <trkpt lat="43.34049" lon="16.56176">
        <ele>330.78</ele>
      </trkpt>
      <trkpt lat="43.34043" lon="16.5613">
        <ele>325.6</ele>
      </trkpt>
      <trkpt lat="43.341" lon="16.56087">
        <ele>322.1</ele>
      </trkpt>
      <trkpt lat="43.34116" lon="16.55975">
        <ele>310.63</ele>
      </trkpt>
      <trkpt lat="43.34153" lon="16.55931">
        <ele>311.76</ele>
      </trkpt>
      <trkpt lat="43.34029" lon="16.55925">
        <ele>297.11</ele>
      </trkpt>
      <trkpt lat="43.34027" lon="16.55863">
        <ele>291.08</ele>
      </trkpt>
      <trkpt lat="43.34009" lon="16.55836">
        <ele>287.23</ele>
      </trkpt>
      <trkpt lat="43.33928" lon="16.55786">
        <ele>277.12</ele>
      </trkpt>
      <trkpt lat="43.33927" lon="16.55714">
        <ele>273.89</ele>
      </trkpt>
      <trkpt lat="43.33937" lon="16.55628">
        <ele>271.97</ele>
      </trkpt>
      <trkpt lat="43.33963" lon="16.55552">
        <ele>271.92</ele>
      </trkpt>
      <trkpt lat="43.33963" lon="16.55375">
        <ele>273.66</ele>
      </trkpt>
      <trkpt lat="43.33991" lon="16.55303">
        <ele>275.03</ele>
      </trkpt>
      <trkpt lat="43.34022" lon="16.55117">
        <ele>272.42</ele>
      </trkpt>
      <trkpt lat="43.34049" lon="16.55045">
        <ele>270.62</ele>
      </trkpt>
      <trkpt lat="43.34016" lon="16.54913">
        <ele>267.29</ele>
      </trkpt>
      <trkpt lat="43.34022" lon="16.54875">
        <ele>264.81</ele>
      </trkpt>
      <trkpt lat="43.3405" lon="16.54815">
        <ele>263.53</ele>
      </trkpt>
      <trkpt lat="43.34044" lon="16.54776">
        <ele>264.87</ele>
      </trkpt>
      <trkpt lat="43.3405" lon="16.5473">
        <ele>264.05</ele>
      </trkpt>
      <trkpt lat="43.34096" lon="16.5467">
        <ele>259.88</ele>
      </trkpt>
      <trkpt lat="43.34111" lon="16.54611">
        <ele>261.98</ele>
      </trkpt>
      <trkpt lat="43.3411" lon="16.54534">
        <ele>257.14</ele>
      </trkpt>
      <trkpt lat="43.34075" lon="16.54393">
        <ele>254.04</ele>
      </trkpt>
      <trkpt lat="43.34088" lon="16.54372">
        <ele>252.99</ele>
      </trkpt>
      <trkpt lat="43.34111" lon="16.54359">
        <ele>251.01</ele>
      </trkpt>
      <trkpt lat="43.3415" lon="16.54241">
        <ele>247.88</ele>
      </trkpt>
      <trkpt lat="43.3418" lon="16.5409">
        <ele>258.12</ele>
      </trkpt>
      <trkpt lat="43.34175" lon="16.54012">
        <ele>262.34</ele>
      </trkpt>
      <trkpt lat="43.34098" lon="16.53977">
        <ele>270.65</ele>
      </trkpt>
      <trkpt lat="43.34047" lon="16.53931">
        <ele>270.34</ele>
      </trkpt>
      <trkpt lat="43.34036" lon="16.53867">
        <ele>268.7</ele>
      </trkpt>
      <trkpt lat="43.34011" lon="16.53828">
        <ele>267.25</ele>
      </trkpt>
      <trkpt lat="43.34006" lon="16.53726">
        <ele>266.17</ele>
      </trkpt>
      <trkpt lat="43.33981" lon="16.53677">
        <ele>261.61</ele>
      </trkpt>
      <trkpt lat="43.33991" lon="16.53646">
        <ele>260.76</ele>
      </trkpt>
      <trkpt lat="43.33986" lon="16.53614">
        <ele>261.87</ele>
      </trkpt>
      <trkpt lat="43.33957" lon="16.53586">
        <ele>268.42</ele>
      </trkpt>
      <trkpt lat="43.3396" lon="16.5352">
        <ele>272.04</ele>
      </trkpt>
      <trkpt lat="43.33979" lon="16.53454">
        <ele>259.66</ele>
      </trkpt>
      <trkpt lat="43.3398" lon="16.53396">
        <ele>249.78</ele>
      </trkpt>
      <trkpt lat="43.33947" lon="16.53337">
        <ele>250.62</ele>
      </trkpt>
      <trkpt lat="43.33907" lon="16.53289">
        <ele>248.6</ele>
      </trkpt>
      <trkpt lat="43.33859" lon="16.5331">
        <ele>251.3</ele>
      </trkpt>
      <trkpt lat="43.33789" lon="16.53318">
        <ele>255.73</ele>
      </trkpt>
      <trkpt lat="43.33741" lon="16.53354">
        <ele>265.89</ele>
      </trkpt>
      <trkpt lat="43.33692" lon="16.53372">
        <ele>258.25</ele>
      </trkpt>
      <trkpt lat="43.3368" lon="16.53417">
        <ele>259.98</ele>
      </trkpt>
      <trkpt lat="43.3366" lon="16.53428">
        <ele>261.16</ele>
      </trkpt>
      <trkpt lat="43.33642" lon="16.53417">
        <ele>264.34</ele>
      </trkpt>
      <trkpt lat="43.33618" lon="16.53375">
        <ele>261.0</ele>
      </trkpt>
      <trkpt lat="43.33528" lon="16.53269">
        <ele>254.99</ele>
      </trkpt>
      <trkpt lat="43.33484" lon="16.53246">
        <ele>257.07</ele>
      </trkpt>
      <trkpt lat="43.33483" lon="16.53205">
        <ele>261.62</ele>
      </trkpt>
      <trkpt lat="43.3347" lon="16.53173">
        <ele>260.38</ele>
      </trkpt>
      <trkpt lat="43.33451" lon="16.53165">
        <ele>264.53</ele>
      </trkpt>
      <trkpt lat="43.33412" lon="16.53204">
        <ele>264.03</ele>
      </trkpt>
      <trkpt lat="43.33379" lon="16.53268">
        <ele>259.71</ele>
      </trkpt>
      <trkpt lat="43.3336" lon="16.53277">
        <ele>262.06</ele>
      </trkpt>
      <trkpt lat="43.33324" lon="16.53336">
        <ele>259.53</ele>
      </trkpt>
      <trkpt lat="43.33315" lon="16.53384">
        <ele>261.66</ele>
      </trkpt>
      <trkpt lat="43.33316" lon="16.5347">
        <ele>262.28</ele>
      </trkpt>
      <trkpt lat="43.33297" lon="16.53587">
        <ele>264.42</ele>
      </trkpt>
      <trkpt lat="43.3332" lon="16.53672">
        <ele>262.64</ele>
      </trkpt>
      <trkpt lat="43.33322" lon="16.53969">
        <ele>274.99</ele>
      </trkpt>
      <trkpt lat="43.33268" lon="16.54155">
        <ele>282.21</ele>
      </trkpt>
      <trkpt lat="43.33258" lon="16.54252">
        <ele>284.84</ele>
      </trkpt>
      <trkpt lat="43.33222" lon="16.54297">
        <ele>283.33</ele>
      </trkpt>
      <trkpt lat="43.33219" lon="16.54367">
        <ele>288.99</ele>
      </trkpt>
      <trkpt lat="43.33232" lon="16.54463">
        <ele>295.88</ele>
      </trkpt>
      <trkpt lat="43.33221" lon="16.5453">
        <ele>296.13</ele>
      </trkpt>
      <trkpt lat="43.33198" lon="16.54603">
        <ele>303.21</ele>
      </trkpt>
      <trkpt lat="43.33197" lon="16.5466">
        <ele>305.95</ele>
      </trkpt>
      <trkpt lat="43.3316" lon="16.54831">
        <ele>313.8</ele>
      </trkpt>
      <trkpt lat="43.3312" lon="16.54934">
        <ele>316.75</ele>
      </trkpt>
      <trkpt lat="43.33104" lon="16.55028">
        <ele>320.76</ele>
      </trkpt>
      <trkpt lat="43.33075" lon="16.55105">
        <ele>324.73</ele>
      </trkpt>
      <trkpt lat="43.33056" lon="16.55187">
        <ele>323.54</ele>
      </trkpt>
      <trkpt lat="43.33059" lon="16.55338">
        <ele>317.44</ele>
      </trkpt>
      <trkpt lat="43.33048" lon="16.55414">
        <ele>321.0</ele>
      </trkpt>
      <trkpt lat="43.33015" lon="16.55462">
        <ele>329.67</ele>
      </trkpt>
      <trkpt lat="43.32997" lon="16.55527">
        <ele>340.67</ele>
      </trkpt>
      <trkpt lat="43.32995" lon="16.55621">
        <ele>343.64</ele>
      </trkpt>
      <trkpt lat="43.32971" lon="16.55734">
        <ele>348.79</ele>
      </trkpt>
      <trkpt lat="43.32963" lon="16.55881">
        <ele>350.85</ele>
      </trkpt>
      <trkpt lat="43.32938" lon="16.5596">
        <ele>353.91</ele>
      </trkpt>
      <trkpt lat="43.32941" lon="16.56029">
        <ele>356.79</ele>
      </trkpt>
      <trkpt lat="43.32976" lon="16.5626">
        <ele>363.6</ele>
      </trkpt>
      <trkpt lat="43.33032" lon="16.56376">
        <ele>351.7</ele>
      </trkpt>
      <trkpt lat="43.33054" lon="16.56577">
        <ele>344.88</ele>
      </trkpt>
      <trkpt lat="43.33122" lon="16.56761">
        <ele>333.46</ele>
      </trkpt>
      <trkpt lat="43.33102" lon="16.56895">
        <ele>338.87</ele>
      </trkpt>
      <trkpt lat="43.33056" lon="16.57086">
        <ele>342.08</ele>
      </trkpt>
      <trkpt lat="43.3306" lon="16.57121">
        <ele>341.29</ele>
      </trkpt>
      <trkpt lat="43.3305" lon="16.57197">
        <ele>341.2</ele>
      </trkpt>
      <trkpt lat="43.33025" lon="16.57233">
        <ele>344.59</ele>
      </trkpt>
      <trkpt lat="43.33016" lon="16.57303">
        <ele>347.9</ele>
      </trkpt>
      <trkpt lat="43.33042" lon="16.57373">
        <ele>348.42</ele>
      </trkpt>
      <trkpt lat="43.33041" lon="16.57554">
        <ele>368.17</ele>
      </trkpt>
      <trkpt lat="43.32995" lon="16.57567">
        <ele>362.68</ele>
      </trkpt>
      <trkpt lat="43.32961" lon="16.57596">
        <ele>364.47</ele>
      </trkpt>
      <trkpt lat="43.32996" lon="16.57618">
        <ele>366.85</ele>
      </trkpt>
      <trkpt lat="43.33024" lon="16.57672">
        <ele>378.32</ele>
      </trkpt>
      <trkpt lat="43.33083" lon="16.57671">
        <ele>377.19</ele>
      </trkpt>
      <trkpt lat="43.33088" lon="16.57745">
        <ele>380.14</ele>
      </trkpt>
      <trkpt lat="43.32942" lon="16.57895">
        <ele>423.69</ele>
      </trkpt>
      <trkpt lat="43.32886" lon="16.57914">
        <ele>418.79</ele>
      </trkpt>
      <trkpt lat="43.32763" lon="16.58006">
        <ele>434.56</ele>
      </trkpt>
      <trkpt lat="43.32699" lon="16.57964">
        <ele>436.69</ele>
      </trkpt>
      <trkpt lat="43.32655" lon="16.57951">
        <ele>435.4</ele>
      </trkpt>
      <trkpt lat="43.32597" lon="16.58051">
        <ele>447.74</ele>
      </trkpt>
      <trkpt lat="43.32561" lon="16.5809">
        <ele>450.14</ele>
      </trkpt>
      <trkpt lat="43.32502" lon="16.58086">
        <ele>445.58</ele>
      </trkpt>
      <trkpt lat="43.32389" lon="16.58209">
        <ele>461.12</ele>
      </trkpt>
      <trkpt lat="43.3222" lon="16.58354">
        <ele>475.26</ele>
      </trkpt>
      <trkpt lat="43.32162" lon="16.58474">
        <ele>485.6</ele>
      </trkpt>
      <trkpt lat="43.32162" lon="16.58521">
        <ele>487.5</ele>
      </trkpt>
      <trkpt lat="43.32131" lon="16.58536">
        <ele>489.15</ele>
      </trkpt>
      <trkpt lat="43.32117" lon="16.58389">
        <ele>493.88</ele>
      </trkpt>
      <trkpt lat="43.32082" lon="16.58294">
        <ele>496.92</ele>
      </trkpt>
      <trkpt lat="43.31937" lon="16.58356">
        <ele>505.68</ele>
      </trkpt>
      <trkpt lat="43.319" lon="16.58412">
        <ele>514.03</ele>
      </trkpt>
      <trkpt lat="43.31932" lon="16.58573">
        <ele>530.94</ele>
      </trkpt>
      <trkpt lat="43.31987" lon="16.58708">
        <ele>537.53</ele>
      </trkpt>
      <trkpt lat="43.31925" lon="16.5885">
        <ele>543.56</ele>
      </trkpt>
      <trkpt lat="43.3185" lon="16.58974">
        <ele>550.22</ele>
      </trkpt>
      <trkpt lat="43.31761" lon="16.59088">
        <ele>553.06</ele>
      </trkpt>
      <trkpt lat="43.31422" lon="16.59378">
        <ele>568.13</ele>
      </trkpt>
      <trkpt lat="43.31319" lon="16.59412">
        <ele>578.28</ele>
      </trkpt>
      <trkpt lat="43.31141" lon="16.59511">
        <ele>581.28</ele>
      </trkpt>
      <trkpt lat="43.3095" lon="16.59712">
        <ele>583.05</ele>
      </trkpt>
      <trkpt lat="43.30832" lon="16.59787">
        <ele>587.79</ele>
      </trkpt>
      <trkpt lat="43.30769" lon="16.59783">
        <ele>588.89</ele>
      </trkpt>
      <trkpt lat="43.30701" lon="16.59831">
        <ele>585.29</ele>
      </trkpt>
      <trkpt lat="43.30582" lon="16.59956">
        <ele>588.9</ele>
      </trkpt>
      <trkpt lat="43.30503" lon="16.60153">
        <ele>600.73</ele>
      </trkpt>
      <trkpt lat="43.30535" lon="16.60197">
        <ele>601.44</ele>
      </trkpt>
      <trkpt lat="43.30538" lon="16.6024">
        <ele>607.01</ele>
      </trkpt>
      <trkpt lat="43.30612" lon="16.60379">
        <ele>617.51</ele>
      </trkpt>
      <trkpt lat="43.30651" lon="16.60516">
        <ele>614.05</ele>
      </trkpt>
      <trkpt lat="43.30655" lon="16.60567">
        <ele>609.35</ele>
      </trkpt>
      <trkpt lat="43.3068" lon="16.60645">
        <ele>610.25</ele>
      </trkpt>
      <trkpt lat="43.30701" lon="16.6068">
        <ele>609.24</ele>
      </trkpt>
      <trkpt lat="43.30712" lon="16.60757">
        <ele>609.98</ele>
      </trkpt>
      <trkpt lat="43.30731" lon="16.60777">
        <ele>608.38</ele>
      </trkpt>
      <trkpt lat="43.30734" lon="16.60805">
        <ele>609.69</ele>
      </trkpt>
      <trkpt lat="43.3077" lon="16.60837">
        <ele>608.81</ele>
      </trkpt>
      <trkpt lat="43.3083" lon="16.60917">
        <ele>613.44</ele>
      </trkpt>
      <trkpt lat="43.30857" lon="16.60927">
        <ele>606.35</ele>
      </trkpt>
      <trkpt lat="43.30872" lon="16.60973">
        <ele>609.08</ele>
      </trkpt>
      <trkpt lat="43.30823" lon="16.61134">
        <ele>626.84</ele>
      </trkpt>
      <trkpt lat="43.30839" lon="16.6117">
        <ele>628.09</ele>
      </trkpt>
      <trkpt lat="43.30877" lon="16.61194">
        <ele>624.86</ele>
      </trkpt>
      <trkpt lat="43.30903" lon="16.61242">
        <ele>624.51</ele>
      </trkpt>
      <trkpt lat="43.3092" lon="16.61249">
        <ele>624.64</ele>
      </trkpt>
      <trkpt lat="43.30945" lon="16.61247">
        <ele>621.91</ele>
      </trkpt>
      <trkpt lat="43.30978" lon="16.61273">
        <ele>617.07</ele>
      </trkpt>
      <trkpt lat="43.30978" lon="16.61333">
        <ele>621.97</ele>
      </trkpt>
      <trkpt lat="43.30952" lon="16.6137">
        <ele>624.5</ele>
      </trkpt>
      <trkpt lat="43.30985" lon="16.61396">
        <ele>624.11</ele>
      </trkpt>
      <trkpt lat="43.31031" lon="16.61451">
        <ele>615.92</ele>
      </trkpt>
      <trkpt lat="43.31023" lon="16.61481">
        <ele>616.06</ele>
      </trkpt>
      <trkpt lat="43.30995" lon="16.61529">
        <ele>611.0</ele>
      </trkpt>
      <trkpt lat="43.30957" lon="16.61648">
        <ele>613.81</ele>
      </trkpt>
      <trkpt lat="43.31" lon="16.61728">
        <ele>609.21</ele>
      </trkpt>
      <trkpt lat="43.31042" lon="16.61774">
        <ele>603.63</ele>
      </trkpt>
      <trkpt lat="43.31052" lon="16.61796">
        <ele>602.47</ele>
      </trkpt>
      <trkpt lat="43.31028" lon="16.61854">
        <ele>603.0</ele>
      </trkpt>
      <trkpt lat="43.3103" lon="16.61904">
        <ele>600.89</ele>
      </trkpt>
      <trkpt lat="43.31021" lon="16.61952">
        <ele>597.2</ele>
      </trkpt>
      <trkpt lat="43.30978" lon="16.61946">
        <ele>599.59</ele>
      </trkpt>
      <trkpt lat="43.30961" lon="16.61961">
        <ele>598.11</ele>
      </trkpt>
      <trkpt lat="43.30945" lon="16.62016">
        <ele>596.95</ele>
      </trkpt>
      <trkpt lat="43.30914" lon="16.62075">
        <ele>602.01</ele>
      </trkpt>
      <trkpt lat="43.30893" lon="16.62104">
        <ele>601.65</ele>
      </trkpt>
      <trkpt lat="43.30847" lon="16.62137">
        <ele>607.44</ele>
      </trkpt>
      <trkpt lat="43.30843" lon="16.62161">
        <ele>603.15</ele>
      </trkpt>
      <trkpt lat="43.30851" lon="16.62206">
        <ele>595.74</ele>
      </trkpt>
      <trkpt lat="43.30831" lon="16.62272">
        <ele>595.74</ele>
      </trkpt>
      <trkpt lat="43.30822" lon="16.62278">
        <ele>595.58</ele>
      </trkpt>
      <trkpt lat="43.30789" lon="16.62263">
        <ele>594.06</ele>
      </trkpt>
      <trkpt lat="43.30775" lon="16.62275">
        <ele>592.51</ele>
      </trkpt>
      <trkpt lat="43.3077" lon="16.62303">
        <ele>592.59</ele>
      </trkpt>
      <trkpt lat="43.30775" lon="16.62331">
        <ele>593.02</ele>
      </trkpt>
      <trkpt lat="43.30796" lon="16.62358">
        <ele>593.89</ele>
      </trkpt>
      <trkpt lat="43.30797" lon="16.62372">
        <ele>594.0</ele>
      </trkpt>
      <trkpt lat="43.30783" lon="16.62383">
        <ele>594.0</ele>
      </trkpt>
      <trkpt lat="43.30722" lon="16.62387">
        <ele>597.86</ele>
      </trkpt>
      <trkpt lat="43.30665" lon="16.6242">
        <ele>595.63</ele>
      </trkpt>
      <trkpt lat="43.30629" lon="16.62431">
        <ele>593.76</ele>
      </trkpt>
      <trkpt lat="43.30602" lon="16.62454">
        <ele>591.2</ele>
      </trkpt>
      <trkpt lat="43.30578" lon="16.62538">
        <ele>592.47</ele>
      </trkpt>
      <trkpt lat="43.30579" lon="16.62577">
        <ele>590.23</ele>
      </trkpt>
      <trkpt lat="43.30567" lon="16.62636">
        <ele>588.16</ele>
      </trkpt>
      <trkpt lat="43.30518" lon="16.62749">
        <ele>582.86</ele>
      </trkpt>
      <trkpt lat="43.30492" lon="16.62781">
        <ele>581.34</ele>
      </trkpt>
      <trkpt lat="43.30478" lon="16.6283">
        <ele>579.89</ele>
      </trkpt>
      <trkpt lat="43.30494" lon="16.62846">
        <ele>579.57</ele>
      </trkpt>
      <trkpt lat="43.30494" lon="16.629">
        <ele>580.56</ele>
      </trkpt>
      <trkpt lat="43.3054" lon="16.62898">
        <ele>577.3</ele>
      </trkpt>
      <trkpt lat="43.30563" lon="16.62866">
        <ele>577.67</ele>
      </trkpt>
      <trkpt lat="43.30555" lon="16.62823">
        <ele>579.27</ele>
      </trkpt>
      <trkpt lat="43.30568" lon="16.628">
        <ele>577.6</ele>
      </trkpt>
      <trkpt lat="43.306" lon="16.6281">
        <ele>577.24</ele>
      </trkpt>
      <trkpt lat="43.30671" lon="16.62925">
        <ele>569.69</ele>
      </trkpt>
      <trkpt lat="43.30748" lon="16.62947">
        <ele>564.8</ele>
      </trkpt>
      <trkpt lat="43.30911" lon="16.63018">
        <ele>553.93</ele>
      </trkpt>
      <trkpt lat="43.30925" lon="16.63034">
        <ele>552.99</ele>
      </trkpt>
      <trkpt lat="43.30925" lon="16.63073">
        <ele>551.87</ele>
      </trkpt>
      <trkpt lat="43.30994" lon="16.63161">
        <ele>543.96</ele>
      </trkpt>
      <trkpt lat="43.31011" lon="16.63152">
        <ele>543.42</ele>
      </trkpt>
      <trkpt lat="43.31041" lon="16.63114">
        <ele>543.58</ele>
      </trkpt>
      <trkpt lat="43.31069" lon="16.63112">
        <ele>544.97</ele>
      </trkpt>
      <trkpt lat="43.31081" lon="16.63091">
        <ele>543.96</ele>
      </trkpt>
      <trkpt lat="43.3113" lon="16.63082">
        <ele>538.1</ele>
      </trkpt>
      <trkpt lat="43.31163" lon="16.63107">
        <ele>537.26</ele>
      </trkpt>
      <trkpt lat="43.31167" lon="16.63173">
        <ele>540.42</ele>
      </trkpt>
      <trkpt lat="43.31178" lon="16.63197">
        <ele>540.78</ele>
      </trkpt>
      <trkpt lat="43.31216" lon="16.63214">
        <ele>532.79</ele>
      </trkpt>
      <trkpt lat="43.31235" lon="16.63215">
        <ele>528.58</ele>
      </trkpt>
      <trkpt lat="43.31297" lon="16.63165">
        <ele>526.77</ele>
      </trkpt>
      <trkpt lat="43.31344" lon="16.63167">
        <ele>529.22</ele>
      </trkpt>
      <trkpt lat="43.31368" lon="16.63202">
        <ele>527.74</ele>
      </trkpt>
      <trkpt lat="43.31362" lon="16.63236">
        <ele>528.38</ele>
      </trkpt>
      <trkpt lat="43.31369" lon="16.63253">
        <ele>525.15</ele>
      </trkpt>
      <trkpt lat="43.31386" lon="16.63264">
        <ele>522.13</ele>
      </trkpt>
      <trkpt lat="43.31399" lon="16.63306">
        <ele>515.26</ele>
      </trkpt>
      <trkpt lat="43.31451" lon="16.63291">
        <ele>517.46</ele>
      </trkpt>
      <trkpt lat="43.31498" lon="16.63264">
        <ele>516.08</ele>
      </trkpt>
      <trkpt lat="43.31495" lon="16.63181">
        <ele>510.6</ele>
      </trkpt>
      <trkpt lat="43.31547" lon="16.63174">
        <ele>509.49</ele>
      </trkpt>
      <trkpt lat="43.31598" lon="16.63097">
        <ele>509.18</ele>
      </trkpt>
      <trkpt lat="43.31645" lon="16.63095">
        <ele>505.83</ele>
      </trkpt>
      <trkpt lat="43.31683" lon="16.63075">
        <ele>501.24</ele>
      </trkpt>
      <trkpt lat="43.31725" lon="16.63078">
        <ele>493.87</ele>
      </trkpt>
      <trkpt lat="43.31753" lon="16.63066">
        <ele>492.83</ele>
      </trkpt>
      <trkpt lat="43.31771" lon="16.63067">
        <ele>491.1</ele>
      </trkpt>
      <trkpt lat="43.31787" lon="16.63078">
        <ele>489.28</ele>
      </trkpt>
      <trkpt lat="43.31827" lon="16.6307">
        <ele>487.28</ele>
      </trkpt>
      <trkpt lat="43.31856" lon="16.63077">
        <ele>489.03</ele>
      </trkpt>
      <trkpt lat="43.31912" lon="16.63052">
        <ele>486.68</ele>
      </trkpt>
      <trkpt lat="43.32048" lon="16.63021">
        <ele>483.89</ele>
      </trkpt>
      <trkpt lat="43.32067" lon="16.63008">
        <ele>484.82</ele>
      </trkpt>
      <trkpt lat="43.32085" lon="16.62978">
        <ele>487.12</ele>
      </trkpt>
      <trkpt lat="43.32108" lon="16.62889">
        <ele>487.11</ele>
      </trkpt>
      <trkpt lat="43.32142" lon="16.62874">
        <ele>487.6</ele>
      </trkpt>
      <trkpt lat="43.32165" lon="16.62849">
        <ele>490.27</ele>
      </trkpt>
      <trkpt lat="43.32198" lon="16.62856">
        <ele>484.67</ele>
      </trkpt>
      <trkpt lat="43.32257" lon="16.6284">
        <ele>485.76</ele>
      </trkpt>
      <trkpt lat="43.32373" lon="16.62746">
        <ele>489.68</ele>
      </trkpt>
      <trkpt lat="43.32386" lon="16.62786">
        <ele>487.79</ele>
      </trkpt>
      <trkpt lat="43.32387" lon="16.62882">
        <ele>483.95</ele>
      </trkpt>
      <trkpt lat="43.32416" lon="16.62966">
        <ele>479.83</ele>
      </trkpt>
      <trkpt lat="43.32407" lon="16.63019">
        <ele>479.32</ele>
      </trkpt>
      <trkpt lat="43.32423" lon="16.63084">
        <ele>476.98</ele>
      </trkpt>
      <trkpt lat="43.32423" lon="16.63123">
        <ele>475.24</ele>
      </trkpt>
      <trkpt lat="43.32443" lon="16.63148">
        <ele>474.97</ele>
      </trkpt>
      <trkpt lat="43.32453" lon="16.63234">
        <ele>474.61</ele>
      </trkpt>
      <trkpt lat="43.32446" lon="16.63321">
        <ele>475.17</ele>
      </trkpt>
      <trkpt lat="43.32408" lon="16.63461">
        <ele>474.24</ele>
      </trkpt>
      <trkpt lat="43.32416" lon="16.63517">
        <ele>471.38</ele>
      </trkpt>
      <trkpt lat="43.32444" lon="16.6351">
        <ele>477.9</ele>
      </trkpt>
      <trkpt lat="43.32481" lon="16.63573">
        <ele>475.33</ele>
      </trkpt>
      <trkpt lat="43.32497" lon="16.63575">
        <ele>475.02</ele>
      </trkpt>
      <trkpt lat="43.32562" lon="16.63556">
        <ele>473.24</ele>
      </trkpt>
      <trkpt lat="43.32572" lon="16.63561">
        <ele>473.67</ele>
      </trkpt>
      <trkpt lat="43.326" lon="16.63605">
        <ele>472.93</ele>
      </trkpt>
      <trkpt lat="43.32622" lon="16.63621">
        <ele>472.0</ele>
      </trkpt>
      <trkpt lat="43.32646" lon="16.63665">
        <ele>469.82</ele>
      </trkpt>
      <trkpt lat="43.32668" lon="16.63802">
        <ele>469.63</ele>
      </trkpt>
      <trkpt lat="43.32721" lon="16.63821">
        <ele>461.73</ele>
      </trkpt>
      <trkpt lat="43.32825" lon="16.63792">
        <ele>446.24</ele>
      </trkpt>
      <trkpt lat="43.32852" lon="16.63828">
        <ele>442.96</ele>
      </trkpt>
      <trkpt lat="43.3291" lon="16.63832">
        <ele>427.54</ele>
      </trkpt>
      <trkpt lat="43.3292" lon="16.63858">
        <ele>424.13</ele>
      </trkpt>
      <trkpt lat="43.32938" lon="16.63873">
        <ele>419.33</ele>
      </trkpt>
      <trkpt lat="43.32963" lon="16.63856">
        <ele>412.83</ele>
      </trkpt>
      <trkpt lat="43.33011" lon="16.63872">
        <ele>408.34</ele>
      </trkpt>
      <trkpt lat="43.33151" lon="16.63882">
        <ele>402.35</ele>
      </trkpt>
      <trkpt lat="43.33181" lon="16.63924">
        <ele>404.93</ele>
      </trkpt>
      <trkpt lat="43.33271" lon="16.63951">
        <ele>399.41</ele>
      </trkpt>
      <trkpt lat="43.33301" lon="16.63982">
        <ele>399.93</ele>
      </trkpt>
      <trkpt lat="43.33307" lon="16.63998">
        <ele>399.85</ele>
      </trkpt>
      <trkpt lat="43.33289" lon="16.64027">
        <ele>394.5</ele>
      </trkpt>
      <trkpt lat="43.33291" lon="16.64045">
        <ele>392.08</ele>
      </trkpt>
      <trkpt lat="43.33335" lon="16.64064">
        <ele>394.41</ele>
      </trkpt>
      <trkpt lat="43.33387" lon="16.64198">
        <ele>376.17</ele>
      </trkpt>
      <trkpt lat="43.33446" lon="16.64255">
        <ele>372.24</ele>
      </trkpt>
      <trkpt lat="43.33448" lon="16.64307">
        <ele>372.18</ele>
      </trkpt>
      <trkpt lat="43.33472" lon="16.64365">
        <ele>369.71</ele>
      </trkpt>
      <trkpt lat="43.33533" lon="16.64433">
        <ele>353.27</ele>
      </trkpt>
      <trkpt lat="43.33617" lon="16.64504">
        <ele>343.49</ele>
      </trkpt>
      <trkpt lat="43.33639" lon="16.64509">
        <ele>334.33</ele>
      </trkpt>
      <trkpt lat="43.33677" lon="16.64492">
        <ele>331.23</ele>
      </trkpt>
      <trkpt lat="43.33706" lon="16.64465">
        <ele>328.37</ele>
      </trkpt>
      <trkpt lat="43.33719" lon="16.64464">
        <ele>327.59</ele>
      </trkpt>
      <trkpt lat="43.3377" lon="16.64476">
        <ele>324.61</ele>
      </trkpt>
      <trkpt lat="43.33883" lon="16.64481">
        <ele>318.13</ele>
      </trkpt>
      <trkpt lat="43.33922" lon="16.64519">
        <ele>313.38</ele>
      </trkpt>
      <trkpt lat="43.33958" lon="16.64534">
        <ele>310.05</ele>
      </trkpt>
      <trkpt lat="43.33978" lon="16.64574">
        <ele>306.65</ele>
      </trkpt>
      <trkpt lat="43.34054" lon="16.64587">
        <ele>298.57</ele>
      </trkpt>
      <trkpt lat="43.34079" lon="16.64625">
        <ele>291.55</ele>
      </trkpt>
      <trkpt lat="43.34089" lon="16.64657">
        <ele>285.63</ele>
      </trkpt>
      <trkpt lat="43.34087" lon="16.64694">
        <ele>286.45</ele>
      </trkpt>
      <trkpt lat="43.34111" lon="16.64696">
        <ele>282.79</ele>
      </trkpt>
      <trkpt lat="43.3418" lon="16.64652">
        <ele>264.15</ele>
      </trkpt>
      <trkpt lat="43.34271" lon="16.64608">
        <ele>251.34</ele>
      </trkpt>
      <trkpt lat="43.34327" lon="16.64639">
        <ele>255.84</ele>
      </trkpt>
      <trkpt lat="43.34367" lon="16.64702">
        <ele>256.44</ele>
      </trkpt>
      <trkpt lat="43.34389" lon="16.64806">
        <ele>245.92</ele>
      </trkpt>
      <trkpt lat="43.34475" lon="16.64914">
        <ele>246.48</ele>
      </trkpt>
      <trkpt lat="43.34515" lon="16.64976">
        <ele>240.42</ele>
      </trkpt>
      <trkpt lat="43.34551" lon="16.65055">
        <ele>238.14</ele>
      </trkpt>
      <trkpt lat="43.34623" lon="16.65158">
        <ele>222.15</ele>
      </trkpt>
      <trkpt lat="43.34664" lon="16.6533">
        <ele>222.41</ele>
      </trkpt>
      <trkpt lat="43.34714" lon="16.65452">
        <ele>219.59</ele>
      </trkpt>
      <trkpt lat="43.34798" lon="16.65587">
        <ele>202.22</ele>
      </trkpt>
      <trkpt lat="43.34874" lon="16.65624">
        <ele>203.65</ele>
      </trkpt>
      <trkpt lat="43.34924" lon="16.65667">
        <ele>196.67</ele>
      </trkpt>
      <trkpt lat="43.34956" lon="16.65673">
        <ele>192.34</ele>
      </trkpt>
      <trkpt lat="43.34996" lon="16.65652">
        <ele>192.36</ele>
      </trkpt>
      <trkpt lat="43.35052" lon="16.65665">
        <ele>187.62</ele>
      </trkpt>
      <trkpt lat="43.35118" lon="16.65652">
        <ele>184.31</ele>
      </trkpt>
      <trkpt lat="43.35147" lon="16.65658">
        <ele>187.23</ele>
      </trkpt>
      <trkpt lat="43.35174" lon="16.65686">
        <ele>191.61</ele>
      </trkpt>
      <trkpt lat="43.35269" lon="16.65703">
        <ele>185.05</ele>
      </trkpt>
      <trkpt lat="43.35316" lon="16.65727">
        <ele>181.72</ele>
      </trkpt>
      <trkpt lat="43.35364" lon="16.65729">
        <ele>181.94</ele>
      </trkpt>
      <trkpt lat="43.35458" lon="16.65697">
        <ele>172.58</ele>
      </trkpt>
      <trkpt lat="43.35572" lon="16.65727">
        <ele>171.97</ele>
      </trkpt>
      <trkpt lat="43.35614" lon="16.65781">
        <ele>175.71</ele>
      </trkpt>
      <trkpt lat="43.35647" lon="16.65879">
        <ele>177.98</ele>
      </trkpt>
      <trkpt lat="43.35714" lon="16.65999">
        <ele>166.82</ele>
      </trkpt>
      <trkpt lat="43.3585" lon="16.66124">
        <ele>168.11</ele>
      </trkpt>
      <trkpt lat="43.36076" lon="16.6622">
        <ele>158.11</ele>
      </trkpt>
      <trkpt lat="43.36138" lon="16.66272">
        <ele>150.83</ele>
      </trkpt>
      <trkpt lat="43.36201" lon="16.66338">
        <ele>143.12</ele>
      </trkpt>
      <trkpt lat="43.36289" lon="16.66334">
        <ele>125.24</ele>
      </trkpt>
      <trkpt lat="43.36282" lon="16.66289">
        <ele>128.47</ele>
      </trkpt>
      <trkpt lat="43.36327" lon="16.66287">
        <ele>119.76</ele>
      </trkpt>
      <trkpt lat="43.36378" lon="16.66323">
        <ele>110.43</ele>
      </trkpt>
      <trkpt lat="43.36392" lon="16.66407">
        <ele>106.22</ele>
      </trkpt>
      <trkpt lat="43.36414" lon="16.66396">
        <ele>100.67</ele>
      </trkpt>
      <trkpt lat="43.36431" lon="16.66326">
        <ele>100.43</ele>
      </trkpt>
      <trkpt lat="43.36519" lon="16.66304">
        <ele>90.52</ele>
      </trkpt>
      <trkpt lat="43.36708" lon="16.66296">
        <ele>70.6</ele>
      </trkpt>
      <trkpt lat="43.36745" lon="16.66238">
        <ele>74.02</ele>
      </trkpt>
      <trkpt lat="43.36871" lon="16.66324">
        <ele>51.56</ele>
      </trkpt>
      <trkpt lat="43.36782" lon="16.663">
        <ele>63.13</ele>
      </trkpt>
      <trkpt lat="43.36697" lon="16.66343">
        <ele>68.66</ele>
      </trkpt>
      <trkpt lat="43.3669" lon="16.66357">
        <ele>67.52</ele>
      </trkpt>
      <trkpt lat="43.36793" lon="16.66364">
        <ele>49.35</ele>
      </trkpt>
      <trkpt lat="43.36988" lon="16.66514">
        <ele>10.35</ele>
      </trkpt>
      <trkpt lat="43.3708" lon="16.66504">
        <ele>0.84</ele>
      </trkpt>
      <trkpt lat="43.37186" lon="16.66456">
        <ele>5.56</ele>
      </trkpt>
      <trkpt lat="43.37252" lon="16.66396">
        <ele>6.55</ele>
      </trkpt>
      <trkpt lat="43.37278" lon="16.6635">
        <ele>5.79</ele>
      </trkpt>
      <trkpt lat="43.37289" lon="16.66289">
        <ele>8.74</ele>
      </trkpt>
      <trkpt lat="43.37258" lon="16.6616">
        <ele>13.23</ele>
      </trkpt>
      <trkpt lat="43.37205" lon="16.66059">
        <ele>7.49</ele>
      </trkpt>
      <trkpt lat="43.37219" lon="16.66033">
        <ele>6.14</ele>
      </trkpt>
      <trkpt lat="43.37317" lon="16.65985">
        <ele>8.03</ele>
      </trkpt>
      <trkpt lat="43.37357" lon="16.65949">
        <ele>5.54</ele>
      </trkpt>
      <trkpt lat="43.37399" lon="16.65894">
        <ele>5.67</ele>
      </trkpt>
      <trkpt lat="43.37429" lon="16.65819">
        <ele>7.47</ele>
      </trkpt>
      <trkpt lat="43.37459" lon="16.65635">
        <ele>8.52</ele>
      </trkpt>
      <trkpt lat="43.37449" lon="16.65571">
        <ele>7.69</ele>
      </trkpt>
      <trkpt lat="43.37431" lon="16.65517">
        <ele>10.78</ele>
      </trkpt>
      <trkpt lat="43.37492" lon="16.65442">
        <ele>6.71</ele>
      </trkpt>
      <trkpt lat="43.37509" lon="16.65403">
        <ele>7.02</ele>
      </trkpt>
      <trkpt lat="43.37512" lon="16.65297">
        <ele>9.01</ele>
      </trkpt>
      <trkpt lat="43.37471" lon="16.65238">
        <ele>13.98</ele>
      </trkpt>
      <trkpt lat="43.37275" lon="16.65145">
        <ele>13.0</ele>
      </trkpt>
      <trkpt lat="43.37248" lon="16.65121">
        <ele>13.21</ele>
      </trkpt>
      <trkpt lat="43.37224" lon="16.65081">
        <ele>6.97</ele>
      </trkpt>
      <trkpt lat="43.37208" lon="16.65017">
        <ele>5.7</ele>
      </trkpt>
      <trkpt lat="43.37218" lon="16.64975">
        <ele>6.14</ele>
      </trkpt>
      <trkpt lat="43.37249" lon="16.64947">
        <ele>9.53</ele>
      </trkpt>
      <trkpt lat="43.37392" lon="16.64972">
        <ele>0.63</ele>
      </trkpt>
      <trkpt lat="43.37462" lon="16.64954">
        <ele>6.98</ele>
      </trkpt>
      <trkpt lat="43.37489" lon="16.64933">
        <ele>5.72</ele>
      </trkpt>
      <trkpt lat="43.37508" lon="16.64895">
        <ele>6.83</ele>
      </trkpt>
      <trkpt lat="43.37513" lon="16.6487">
        <ele>8.47</ele>
      </trkpt>
      <trkpt lat="43.37503" lon="16.64782">
        <ele>10.71</ele>
      </trkpt>
      <trkpt lat="43.37463" lon="16.64631">
        <ele>13.23</ele>
      </trkpt>
      <trkpt lat="43.37462" lon="16.64537">
        <ele>13.45</ele>
      </trkpt>
      <trkpt lat="43.37473" lon="16.6449">
        <ele>12.58</ele>
      </trkpt>
      <trkpt lat="43.37564" lon="16.64362">
        <ele>13.07</ele>
      </trkpt>
      <trkpt lat="43.37577" lon="16.64317">
        <ele>13.82</ele>
      </trkpt>
      <trkpt lat="43.37527" lon="16.64082">
        <ele>13.06</ele>
      </trkpt>
      <trkpt lat="43.37504" lon="16.64001">
        <ele>10.81</ele>
      </trkpt>
      <trkpt lat="43.37467" lon="16.63932">
        <ele>12.74</ele>
      </trkpt>
      <trkpt lat="43.37558" lon="16.63831">
        <ele>9.07</ele>
      </trkpt>
      <trkpt lat="43.37662" lon="16.63738">
        <ele>5.84</ele>
      </trkpt>
      <trkpt lat="43.37679" lon="16.63678">
        <ele>8.48</ele>
      </trkpt>
      <trkpt lat="43.37629" lon="16.63506">
        <ele>10.78</ele>
      </trkpt>
      <trkpt lat="43.37689" lon="16.63249">
        <ele>9.39</ele>
      </trkpt>
      <trkpt lat="43.37686" lon="16.63198">
        <ele>8.39</ele>
      </trkpt>
      <trkpt lat="43.37668" lon="16.63155">
        <ele>8.9</ele>
      </trkpt>
      <trkpt lat="43.37664" lon="16.63088">
        <ele>8.11</ele>
      </trkpt>
      <trkpt lat="43.37691" lon="16.6306">
        <ele>7.93</ele>
      </trkpt>
      <trkpt lat="43.3781" lon="16.63046">
        <ele>2.81</ele>
      </trkpt>
      <trkpt lat="43.37806" lon="16.62955">
        <ele>5.0</ele>
      </trkpt>
      <trkpt lat="43.37813" lon="16.62894">
        <ele>6.55</ele>
      </trkpt>
      <trkpt lat="43.3775" lon="16.62867">
        <ele>6.42</ele>
      </trkpt>
      <trkpt lat="43.37718" lon="16.62862">
        <ele>6.18</ele>
      </trkpt>
      <trkpt lat="43.37687" lon="16.62875">
        <ele>7.9</ele>
      </trkpt>
      <trkpt lat="43.3767" lon="16.62829">
        <ele>7.62</ele>
      </trkpt>
      <trkpt lat="43.37629" lon="16.62804">
        <ele>8.01</ele>
      </trkpt>
      <trkpt lat="43.3762" lon="16.62737">
        <ele>6.25</ele>
      </trkpt>
      <trkpt lat="43.37626" lon="16.62677">
        <ele>5.63</ele>
      </trkpt>
      <trkpt lat="43.37549" lon="16.62706">
        <ele>7.47</ele>
      </trkpt>
      <trkpt lat="43.37546" lon="16.6269">
        <ele>8.01</ele>
      </trkpt>
      <trkpt lat="43.37532" lon="16.62681">
        <ele>9.66</ele>
      </trkpt>
      <trkpt lat="43.37511" lon="16.62691">
        <ele>9.78</ele>
      </trkpt>
      <trkpt lat="43.37517" lon="16.62711">
        <ele>9.39</ele>
      </trkpt>
      <trkpt lat="43.37535" lon="16.62721">
        <ele>8.48</ele>
      </trkpt>
      <trkpt lat="43.37548" lon="16.62705">
        <ele>7.54</ele>
      </trkpt>
      <trkpt lat="43.37625" lon="16.62673">
        <ele>5.77</ele>
      </trkpt>
      <trkpt lat="43.37665" lon="16.62538">
        <ele>9.41</ele>
      </trkpt>
      <trkpt lat="43.3766" lon="16.62506">
        <ele>12.24</ele>
      </trkpt>
      <trkpt lat="43.37539" lon="16.62296">
        <ele>21.3</ele>
      </trkpt>
      <trkpt lat="43.37367" lon="16.62208">
        <ele>30.57</ele>
      </trkpt>
      <trkpt lat="43.37321" lon="16.62152">
        <ele>26.79</ele>
      </trkpt>
      <trkpt lat="43.37336" lon="16.62086">
        <ele>30.36</ele>
      </trkpt>
      <trkpt lat="43.37363" lon="16.62043">
        <ele>26.38</ele>
      </trkpt>
      <trkpt lat="43.37324" lon="16.61852">
        <ele>33.02</ele>
      </trkpt>
      <trkpt lat="43.37353" lon="16.61828">
        <ele>32.83</ele>
      </trkpt>
      <trkpt lat="43.37574" lon="16.61999">
        <ele>20.24</ele>
      </trkpt>
      <trkpt lat="43.37614" lon="16.61995">
        <ele>18.38</ele>
      </trkpt>
      <trkpt lat="43.37654" lon="16.61976">
        <ele>17.97</ele>
      </trkpt>
      <trkpt lat="43.37704" lon="16.61922">
        <ele>18.74</ele>
      </trkpt>
      <trkpt lat="43.37734" lon="16.61874">
        <ele>15.5</ele>
      </trkpt>
      <trkpt lat="43.37757" lon="16.61816">
        <ele>13.11</ele>
      </trkpt>
      <trkpt lat="43.37758" lon="16.6178">
        <ele>13.35</ele>
      </trkpt>
      <trkpt lat="43.3775" lon="16.61725">
        <ele>14.1</ele>
      </trkpt>
      <trkpt lat="43.37715" lon="16.61647">
        <ele>9.7</ele>
      </trkpt>
      <trkpt lat="43.37725" lon="16.61621">
        <ele>10.02</ele>
      </trkpt>
      <trkpt lat="43.37852" lon="16.6153">
        <ele>11.03</ele>
      </trkpt>
      <trkpt lat="43.37881" lon="16.61486">
        <ele>8.64</ele>
      </trkpt>
      <trkpt lat="43.37904" lon="16.61426">
        <ele>7.88</ele>
      </trkpt>
      <trkpt lat="43.37997" lon="16.60669">
        <ele>9.2</ele>
      </trkpt>
      <trkpt lat="43.37974" lon="16.60635">
        <ele>8.73</ele>
      </trkpt>
      <trkpt lat="43.37777" lon="16.60692">
        <ele>8.77</ele>
      </trkpt>
      <trkpt lat="43.37735" lon="16.60627">
        <ele>11.89</ele>
      </trkpt>
      <trkpt lat="43.37686" lon="16.60604">
        <ele>11.49</ele>
      </trkpt>
      <trkpt lat="43.37635" lon="16.60591">
        <ele>8.14</ele>
      </trkpt>
      <trkpt lat="43.37582" lon="16.60606">
        <ele>6.04</ele>
      </trkpt>
      <trkpt lat="43.37573" lon="16.60575">
        <ele>6.11</ele>
      </trkpt>
      <trkpt lat="43.37639" lon="16.60504">
        <ele>8.86</ele>
      </trkpt>
      <trkpt lat="43.37815" lon="16.60472">
        <ele>6.67</ele>
      </trkpt>
      <trkpt lat="43.37892" lon="16.60357">
        <ele>8.21</ele>
      </trkpt>
      <trkpt lat="43.37901" lon="16.60278">
        <ele>9.81</ele>
      </trkpt>
      <trkpt lat="43.37881" lon="16.60169">
        <ele>11.65</ele>
      </trkpt>
      <trkpt lat="43.37852" lon="16.60104">
        <ele>14.07</ele>
      </trkpt>
      <trkpt lat="43.37759" lon="16.59947">
        <ele>13.09</ele>
      </trkpt>
      <trkpt lat="43.37752" lon="16.59868">
        <ele>10.3</ele>
      </trkpt>
      <trkpt lat="43.37692" lon="16.59691">
        <ele>8.11</ele>
      </trkpt>
      <trkpt lat="43.37716" lon="16.59647">
        <ele>6.93</ele>
      </trkpt>
      <trkpt lat="43.37749" lon="16.59642">
        <ele>8.71</ele>
      </trkpt>
      <trkpt lat="43.37865" lon="16.59781">
        <ele>6.55</ele>
      </trkpt>
      <trkpt lat="43.37784" lon="16.59552">
        <ele>17.08</ele>
      </trkpt>
      <trkpt lat="43.37748" lon="16.59382">
        <ele>31.1</ele>
      </trkpt>
      <trkpt lat="43.37785" lon="16.5936">
        <ele>38.61</ele>
      </trkpt>
      <trkpt lat="43.37804" lon="16.59307">
        <ele>44.66</ele>
      </trkpt>
      <trkpt lat="43.3779" lon="16.59122">
        <ele>46.34</ele>
      </trkpt>
      <trkpt lat="43.37768" lon="16.59054">
        <ele>48.87</ele>
      </trkpt>
      <trkpt lat="43.37781" lon="16.58884">
        <ele>28.61</ele>
      </trkpt>
      <trkpt lat="43.37804" lon="16.58781">
        <ele>22.11</ele>
      </trkpt>
      <trkpt lat="43.37862" lon="16.58704">
        <ele>18.23</ele>
      </trkpt>
      <trkpt lat="43.37909" lon="16.58586">
        <ele>20.76</ele>
      </trkpt>
      <trkpt lat="43.37898" lon="16.58399">
        <ele>23.76</ele>
      </trkpt>
      <trkpt lat="43.37905" lon="16.58307">
        <ele>15.1</ele>
      </trkpt>
      <trkpt lat="43.3796" lon="16.58221">
        <ele>10.38</ele>
      </trkpt>
      <trkpt lat="43.37997" lon="16.58124">
        <ele>7.66</ele>
      </trkpt>
      <trkpt lat="43.37999" lon="16.58009">
        <ele>4.35</ele>
      </trkpt>
      <trkpt lat="43.38019" lon="16.57916">
        <ele>4.01</ele>
      </trkpt>
      <trkpt lat="43.37997" lon="16.57841">
        <ele>10.87</ele>
      </trkpt>
      <trkpt lat="43.37965" lon="16.57768">
        <ele>22.09</ele>
      </trkpt>
      <trkpt lat="43.37915" lon="16.57597">
        <ele>28.09</ele>
      </trkpt>
      <trkpt lat="43.37898" lon="16.5738">
        <ele>29.55</ele>
      </trkpt>
      <trkpt lat="43.37904" lon="16.5727">
        <ele>32.58</ele>
      </trkpt>
      <trkpt lat="43.37893" lon="16.57204">
        <ele>31.1</ele>
      </trkpt>
      <trkpt lat="43.37874" lon="16.57152">
        <ele>29.31</ele>
      </trkpt>
      <trkpt lat="43.37774" lon="16.5697">
        <ele>37.64</ele>
      </trkpt>
      <trkpt lat="43.37785" lon="16.56921">
        <ele>43.14</ele>
      </trkpt>
      <trkpt lat="43.37824" lon="16.56904">
        <ele>39.35</ele>
      </trkpt>
      <trkpt lat="43.37846" lon="16.56861">
        <ele>42.19</ele>
      </trkpt>
      <trkpt lat="43.37859" lon="16.56804">
        <ele>47.48</ele>
      </trkpt>
      <trkpt lat="43.37864" lon="16.56678">
        <ele>49.11</ele>
      </trkpt>
      <trkpt lat="43.37894" lon="16.56505">
        <ele>33.18</ele>
      </trkpt>
      <trkpt lat="43.37929" lon="16.56437">
        <ele>28.99</ele>
      </trkpt>
      <trkpt lat="43.37993" lon="16.56233">
        <ele>21.81</ele>
      </trkpt>
      <trkpt lat="43.3804" lon="16.56121">
        <ele>20.96</ele>
      </trkpt>
      <trkpt lat="43.38038" lon="16.56083">
        <ele>23.3</ele>
      </trkpt>
      <trkpt lat="43.38059" lon="16.56079">
        <ele>22.77</ele>
      </trkpt>
      <trkpt lat="43.38069" lon="16.56108">
        <ele>23.05</ele>
      </trkpt>
      <trkpt lat="43.38093" lon="16.56138">
        <ele>24.35</ele>
      </trkpt>
      <trkpt lat="43.3815" lon="16.56169">
        <ele>17.25</ele>
      </trkpt>
      <trkpt lat="43.38215" lon="16.56168">
        <ele>12.79</ele>
      </trkpt>
      <trkpt lat="43.38258" lon="16.56148">
        <ele>12.1</ele>
      </trkpt>
      <trkpt lat="43.38295" lon="16.56117">
        <ele>11.0</ele>
      </trkpt>
      <trkpt lat="43.38331" lon="16.5606">
        <ele>11.01</ele>
      </trkpt>
      <trkpt lat="43.38497" lon="16.55675">
        <ele>6.92</ele>
      </trkpt>
      <trkpt lat="43.38518" lon="16.55601">
        <ele>6.47</ele>
      </trkpt>
      <trkpt lat="43.38479" lon="16.55592">
        <ele>9.51</ele>
      </trkpt>
    </trkseg>
  </trk>
</gpx>
