<?xml version="1.0"?>
<gpx xmlns="http://www.topografix.com/GPX/1/1" xmlns:xsi="http://www.w3.org/2001/XMLSchema-instance" version="1.1" creator="AllTrails.com" xsi:schemaLocation="http://www.topografix.com/GPX/1/1 http://www.topografix.com/GPX/1/1/gpx.xsd">
  <metadata>
    <name><![CDATA[761 - Sv.Jelena]]></name>
    <desc><![CDATA[]]></desc>
    <link href="http://www.alltrails.com">
      <text>AllTrails, LLC</text>
    </link>
    <bounds minlat="43.33023" minlon="16.51183" maxlat="43.38535" maxlon="16.6115"/>
  </metadata>
  <trk>
    <name><![CDATA[761 - Sv.Jelena]]></name>
    <src>AllTrails</src>
    <trkseg>
      <trkpt lat="43.38481" lon="16.55595">
        <ele>9.37</ele>
      </trkpt>
      <trkpt lat="43.38462" lon="16.55657">
        <ele>9.0</ele>
      </trkpt>
      <trkpt lat="43.385" lon="16.55673">
        <ele>6.77</ele>
      </trkpt>
      <trkpt lat="43.38521" lon="16.5561">
        <ele>6.46</ele>
      </trkpt>
      <trkpt lat="43.38523" lon="16.55603">
        <ele>6.1</ele>
      </trkpt>
      <trkpt lat="43.38529" lon="16.55567">
        <ele>5.0</ele>
      </trkpt>
      <trkpt lat="43.38535" lon="16.55552">
        <ele>4.87</ele>
      </trkpt>
      <trkpt lat="43.38532" lon="16.55546">
        <ele>4.66</ele>
      </trkpt>
      <trkpt lat="43.38526" lon="16.55533">
        <ele>4.38</ele>
      </trkpt>
      <trkpt lat="43.3852" lon="16.55523">
        <ele>4.79</ele>
      </trkpt>
      <trkpt lat="43.38477" lon="16.55493">
        <ele>4.88</ele>
      </trkpt>
      <trkpt lat="43.38412" lon="16.55437">
        <ele>7.81</ele>
      </trkpt>
      <trkpt lat="43.38389" lon="16.55414">
        <ele>5.81</ele>
      </trkpt>
      <trkpt lat="43.38389" lon="16.55387">
        <ele>4.07</ele>
      </trkpt>
      <trkpt lat="43.3839" lon="16.55379">
        <ele>4.38</ele>
      </trkpt>
      <trkpt lat="43.38391" lon="16.55373">
        <ele>4.6</ele>
      </trkpt>
      <trkpt lat="43.38408" lon="16.55327">
        <ele>6.83</ele>
      </trkpt>
      <trkpt lat="43.38417" lon="16.55319">
        <ele>7.54</ele>
      </trkpt>
      <trkpt lat="43.38455" lon="16.55325">
        <ele>6.19</ele>
      </trkpt>
      <trkpt lat="43.38462" lon="16.5534">
        <ele>5.91</ele>
      </trkpt>
      <trkpt lat="43.38465" lon="16.55321">
        <ele>6.12</ele>
      </trkpt>
      <trkpt lat="43.38481" lon="16.55122">
        <ele>5.42</ele>
      </trkpt>
      <trkpt lat="43.38486" lon="16.55087">
        <ele>5.5</ele>
      </trkpt>
      <trkpt lat="43.38497" lon="16.5505">
        <ele>5.39</ele>
      </trkpt>
      <trkpt lat="43.38501" lon="16.5504">
        <ele>5.54</ele>
      </trkpt>
      <trkpt lat="43.38505" lon="16.55026">
        <ele>5.88</ele>
      </trkpt>
      <trkpt lat="43.38506" lon="16.55008">
        <ele>6.5</ele>
      </trkpt>
      <trkpt lat="43.38507" lon="16.54945">
        <ele>8.48</ele>
      </trkpt>
      <trkpt lat="43.38517" lon="16.54861">
        <ele>7.16</ele>
      </trkpt>
      <trkpt lat="43.38528" lon="16.54823">
        <ele>6.0</ele>
      </trkpt>
      <trkpt lat="43.38533" lon="16.54783">
        <ele>6.66</ele>
      </trkpt>
      <trkpt lat="43.38534" lon="16.54751">
        <ele>8.49</ele>
      </trkpt>
      <trkpt lat="43.3853" lon="16.54699">
        <ele>8.93</ele>
      </trkpt>
      <trkpt lat="43.38523" lon="16.54679">
        <ele>9.8</ele>
      </trkpt>
      <trkpt lat="43.38468" lon="16.54464">
        <ele>12.11</ele>
      </trkpt>
      <trkpt lat="43.3845" lon="16.54392">
        <ele>11.09</ele>
      </trkpt>
      <trkpt lat="43.38449" lon="16.54353">
        <ele>10.84</ele>
      </trkpt>
      <trkpt lat="43.38449" lon="16.54329">
        <ele>11.17</ele>
      </trkpt>
      <trkpt lat="43.38447" lon="16.54308">
        <ele>12.82</ele>
      </trkpt>
      <trkpt lat="43.38436" lon="16.54267">
        <ele>15.19</ele>
      </trkpt>
      <trkpt lat="43.38416" lon="16.54199">
        <ele>15.93</ele>
      </trkpt>
      <trkpt lat="43.38412" lon="16.54177">
        <ele>16.67</ele>
      </trkpt>
      <trkpt lat="43.38408" lon="16.54123">
        <ele>15.86</ele>
      </trkpt>
      <trkpt lat="43.38405" lon="16.54013">
        <ele>12.58</ele>
      </trkpt>
      <trkpt lat="43.38391" lon="16.53965">
        <ele>10.28</ele>
      </trkpt>
      <trkpt lat="43.38384" lon="16.53951">
        <ele>9.6</ele>
      </trkpt>
      <trkpt lat="43.38373" lon="16.53937">
        <ele>8.25</ele>
      </trkpt>
      <trkpt lat="43.38355" lon="16.53926">
        <ele>8.26</ele>
      </trkpt>
      <trkpt lat="43.38347" lon="16.53924">
        <ele>8.13</ele>
      </trkpt>
      <trkpt lat="43.38328" lon="16.53926">
        <ele>8.14</ele>
      </trkpt>
      <trkpt lat="43.38307" lon="16.53931">
        <ele>9.01</ele>
      </trkpt>
      <trkpt lat="43.38286" lon="16.53933">
        <ele>9.88</ele>
      </trkpt>
      <trkpt lat="43.38276" lon="16.53936">
        <ele>10.43</ele>
      </trkpt>
      <trkpt lat="43.38271" lon="16.53935">
        <ele>10.49</ele>
      </trkpt>
      <trkpt lat="43.38265" lon="16.53926">
        <ele>10.28</ele>
      </trkpt>
      <trkpt lat="43.38259" lon="16.53906">
        <ele>10.35</ele>
      </trkpt>
      <trkpt lat="43.38259" lon="16.53896">
        <ele>10.35</ele>
      </trkpt>
      <trkpt lat="43.38269" lon="16.53844">
        <ele>11.44</ele>
      </trkpt>
      <trkpt lat="43.38279" lon="16.53816">
        <ele>12.75</ele>
      </trkpt>
      <trkpt lat="43.38289" lon="16.53797">
        <ele>12.88</ele>
      </trkpt>
      <trkpt lat="43.3831" lon="16.53767">
        <ele>11.01</ele>
      </trkpt>
      <trkpt lat="43.38318" lon="16.53753">
        <ele>10.6</ele>
      </trkpt>
      <trkpt lat="43.38323" lon="16.53738">
        <ele>10.39</ele>
      </trkpt>
      <trkpt lat="43.38332" lon="16.53712">
        <ele>10.43</ele>
      </trkpt>
      <trkpt lat="43.38334" lon="16.53689">
        <ele>11.34</ele>
      </trkpt>
      <trkpt lat="43.38335" lon="16.53645">
        <ele>13.55</ele>
      </trkpt>
      <trkpt lat="43.38331" lon="16.53624">
        <ele>13.51</ele>
      </trkpt>
      <trkpt lat="43.38321" lon="16.536">
        <ele>12.82</ele>
      </trkpt>
      <trkpt lat="43.38308" lon="16.5358">
        <ele>12.7</ele>
      </trkpt>
      <trkpt lat="43.383" lon="16.53561">
        <ele>12.84</ele>
      </trkpt>
      <trkpt lat="43.38297" lon="16.53543">
        <ele>12.05</ele>
      </trkpt>
      <trkpt lat="43.38299" lon="16.53515">
        <ele>10.65</ele>
      </trkpt>
      <trkpt lat="43.38307" lon="16.53461">
        <ele>10.6</ele>
      </trkpt>
      <trkpt lat="43.38311" lon="16.53439">
        <ele>9.96</ele>
      </trkpt>
      <trkpt lat="43.38313" lon="16.53422">
        <ele>9.78</ele>
      </trkpt>
      <trkpt lat="43.38308" lon="16.53394">
        <ele>11.47</ele>
      </trkpt>
      <trkpt lat="43.38292" lon="16.53337">
        <ele>12.82</ele>
      </trkpt>
      <trkpt lat="43.3828" lon="16.533">
        <ele>13.5</ele>
      </trkpt>
      <trkpt lat="43.38272" lon="16.5328">
        <ele>13.48</ele>
      </trkpt>
      <trkpt lat="43.38252" lon="16.53246">
        <ele>13.7</ele>
      </trkpt>
      <trkpt lat="43.38238" lon="16.5322">
        <ele>13.74</ele>
      </trkpt>
      <trkpt lat="43.3823" lon="16.53198">
        <ele>13.32</ele>
      </trkpt>
      <trkpt lat="43.38217" lon="16.53157">
        <ele>14.22</ele>
      </trkpt>
      <trkpt lat="43.38195" lon="16.53112">
        <ele>14.95</ele>
      </trkpt>
      <trkpt lat="43.38171" lon="16.5308">
        <ele>11.04</ele>
      </trkpt>
      <trkpt lat="43.38168" lon="16.53076">
        <ele>10.78</ele>
      </trkpt>
      <trkpt lat="43.38125" lon="16.5305">
        <ele>11.1</ele>
      </trkpt>
      <trkpt lat="43.38111" lon="16.53026">
        <ele>12.93</ele>
      </trkpt>
      <trkpt lat="43.38079" lon="16.53015">
        <ele>11.99</ele>
      </trkpt>
      <trkpt lat="43.38041" lon="16.5294">
        <ele>15.59</ele>
      </trkpt>
      <trkpt lat="43.3799" lon="16.52865">
        <ele>21.27</ele>
      </trkpt>
      <trkpt lat="43.37946" lon="16.52822">
        <ele>29.74</ele>
      </trkpt>
      <trkpt lat="43.37862" lon="16.52771">
        <ele>34.8</ele>
      </trkpt>
      <trkpt lat="43.37834" lon="16.52704">
        <ele>32.07</ele>
      </trkpt>
      <trkpt lat="43.37792" lon="16.5264">
        <ele>23.57</ele>
      </trkpt>
      <trkpt lat="43.37762" lon="16.52597">
        <ele>20.5</ele>
      </trkpt>
      <trkpt lat="43.37746" lon="16.52509">
        <ele>24.54</ele>
      </trkpt>
      <trkpt lat="43.37807" lon="16.52421">
        <ele>31.47</ele>
      </trkpt>
      <trkpt lat="43.37784" lon="16.52344">
        <ele>36.33</ele>
      </trkpt>
      <trkpt lat="43.37792" lon="16.5223">
        <ele>38.26</ele>
      </trkpt>
      <trkpt lat="43.37776" lon="16.52185">
        <ele>41.62</ele>
      </trkpt>
      <trkpt lat="43.37707" lon="16.52179">
        <ele>47.4</ele>
      </trkpt>
      <trkpt lat="43.37656" lon="16.52187">
        <ele>42.08</ele>
      </trkpt>
      <trkpt lat="43.37595" lon="16.52153">
        <ele>45.99</ele>
      </trkpt>
      <trkpt lat="43.37578" lon="16.52106">
        <ele>47.53</ele>
      </trkpt>
      <trkpt lat="43.37551" lon="16.52045">
        <ele>50.88</ele>
      </trkpt>
      <trkpt lat="43.37508" lon="16.52065">
        <ele>49.42</ele>
      </trkpt>
      <trkpt lat="43.37434" lon="16.52076">
        <ele>53.43</ele>
      </trkpt>
      <trkpt lat="43.37381" lon="16.52063">
        <ele>63.82</ele>
      </trkpt>
      <trkpt lat="43.37303" lon="16.52054">
        <ele>74.06</ele>
      </trkpt>
      <trkpt lat="43.37219" lon="16.52015">
        <ele>83.99</ele>
      </trkpt>
      <trkpt lat="43.37122" lon="16.51966">
        <ele>102.36</ele>
      </trkpt>
      <trkpt lat="43.37059" lon="16.5193">
        <ele>107.83</ele>
      </trkpt>
      <trkpt lat="43.36985" lon="16.51887">
        <ele>116.32</ele>
      </trkpt>
      <trkpt lat="43.36937" lon="16.51848">
        <ele>125.35</ele>
      </trkpt>
      <trkpt lat="43.36895" lon="16.51829">
        <ele>133.31</ele>
      </trkpt>
      <trkpt lat="43.36864" lon="16.51784">
        <ele>140.14</ele>
      </trkpt>
      <trkpt lat="43.36818" lon="16.51741">
        <ele>147.01</ele>
      </trkpt>
      <trkpt lat="43.36776" lon="16.51717">
        <ele>151.8</ele>
      </trkpt>
      <trkpt lat="43.36708" lon="16.51694">
        <ele>156.58</ele>
      </trkpt>
      <trkpt lat="43.36651" lon="16.51676">
        <ele>163.75</ele>
      </trkpt>
      <trkpt lat="43.36584" lon="16.51646">
        <ele>170.92</ele>
      </trkpt>
      <trkpt lat="43.36509" lon="16.51623">
        <ele>179.79</ele>
      </trkpt>
      <trkpt lat="43.36445" lon="16.51608">
        <ele>183.96</ele>
      </trkpt>
      <trkpt lat="43.3638" lon="16.51582">
        <ele>196.65</ele>
      </trkpt>
      <trkpt lat="43.36294" lon="16.51565">
        <ele>214.38</ele>
      </trkpt>
      <trkpt lat="43.36235" lon="16.51511">
        <ele>225.63</ele>
      </trkpt>
      <trkpt lat="43.36196" lon="16.5143">
        <ele>232.43</ele>
      </trkpt>
      <trkpt lat="43.36141" lon="16.51352">
        <ele>238.7</ele>
      </trkpt>
      <trkpt lat="43.36113" lon="16.51294">
        <ele>239.99</ele>
      </trkpt>
      <trkpt lat="43.36088" lon="16.51234">
        <ele>239.46</ele>
      </trkpt>
      <trkpt lat="43.36026" lon="16.51183">
        <ele>248.63</ele>
      </trkpt>
      <trkpt lat="43.35963" lon="16.51206">
        <ele>250.64</ele>
      </trkpt>
      <trkpt lat="43.35921" lon="16.51243">
        <ele>256.67</ele>
      </trkpt>
      <trkpt lat="43.35884" lon="16.5129">
        <ele>258.23</ele>
      </trkpt>
      <trkpt lat="43.35864" lon="16.51385">
        <ele>264.58</ele>
      </trkpt>
      <trkpt lat="43.35865" lon="16.51485">
        <ele>261.33</ele>
      </trkpt>
      <trkpt lat="43.35876" lon="16.51524">
        <ele>258.2</ele>
      </trkpt>
      <trkpt lat="43.3582" lon="16.51696">
        <ele>262.41</ele>
      </trkpt>
      <trkpt lat="43.3572" lon="16.51767">
        <ele>265.66</ele>
      </trkpt>
      <trkpt lat="43.3567" lon="16.51855">
        <ele>272.17</ele>
      </trkpt>
      <trkpt lat="43.35634" lon="16.51904">
        <ele>270.7</ele>
      </trkpt>
      <trkpt lat="43.35567" lon="16.51988">
        <ele>269.57</ele>
      </trkpt>
      <trkpt lat="43.35527" lon="16.52039">
        <ele>269.1</ele>
      </trkpt>
      <trkpt lat="43.35477" lon="16.52106">
        <ele>276.19</ele>
      </trkpt>
      <trkpt lat="43.35416" lon="16.52196">
        <ele>280.01</ele>
      </trkpt>
      <trkpt lat="43.3536" lon="16.52372">
        <ele>291.69</ele>
      </trkpt>
      <trkpt lat="43.35305" lon="16.52479">
        <ele>297.15</ele>
      </trkpt>
      <trkpt lat="43.35233" lon="16.52571">
        <ele>298.49</ele>
      </trkpt>
      <trkpt lat="43.35179" lon="16.52696">
        <ele>303.9</ele>
      </trkpt>
      <trkpt lat="43.35137" lon="16.5279">
        <ele>306.3</ele>
      </trkpt>
      <trkpt lat="43.35096" lon="16.52897">
        <ele>306.12</ele>
      </trkpt>
      <trkpt lat="43.35062" lon="16.53005">
        <ele>304.02</ele>
      </trkpt>
      <trkpt lat="43.34988" lon="16.53142">
        <ele>294.31</ele>
      </trkpt>
      <trkpt lat="43.34935" lon="16.53256">
        <ele>289.57</ele>
      </trkpt>
      <trkpt lat="43.34888" lon="16.53365">
        <ele>277.4</ele>
      </trkpt>
      <trkpt lat="43.34812" lon="16.53472">
        <ele>272.22</ele>
      </trkpt>
      <trkpt lat="43.34757" lon="16.53582">
        <ele>271.37</ele>
      </trkpt>
      <trkpt lat="43.34686" lon="16.53749">
        <ele>266.99</ele>
      </trkpt>
      <trkpt lat="43.34645" lon="16.53852">
        <ele>267.22</ele>
      </trkpt>
      <trkpt lat="43.34611" lon="16.53899">
        <ele>265.71</ele>
      </trkpt>
      <trkpt lat="43.34622" lon="16.54002">
        <ele>268.96</ele>
      </trkpt>
      <trkpt lat="43.34579" lon="16.54116">
        <ele>279.85</ele>
      </trkpt>
      <trkpt lat="43.34587" lon="16.54243">
        <ele>282.46</ele>
      </trkpt>
      <trkpt lat="43.34525" lon="16.54402">
        <ele>278.35</ele>
      </trkpt>
      <trkpt lat="43.34476" lon="16.54487">
        <ele>275.62</ele>
      </trkpt>
      <trkpt lat="43.34469" lon="16.54593">
        <ele>277.88</ele>
      </trkpt>
      <trkpt lat="43.34448" lon="16.54706">
        <ele>280.47</ele>
      </trkpt>
      <trkpt lat="43.34481" lon="16.54781">
        <ele>283.74</ele>
      </trkpt>
      <trkpt lat="43.34452" lon="16.54912">
        <ele>285.86</ele>
      </trkpt>
      <trkpt lat="43.34452" lon="16.55011">
        <ele>290.85</ele>
      </trkpt>
      <trkpt lat="43.34433" lon="16.55138">
        <ele>294.89</ele>
      </trkpt>
      <trkpt lat="43.34413" lon="16.55243">
        <ele>296.7</ele>
      </trkpt>
      <trkpt lat="43.34383" lon="16.55346">
        <ele>299.06</ele>
      </trkpt>
      <trkpt lat="43.34342" lon="16.5544">
        <ele>299.35</ele>
      </trkpt>
      <trkpt lat="43.34314" lon="16.55552">
        <ele>307.39</ele>
      </trkpt>
      <trkpt lat="43.34288" lon="16.55685">
        <ele>317.54</ele>
      </trkpt>
      <trkpt lat="43.34253" lon="16.5582">
        <ele>319.35</ele>
      </trkpt>
      <trkpt lat="43.34249" lon="16.55878">
        <ele>321.1</ele>
      </trkpt>
      <trkpt lat="43.34177" lon="16.55913">
        <ele>311.81</ele>
      </trkpt>
      <trkpt lat="43.34143" lon="16.55937">
        <ele>311.77</ele>
      </trkpt>
      <trkpt lat="43.34115" lon="16.55971">
        <ele>310.2</ele>
      </trkpt>
      <trkpt lat="43.34077" lon="16.56015">
        <ele>312.98</ele>
      </trkpt>
      <trkpt lat="43.34028" lon="16.56062">
        <ele>313.96</ele>
      </trkpt>
      <trkpt lat="43.34001" lon="16.56084">
        <ele>304.56</ele>
      </trkpt>
      <trkpt lat="43.33973" lon="16.56104">
        <ele>297.5</ele>
      </trkpt>
      <trkpt lat="43.33958" lon="16.56118">
        <ele>294.38</ele>
      </trkpt>
      <trkpt lat="43.33862" lon="16.56283">
        <ele>284.78</ele>
      </trkpt>
      <trkpt lat="43.33842" lon="16.56312">
        <ele>285.63</ele>
      </trkpt>
      <trkpt lat="43.33838" lon="16.56314">
        <ele>285.42</ele>
      </trkpt>
      <trkpt lat="43.33832" lon="16.56315">
        <ele>285.18</ele>
      </trkpt>
      <trkpt lat="43.33817" lon="16.56346">
        <ele>288.18</ele>
      </trkpt>
      <trkpt lat="43.3381" lon="16.56345">
        <ele>288.68</ele>
      </trkpt>
      <trkpt lat="43.33782" lon="16.56374">
        <ele>291.54</ele>
      </trkpt>
      <trkpt lat="43.33768" lon="16.56387">
        <ele>292.78</ele>
      </trkpt>
      <trkpt lat="43.3368" lon="16.56462">
        <ele>289.42</ele>
      </trkpt>
      <trkpt lat="43.33663" lon="16.56472">
        <ele>292.79</ele>
      </trkpt>
      <trkpt lat="43.33645" lon="16.56492">
        <ele>298.42</ele>
      </trkpt>
      <trkpt lat="43.33612" lon="16.56512">
        <ele>305.31</ele>
      </trkpt>
      <trkpt lat="43.33566" lon="16.56536">
        <ele>302.72</ele>
      </trkpt>
      <trkpt lat="43.33556" lon="16.56543">
        <ele>302.14</ele>
      </trkpt>
      <trkpt lat="43.33536" lon="16.56564">
        <ele>305.29</ele>
      </trkpt>
      <trkpt lat="43.33463" lon="16.56651">
        <ele>312.91</ele>
      </trkpt>
      <trkpt lat="43.33377" lon="16.56753">
        <ele>320.3</ele>
      </trkpt>
      <trkpt lat="43.33345" lon="16.56784">
        <ele>320.51</ele>
      </trkpt>
      <trkpt lat="43.33326" lon="16.56807">
        <ele>319.84</ele>
      </trkpt>
      <trkpt lat="43.33312" lon="16.56836">
        <ele>316.88</ele>
      </trkpt>
      <trkpt lat="43.33276" lon="16.56925">
        <ele>321.05</ele>
      </trkpt>
      <trkpt lat="43.33231" lon="16.57048">
        <ele>325.6</ele>
      </trkpt>
      <trkpt lat="43.33202" lon="16.57129">
        <ele>332.47</ele>
      </trkpt>
      <trkpt lat="43.33189" lon="16.5715">
        <ele>334.88</ele>
      </trkpt>
      <trkpt lat="43.33179" lon="16.57159">
        <ele>334.95</ele>
      </trkpt>
      <trkpt lat="43.33153" lon="16.57175">
        <ele>337.02</ele>
      </trkpt>
      <trkpt lat="43.33141" lon="16.57181">
        <ele>339.28</ele>
      </trkpt>
      <trkpt lat="43.3312" lon="16.57193">
        <ele>338.87</ele>
      </trkpt>
      <trkpt lat="43.33104" lon="16.57211">
        <ele>341.68</ele>
      </trkpt>
      <trkpt lat="43.33099" lon="16.57212">
        <ele>341.95</ele>
      </trkpt>
      <trkpt lat="43.33078" lon="16.57216">
        <ele>342.82</ele>
      </trkpt>
      <trkpt lat="43.33069" lon="16.57209">
        <ele>341.84</ele>
      </trkpt>
      <trkpt lat="43.33063" lon="16.57201">
        <ele>341.13</ele>
      </trkpt>
      <trkpt lat="43.33057" lon="16.57199">
        <ele>341.25</ele>
      </trkpt>
      <trkpt lat="43.33052" lon="16.57203">
        <ele>341.66</ele>
      </trkpt>
      <trkpt lat="43.33046" lon="16.57211">
        <ele>342.4</ele>
      </trkpt>
      <trkpt lat="43.33036" lon="16.5722">
        <ele>343.49</ele>
      </trkpt>
      <trkpt lat="43.33032" lon="16.57229">
        <ele>344.17</ele>
      </trkpt>
      <trkpt lat="43.33023" lon="16.57279">
        <ele>348.14</ele>
      </trkpt>
      <trkpt lat="43.33023" lon="16.57294">
        <ele>347.69</ele>
      </trkpt>
      <trkpt lat="43.33026" lon="16.57307">
        <ele>347.13</ele>
      </trkpt>
      <trkpt lat="43.33036" lon="16.57329">
        <ele>347.34</ele>
      </trkpt>
      <trkpt lat="43.33041" lon="16.57351">
        <ele>347.81</ele>
      </trkpt>
      <trkpt lat="43.33041" lon="16.57388">
        <ele>349.01</ele>
      </trkpt>
      <trkpt lat="43.33044" lon="16.57486">
        <ele>357.73</ele>
      </trkpt>
      <trkpt lat="43.3305" lon="16.57496">
        <ele>358.6</ele>
      </trkpt>
      <trkpt lat="43.33059" lon="16.57499">
        <ele>358.45</ele>
      </trkpt>
      <trkpt lat="43.3307" lon="16.5751">
        <ele>359.07</ele>
      </trkpt>
      <trkpt lat="43.33093" lon="16.57537">
        <ele>362.63</ele>
      </trkpt>
      <trkpt lat="43.33104" lon="16.57547">
        <ele>362.75</ele>
      </trkpt>
      <trkpt lat="43.33121" lon="16.57553">
        <ele>360.94</ele>
      </trkpt>
      <trkpt lat="43.3315" lon="16.57558">
        <ele>358.78</ele>
      </trkpt>
      <trkpt lat="43.33164" lon="16.57606">
        <ele>359.75</ele>
      </trkpt>
      <trkpt lat="43.33183" lon="16.57633">
        <ele>354.08</ele>
      </trkpt>
      <trkpt lat="43.33201" lon="16.57663">
        <ele>349.53</ele>
      </trkpt>
      <trkpt lat="43.33215" lon="16.57681">
        <ele>349.93</ele>
      </trkpt>
      <trkpt lat="43.33295" lon="16.57854">
        <ele>365.76</ele>
      </trkpt>
      <trkpt lat="43.33336" lon="16.58146">
        <ele>346.66</ele>
      </trkpt>
      <trkpt lat="43.33343" lon="16.58143">
        <ele>347.21</ele>
      </trkpt>
      <trkpt lat="43.33357" lon="16.58214">
        <ele>347.1</ele>
      </trkpt>
      <trkpt lat="43.33387" lon="16.58259">
        <ele>346.87</ele>
      </trkpt>
      <trkpt lat="43.33398" lon="16.58277">
        <ele>346.98</ele>
      </trkpt>
      <trkpt lat="43.33406" lon="16.58308">
        <ele>346.04</ele>
      </trkpt>
      <trkpt lat="43.33412" lon="16.5833">
        <ele>344.32</ele>
      </trkpt>
      <trkpt lat="43.33434" lon="16.58364">
        <ele>345.77</ele>
      </trkpt>
      <trkpt lat="43.33443" lon="16.5838">
        <ele>348.8</ele>
      </trkpt>
      <trkpt lat="43.33448" lon="16.58395">
        <ele>349.76</ele>
      </trkpt>
      <trkpt lat="43.33476" lon="16.58521">
        <ele>349.66</ele>
      </trkpt>
      <trkpt lat="43.33496" lon="16.58596">
        <ele>350.41</ele>
      </trkpt>
      <trkpt lat="43.33518" lon="16.58657">
        <ele>350.41</ele>
      </trkpt>
      <trkpt lat="43.33525" lon="16.5868">
        <ele>349.88</ele>
      </trkpt>
      <trkpt lat="43.3355" lon="16.58732">
        <ele>349.01</ele>
      </trkpt>
      <trkpt lat="43.33556" lon="16.5875">
        <ele>348.97</ele>
      </trkpt>
      <trkpt lat="43.3359" lon="16.58847">
        <ele>343.66</ele>
      </trkpt>
      <trkpt lat="43.33599" lon="16.58868">
        <ele>341.31</ele>
      </trkpt>
      <trkpt lat="43.33612" lon="16.58889">
        <ele>340.04</ele>
      </trkpt>
      <trkpt lat="43.33631" lon="16.58907">
        <ele>340.9</ele>
      </trkpt>
      <trkpt lat="43.33636" lon="16.58915">
        <ele>340.99</ele>
      </trkpt>
      <trkpt lat="43.33641" lon="16.58928">
        <ele>342.39</ele>
      </trkpt>
      <trkpt lat="43.33644" lon="16.58945">
        <ele>344.31</ele>
      </trkpt>
      <trkpt lat="43.33654" lon="16.5903">
        <ele>351.22</ele>
      </trkpt>
      <trkpt lat="43.3366" lon="16.59079">
        <ele>359.89</ele>
      </trkpt>
      <trkpt lat="43.33667" lon="16.59099">
        <ele>362.4</ele>
      </trkpt>
      <trkpt lat="43.33741" lon="16.59272">
        <ele>359.96</ele>
      </trkpt>
      <trkpt lat="43.33779" lon="16.59356">
        <ele>372.32</ele>
      </trkpt>
      <trkpt lat="43.33799" lon="16.59389">
        <ele>372.52</ele>
      </trkpt>
      <trkpt lat="43.33816" lon="16.59411">
        <ele>370.99</ele>
      </trkpt>
      <trkpt lat="43.33831" lon="16.59425">
        <ele>369.94</ele>
      </trkpt>
      <trkpt lat="43.33878" lon="16.59457">
        <ele>367.55</ele>
      </trkpt>
      <trkpt lat="43.33889" lon="16.5946">
        <ele>367.06</ele>
      </trkpt>
      <trkpt lat="43.33911" lon="16.5946">
        <ele>363.83</ele>
      </trkpt>
      <trkpt lat="43.33942" lon="16.59461">
        <ele>368.68</ele>
      </trkpt>
      <trkpt lat="43.33962" lon="16.59464">
        <ele>374.69</ele>
      </trkpt>
      <trkpt lat="43.33982" lon="16.59472">
        <ele>380.64</ele>
      </trkpt>
      <trkpt lat="43.34028" lon="16.59513">
        <ele>391.37</ele>
      </trkpt>
      <trkpt lat="43.34047" lon="16.59527">
        <ele>389.14</ele>
      </trkpt>
      <trkpt lat="43.34106" lon="16.59556">
        <ele>395.64</ele>
      </trkpt>
      <trkpt lat="43.34146" lon="16.59577">
        <ele>385.47</ele>
      </trkpt>
      <trkpt lat="43.34184" lon="16.59594">
        <ele>381.57</ele>
      </trkpt>
      <trkpt lat="43.34209" lon="16.59602">
        <ele>381.7</ele>
      </trkpt>
      <trkpt lat="43.34226" lon="16.59603">
        <ele>383.11</ele>
      </trkpt>
      <trkpt lat="43.34255" lon="16.59603">
        <ele>382.78</ele>
      </trkpt>
      <trkpt lat="43.34284" lon="16.59598">
        <ele>383.35</ele>
      </trkpt>
      <trkpt lat="43.3432" lon="16.59586">
        <ele>394.91</ele>
      </trkpt>
      <trkpt lat="43.3433" lon="16.59584">
        <ele>395.81</ele>
      </trkpt>
      <trkpt lat="43.34337" lon="16.59586">
        <ele>395.83</ele>
      </trkpt>
      <trkpt lat="43.34366" lon="16.59598">
        <ele>395.65</ele>
      </trkpt>
      <trkpt lat="43.34381" lon="16.59602">
        <ele>394.57</ele>
      </trkpt>
      <trkpt lat="43.34392" lon="16.59602">
        <ele>393.85</ele>
      </trkpt>
      <trkpt lat="43.34436" lon="16.59591">
        <ele>390.88</ele>
      </trkpt>
      <trkpt lat="43.34448" lon="16.5959">
        <ele>390.2</ele>
      </trkpt>
      <trkpt lat="43.34458" lon="16.5959">
        <ele>390.1</ele>
      </trkpt>
      <trkpt lat="43.34466" lon="16.59593">
        <ele>390.38</ele>
      </trkpt>
      <trkpt lat="43.34484" lon="16.59608">
        <ele>394.01</ele>
      </trkpt>
      <trkpt lat="43.34489" lon="16.59615">
        <ele>394.7</ele>
      </trkpt>
      <trkpt lat="43.34499" lon="16.5964">
        <ele>395.86</ele>
      </trkpt>
      <trkpt lat="43.34505" lon="16.59651">
        <ele>396.9</ele>
      </trkpt>
      <trkpt lat="43.34519" lon="16.59667">
        <ele>398.35</ele>
      </trkpt>
      <trkpt lat="43.3457" lon="16.59703">
        <ele>392.87</ele>
      </trkpt>
      <trkpt lat="43.34594" lon="16.59717">
        <ele>387.77</ele>
      </trkpt>
      <trkpt lat="43.34625" lon="16.59748">
        <ele>382.68</ele>
      </trkpt>
      <trkpt lat="43.34648" lon="16.59754">
        <ele>382.13</ele>
      </trkpt>
      <trkpt lat="43.3467" lon="16.59755">
        <ele>383.3</ele>
      </trkpt>
      <trkpt lat="43.34702" lon="16.59751">
        <ele>384.24</ele>
      </trkpt>
      <trkpt lat="43.34733" lon="16.59742">
        <ele>381.75</ele>
      </trkpt>
      <trkpt lat="43.348" lon="16.59711">
        <ele>377.69</ele>
      </trkpt>
      <trkpt lat="43.34831" lon="16.59693">
        <ele>374.34</ele>
      </trkpt>
      <trkpt lat="43.34839" lon="16.59688">
        <ele>372.71</ele>
      </trkpt>
      <trkpt lat="43.34866" lon="16.59665">
        <ele>368.57</ele>
      </trkpt>
      <trkpt lat="43.34902" lon="16.59629">
        <ele>359.62</ele>
      </trkpt>
      <trkpt lat="43.3491" lon="16.59617">
        <ele>358.61</ele>
      </trkpt>
      <trkpt lat="43.34921" lon="16.59599">
        <ele>357.31</ele>
      </trkpt>
      <trkpt lat="43.34927" lon="16.59596">
        <ele>356.31</ele>
      </trkpt>
      <trkpt lat="43.34933" lon="16.59596">
        <ele>355.33</ele>
      </trkpt>
      <trkpt lat="43.34939" lon="16.59601">
        <ele>354.49</ele>
      </trkpt>
      <trkpt lat="43.34942" lon="16.59613">
        <ele>354.22</ele>
      </trkpt>
      <trkpt lat="43.34928" lon="16.59685">
        <ele>351.07</ele>
      </trkpt>
      <trkpt lat="43.34906" lon="16.59905">
        <ele>332.33</ele>
      </trkpt>
      <trkpt lat="43.34906" lon="16.5994">
        <ele>326.23</ele>
      </trkpt>
      <trkpt lat="43.34907" lon="16.59945">
        <ele>325.01</ele>
      </trkpt>
      <trkpt lat="43.34912" lon="16.59953">
        <ele>322.93</ele>
      </trkpt>
      <trkpt lat="43.34921" lon="16.59958">
        <ele>320.76</ele>
      </trkpt>
      <trkpt lat="43.34951" lon="16.59958">
        <ele>315.83</ele>
      </trkpt>
      <trkpt lat="43.34968" lon="16.59964">
        <ele>313.34</ele>
      </trkpt>
      <trkpt lat="43.35043" lon="16.60013">
        <ele>305.47</ele>
      </trkpt>
      <trkpt lat="43.3505" lon="16.60024">
        <ele>304.17</ele>
      </trkpt>
      <trkpt lat="43.3507" lon="16.60064">
        <ele>299.34</ele>
      </trkpt>
      <trkpt lat="43.35078" lon="16.60074">
        <ele>296.84</ele>
      </trkpt>
      <trkpt lat="43.35088" lon="16.6008">
        <ele>295.78</ele>
      </trkpt>
      <trkpt lat="43.35113" lon="16.60091">
        <ele>297.01</ele>
      </trkpt>
      <trkpt lat="43.35156" lon="16.60118">
        <ele>290.11</ele>
      </trkpt>
      <trkpt lat="43.35194" lon="16.60148">
        <ele>286.68</ele>
      </trkpt>
      <trkpt lat="43.35206" lon="16.60154">
        <ele>286.67</ele>
      </trkpt>
      <trkpt lat="43.35219" lon="16.60155">
        <ele>286.28</ele>
      </trkpt>
      <trkpt lat="43.35236" lon="16.60136">
        <ele>282.02</ele>
      </trkpt>
      <trkpt lat="43.35244" lon="16.60129">
        <ele>280.5</ele>
      </trkpt>
      <trkpt lat="43.35287" lon="16.60129">
        <ele>273.72</ele>
      </trkpt>
      <trkpt lat="43.35341" lon="16.60153">
        <ele>264.48</ele>
      </trkpt>
      <trkpt lat="43.35388" lon="16.60171">
        <ele>262.55</ele>
      </trkpt>
      <trkpt lat="43.35414" lon="16.60172">
        <ele>262.08</ele>
      </trkpt>
      <trkpt lat="43.35424" lon="16.6018">
        <ele>259.25</ele>
      </trkpt>
      <trkpt lat="43.35437" lon="16.6021">
        <ele>256.24</ele>
      </trkpt>
      <trkpt lat="43.35445" lon="16.60222">
        <ele>255.92</ele>
      </trkpt>
      <trkpt lat="43.3547" lon="16.60253">
        <ele>252.4</ele>
      </trkpt>
      <trkpt lat="43.35488" lon="16.60284">
        <ele>250.27</ele>
      </trkpt>
      <trkpt lat="43.35499" lon="16.60296">
        <ele>249.48</ele>
      </trkpt>
      <trkpt lat="43.35516" lon="16.60311">
        <ele>245.8</ele>
      </trkpt>
      <trkpt lat="43.35523" lon="16.6031">
        <ele>244.15</ele>
      </trkpt>
      <trkpt lat="43.35516" lon="16.60311">
        <ele>245.8</ele>
      </trkpt>
      <trkpt lat="43.35516" lon="16.60327">
        <ele>245.31</ele>
      </trkpt>
      <trkpt lat="43.35517" lon="16.60348">
        <ele>244.53</ele>
      </trkpt>
      <trkpt lat="43.3554" lon="16.60554">
        <ele>246.7</ele>
      </trkpt>
      <trkpt lat="43.35555" lon="16.60659">
        <ele>242.72</ele>
      </trkpt>
      <trkpt lat="43.35577" lon="16.60912">
        <ele>247.66</ele>
      </trkpt>
      <trkpt lat="43.35588" lon="16.6102">
        <ele>248.95</ele>
      </trkpt>
      <trkpt lat="43.35587" lon="16.6104">
        <ele>248.68</ele>
      </trkpt>
      <trkpt lat="43.35566" lon="16.61137">
        <ele>249.38</ele>
      </trkpt>
      <trkpt lat="43.3556" lon="16.6115">
        <ele>250.45</ele>
      </trkpt>
      <trkpt lat="43.35567" lon="16.61131">
        <ele>249.13</ele>
      </trkpt>
      <trkpt lat="43.35588" lon="16.61034">
        <ele>248.85</ele>
      </trkpt>
      <trkpt lat="43.35587" lon="16.61012">
        <ele>248.93</ele>
      </trkpt>
      <trkpt lat="43.3554" lon="16.60554">
        <ele>246.7</ele>
      </trkpt>
      <trkpt lat="43.35517" lon="16.60348">
        <ele>244.53</ele>
      </trkpt>
      <trkpt lat="43.35516" lon="16.60327">
        <ele>245.31</ele>
      </trkpt>
      <trkpt lat="43.35516" lon="16.60311">
        <ele>245.8</ele>
      </trkpt>
      <trkpt lat="43.35499" lon="16.60296">
        <ele>249.48</ele>
      </trkpt>
      <trkpt lat="43.35488" lon="16.60284">
        <ele>250.27</ele>
      </trkpt>
      <trkpt lat="43.35481" lon="16.60273">
        <ele>250.74</ele>
      </trkpt>
      <trkpt lat="43.35523" lon="16.60184">
        <ele>255.41</ele>
      </trkpt>
      <trkpt lat="43.35592" lon="16.60094">
        <ele>258.99</ele>
      </trkpt>
      <trkpt lat="43.35626" lon="16.59974">
        <ele>261.86</ele>
      </trkpt>
      <trkpt lat="43.35633" lon="16.59858">
        <ele>261.92</ele>
      </trkpt>
      <trkpt lat="43.35651" lon="16.59751">
        <ele>248.97</ele>
      </trkpt>
      <trkpt lat="43.35617" lon="16.59652">
        <ele>245.88</ele>
      </trkpt>
      <trkpt lat="43.35667" lon="16.59566">
        <ele>233.97</ele>
      </trkpt>
      <trkpt lat="43.35683" lon="16.5936">
        <ele>248.65</ele>
      </trkpt>
      <trkpt lat="43.35686" lon="16.59189">
        <ele>254.95</ele>
      </trkpt>
      <trkpt lat="43.35658" lon="16.59081">
        <ele>247.74</ele>
      </trkpt>
      <trkpt lat="43.35676" lon="16.58944">
        <ele>236.33</ele>
      </trkpt>
      <trkpt lat="43.3572" lon="16.58828">
        <ele>234.17</ele>
      </trkpt>
      <trkpt lat="43.35742" lon="16.58661">
        <ele>227.83</ele>
      </trkpt>
      <trkpt lat="43.35773" lon="16.58532">
        <ele>217.54</ele>
      </trkpt>
      <trkpt lat="43.35845" lon="16.58369">
        <ele>223.84</ele>
      </trkpt>
      <trkpt lat="43.35839" lon="16.58266">
        <ele>226.31</ele>
      </trkpt>
      <trkpt lat="43.35851" lon="16.58167">
        <ele>230.61</ele>
      </trkpt>
      <trkpt lat="43.35848" lon="16.58069">
        <ele>224.36</ele>
      </trkpt>
      <trkpt lat="43.35876" lon="16.58026">
        <ele>219.2</ele>
      </trkpt>
      <trkpt lat="43.35935" lon="16.58">
        <ele>226.64</ele>
      </trkpt>
      <trkpt lat="43.35942" lon="16.57876">
        <ele>236.42</ele>
      </trkpt>
      <trkpt lat="43.35932" lon="16.57764">
        <ele>242.17</ele>
      </trkpt>
      <trkpt lat="43.35982" lon="16.57635">
        <ele>242.89</ele>
      </trkpt>
      <trkpt lat="43.36026" lon="16.57485">
        <ele>238.84</ele>
      </trkpt>
      <trkpt lat="43.36045" lon="16.57378">
        <ele>229.29</ele>
      </trkpt>
      <trkpt lat="43.36113" lon="16.57273">
        <ele>226.89</ele>
      </trkpt>
      <trkpt lat="43.3611" lon="16.57125">
        <ele>227.26</ele>
      </trkpt>
      <trkpt lat="43.3611" lon="16.57092">
        <ele>225.66</ele>
      </trkpt>
      <trkpt lat="43.36144" lon="16.57069">
        <ele>224.94</ele>
      </trkpt>
      <trkpt lat="43.36112" lon="16.57028">
        <ele>229.89</ele>
      </trkpt>
      <trkpt lat="43.36143" lon="16.56987">
        <ele>230.55</ele>
      </trkpt>
      <trkpt lat="43.36199" lon="16.56846">
        <ele>236.25</ele>
      </trkpt>
      <trkpt lat="43.36244" lon="16.56734">
        <ele>229.45</ele>
      </trkpt>
      <trkpt lat="43.36285" lon="16.56657">
        <ele>221.12</ele>
      </trkpt>
      <trkpt lat="43.36285" lon="16.56571">
        <ele>220.96</ele>
      </trkpt>
      <trkpt lat="43.3635" lon="16.56541">
        <ele>206.52</ele>
      </trkpt>
      <trkpt lat="43.36397" lon="16.56511">
        <ele>211.62</ele>
      </trkpt>
      <trkpt lat="43.36444" lon="16.56522">
        <ele>214.01</ele>
      </trkpt>
      <trkpt lat="43.36488" lon="16.56545">
        <ele>216.68</ele>
      </trkpt>
      <trkpt lat="43.36575" lon="16.56554">
        <ele>212.12</ele>
      </trkpt>
      <trkpt lat="43.36662" lon="16.56481">
        <ele>212.69</ele>
      </trkpt>
      <trkpt lat="43.36712" lon="16.56404">
        <ele>209.3</ele>
      </trkpt>
      <trkpt lat="43.36725" lon="16.56318">
        <ele>211.35</ele>
      </trkpt>
      <trkpt lat="43.36742" lon="16.56238">
        <ele>207.84</ele>
      </trkpt>
      <trkpt lat="43.36756" lon="16.56146">
        <ele>204.14</ele>
      </trkpt>
      <trkpt lat="43.36837" lon="16.56137">
        <ele>201.09</ele>
      </trkpt>
      <trkpt lat="43.36876" lon="16.56156">
        <ele>201.38</ele>
      </trkpt>
      <trkpt lat="43.36955" lon="16.56155">
        <ele>197.82</ele>
      </trkpt>
      <trkpt lat="43.36979" lon="16.56113">
        <ele>189.86</ele>
      </trkpt>
      <trkpt lat="43.36967" lon="16.56103">
        <ele>191.5</ele>
      </trkpt>
      <trkpt lat="43.36911" lon="16.56124">
        <ele>204.22</ele>
      </trkpt>
      <trkpt lat="43.36903" lon="16.56093">
        <ele>204.33</ele>
      </trkpt>
      <trkpt lat="43.36906" lon="16.56029">
        <ele>200.55</ele>
      </trkpt>
      <trkpt lat="43.36882" lon="16.55918">
        <ele>201.85</ele>
      </trkpt>
      <trkpt lat="43.36882" lon="16.55799">
        <ele>196.11</ele>
      </trkpt>
      <trkpt lat="43.36931" lon="16.55661">
        <ele>188.25</ele>
      </trkpt>
      <trkpt lat="43.36946" lon="16.55561">
        <ele>184.69</ele>
      </trkpt>
      <trkpt lat="43.36971" lon="16.55516">
        <ele>184.73</ele>
      </trkpt>
      <trkpt lat="43.36972" lon="16.55459">
        <ele>178.08</ele>
      </trkpt>
      <trkpt lat="43.3697" lon="16.55396">
        <ele>170.59</ele>
      </trkpt>
      <trkpt lat="43.37026" lon="16.55346">
        <ele>165.33</ele>
      </trkpt>
      <trkpt lat="43.37094" lon="16.55308">
        <ele>161.34</ele>
      </trkpt>
      <trkpt lat="43.37139" lon="16.55276">
        <ele>153.99</ele>
      </trkpt>
      <trkpt lat="43.37204" lon="16.55244">
        <ele>151.54</ele>
      </trkpt>
      <trkpt lat="43.37264" lon="16.55217">
        <ele>148.64</ele>
      </trkpt>
      <trkpt lat="43.37267" lon="16.55167">
        <ele>147.16</ele>
      </trkpt>
      <trkpt lat="43.37304" lon="16.55118">
        <ele>144.3</ele>
      </trkpt>
      <trkpt lat="43.37336" lon="16.55052">
        <ele>144.76</ele>
      </trkpt>
      <trkpt lat="43.37361" lon="16.54983">
        <ele>138.17</ele>
      </trkpt>
      <trkpt lat="43.37371" lon="16.54892">
        <ele>129.18</ele>
      </trkpt>
      <trkpt lat="43.37399" lon="16.54765">
        <ele>118.96</ele>
      </trkpt>
      <trkpt lat="43.3743" lon="16.54653">
        <ele>106.89</ele>
      </trkpt>
      <trkpt lat="43.37447" lon="16.54572">
        <ele>102.18</ele>
      </trkpt>
      <trkpt lat="43.3745" lon="16.545">
        <ele>90.4</ele>
      </trkpt>
      <trkpt lat="43.3748" lon="16.54439">
        <ele>85.81</ele>
      </trkpt>
      <trkpt lat="43.37491" lon="16.54387">
        <ele>82.46</ele>
      </trkpt>
      <trkpt lat="43.37555" lon="16.54348">
        <ele>83.48</ele>
      </trkpt>
      <trkpt lat="43.3758" lon="16.54329">
        <ele>87.4</ele>
      </trkpt>
      <trkpt lat="43.37643" lon="16.54331">
        <ele>87.25</ele>
      </trkpt>
      <trkpt lat="43.37633" lon="16.54242">
        <ele>84.24</ele>
      </trkpt>
      <trkpt lat="43.37608" lon="16.54168">
        <ele>78.04</ele>
      </trkpt>
      <trkpt lat="43.37583" lon="16.54131">
        <ele>72.06</ele>
      </trkpt>
      <trkpt lat="43.37551" lon="16.5412">
        <ele>63.63</ele>
      </trkpt>
      <trkpt lat="43.37529" lon="16.54171">
        <ele>66.65</ele>
      </trkpt>
      <trkpt lat="43.37509" lon="16.54115">
        <ele>59.97</ele>
      </trkpt>
      <trkpt lat="43.37464" lon="16.54086">
        <ele>64.7</ele>
      </trkpt>
      <trkpt lat="43.37452" lon="16.53995">
        <ele>67.78</ele>
      </trkpt>
      <trkpt lat="43.37424" lon="16.53927">
        <ele>80.75</ele>
      </trkpt>
      <trkpt lat="43.37404" lon="16.53831">
        <ele>87.23</ele>
      </trkpt>
      <trkpt lat="43.37384" lon="16.53644">
        <ele>83.25</ele>
      </trkpt>
      <trkpt lat="43.37377" lon="16.5353">
        <ele>83.14</ele>
      </trkpt>
      <trkpt lat="43.37386" lon="16.5349">
        <ele>82.61</ele>
      </trkpt>
      <trkpt lat="43.37363" lon="16.5337">
        <ele>87.59</ele>
      </trkpt>
      <trkpt lat="43.3736" lon="16.53261">
        <ele>79.23</ele>
      </trkpt>
      <trkpt lat="43.37387" lon="16.53273">
        <ele>75.21</ele>
      </trkpt>
      <trkpt lat="43.37409" lon="16.53262">
        <ele>71.22</ele>
      </trkpt>
      <trkpt lat="43.37448" lon="16.53265">
        <ele>65.8</ele>
      </trkpt>
      <trkpt lat="43.37494" lon="16.5325">
        <ele>64.22</ele>
      </trkpt>
      <trkpt lat="43.37505" lon="16.53178">
        <ele>67.23</ele>
      </trkpt>
      <trkpt lat="43.37511" lon="16.53115">
        <ele>67.21</ele>
      </trkpt>
      <trkpt lat="43.37502" lon="16.53069">
        <ele>63.9</ele>
      </trkpt>
      <trkpt lat="43.37537" lon="16.53055">
        <ele>60.3</ele>
      </trkpt>
      <trkpt lat="43.37571" lon="16.5302">
        <ele>55.05</ele>
      </trkpt>
      <trkpt lat="43.37618" lon="16.53011">
        <ele>50.2</ele>
      </trkpt>
      <trkpt lat="43.37683" lon="16.52933">
        <ele>45.82</ele>
      </trkpt>
      <trkpt lat="43.37763" lon="16.52934">
        <ele>39.52</ele>
      </trkpt>
      <trkpt lat="43.37782" lon="16.52835">
        <ele>33.65</ele>
      </trkpt>
      <trkpt lat="43.3777" lon="16.52764">
        <ele>35.15</ele>
      </trkpt>
      <trkpt lat="43.37782" lon="16.52717">
        <ele>30.55</ele>
      </trkpt>
      <trkpt lat="43.37778" lon="16.52666">
        <ele>24.95</ele>
      </trkpt>
      <trkpt lat="43.3779" lon="16.52632">
        <ele>23.05</ele>
      </trkpt>
      <trkpt lat="43.37866" lon="16.52764">
        <ele>35.75</ele>
      </trkpt>
      <trkpt lat="43.37985" lon="16.52863">
        <ele>21.72</ele>
      </trkpt>
      <trkpt lat="43.38045" lon="16.52946">
        <ele>15.28</ele>
      </trkpt>
      <trkpt lat="43.38079" lon="16.53013">
        <ele>12.01</ele>
      </trkpt>
      <trkpt lat="43.38172" lon="16.53103">
        <ele>12.17</ele>
      </trkpt>
      <trkpt lat="43.38297" lon="16.53339">
        <ele>12.11</ele>
      </trkpt>
      <trkpt lat="43.38312" lon="16.5346">
        <ele>10.56</ele>
      </trkpt>
      <trkpt lat="43.38294" lon="16.53554">
        <ele>13.12</ele>
      </trkpt>
      <trkpt lat="43.38337" lon="16.53623">
        <ele>12.98</ele>
      </trkpt>
      <trkpt lat="43.38334" lon="16.53708">
        <ele>10.46</ele>
      </trkpt>
      <trkpt lat="43.38278" lon="16.5382">
        <ele>12.42</ele>
      </trkpt>
      <trkpt lat="43.38262" lon="16.53872">
        <ele>10.74</ele>
      </trkpt>
      <trkpt lat="43.38272" lon="16.53923">
        <ele>9.78</ele>
      </trkpt>
      <trkpt lat="43.38387" lon="16.53936">
        <ele>8.99</ele>
      </trkpt>
      <trkpt lat="43.38404" lon="16.54071">
        <ele>13.35</ele>
      </trkpt>
      <trkpt lat="43.38412" lon="16.54223">
        <ele>15.67</ele>
      </trkpt>
      <trkpt lat="43.38441" lon="16.5432">
        <ele>12.15</ele>
      </trkpt>
      <trkpt lat="43.38448" lon="16.5441">
        <ele>11.66</ele>
      </trkpt>
      <trkpt lat="43.38526" lon="16.54693">
        <ele>9.18</ele>
      </trkpt>
      <trkpt lat="43.38528" lon="16.54829">
        <ele>6.0</ele>
      </trkpt>
      <trkpt lat="43.38495" lon="16.55084">
        <ele>5.18</ele>
      </trkpt>
      <trkpt lat="43.38468" lon="16.55197">
        <ele>6.3</ele>
      </trkpt>
      <trkpt lat="43.38461" lon="16.55341">
        <ele>5.89</ele>
      </trkpt>
      <trkpt lat="43.38411" lon="16.55326">
        <ele>6.9</ele>
      </trkpt>
      <trkpt lat="43.38384" lon="16.55393">
        <ele>4.95</ele>
      </trkpt>
      <trkpt lat="43.38478" lon="16.55502">
        <ele>5.39</ele>
      </trkpt>
      <trkpt lat="43.38535" lon="16.55543">
        <ele>4.55</ele>
      </trkpt>
      <trkpt lat="43.38522" lon="16.55606">
        <ele>6.27</ele>
      </trkpt>
      <trkpt lat="43.38482" lon="16.55596">
        <ele>9.3</ele>
      </trkpt>
      <trkpt lat="43.38523" lon="16.55603">
        <ele>6.1</ele>
      </trkpt>
      <trkpt lat="43.38486" lon="16.55596">
        <ele>9.01</ele>
      </trkpt>
    </trkseg>
  </trk>
</gpx>
