<?xml version="1.0"?>
<gpx xmlns="http://www.topografix.com/GPX/1/1" xmlns:xsi="http://www.w3.org/2001/XMLSchema-instance" version="1.1" creator="AllTrails.com" xsi:schemaLocation="http://www.topografix.com/GPX/1/1 http://www.topografix.com/GPX/1/1/gpx.xsd">
  <metadata>
    <name><![CDATA[765 - Profunda]]></name>
    <desc><![CDATA[]]></desc>
    <link href="http://www.alltrails.com">
      <text>AllTrails, LLC</text>
    </link>
    <bounds minlat="43.29601" minlon="16.61946" maxlat="43.37813" maxlon="16.68467"/>
  </metadata>
  <trk>
    <name><![CDATA[765 - Profunda]]></name>
    <src>AllTrails</src>
    <trkseg>
      <trkpt lat="43.37505" lon="16.62712">
        <ele>9.82</ele>
      </trkpt>
      <trkpt lat="43.37268" lon="16.62738">
        <ele>16.86</ele>
      </trkpt>
      <trkpt lat="43.37127" lon="16.62914">
        <ele>17.04</ele>
      </trkpt>
      <trkpt lat="43.36962" lon="16.62854">
        <ele>29.09</ele>
      </trkpt>
      <trkpt lat="43.36656" lon="16.62832">
        <ele>37.27</ele>
      </trkpt>
      <trkpt lat="43.36488" lon="16.62751">
        <ele>44.55</ele>
      </trkpt>
      <trkpt lat="43.3631" lon="16.62682">
        <ele>44.85</ele>
      </trkpt>
      <trkpt lat="43.36073" lon="16.62682">
        <ele>50.5</ele>
      </trkpt>
      <trkpt lat="43.35904" lon="16.62579">
        <ele>56.6</ele>
      </trkpt>
      <trkpt lat="43.35795" lon="16.62498">
        <ele>57.46</ele>
      </trkpt>
      <trkpt lat="43.35639" lon="16.62549">
        <ele>55.49</ele>
      </trkpt>
      <trkpt lat="43.35495" lon="16.62515">
        <ele>61.84</ele>
      </trkpt>
      <trkpt lat="43.35333" lon="16.62446">
        <ele>75.03</ele>
      </trkpt>
      <trkpt lat="43.35269" lon="16.6245">
        <ele>76.92</ele>
      </trkpt>
      <trkpt lat="43.35211" lon="16.62416">
        <ele>88.25</ele>
      </trkpt>
      <trkpt lat="43.35151" lon="16.62384">
        <ele>85.86</ele>
      </trkpt>
      <trkpt lat="43.35105" lon="16.62339">
        <ele>90.49</ele>
      </trkpt>
      <trkpt lat="43.35067" lon="16.62285">
        <ele>99.2</ele>
      </trkpt>
      <trkpt lat="43.34996" lon="16.62266">
        <ele>96.43</ele>
      </trkpt>
      <trkpt lat="43.34966" lon="16.62255">
        <ele>95.76</ele>
      </trkpt>
      <trkpt lat="43.3494" lon="16.62229">
        <ele>99.02</ele>
      </trkpt>
      <trkpt lat="43.34904" lon="16.62221">
        <ele>99.3</ele>
      </trkpt>
      <trkpt lat="43.34905" lon="16.62252">
        <ele>96.22</ele>
      </trkpt>
      <trkpt lat="43.34931" lon="16.623">
        <ele>102.77</ele>
      </trkpt>
      <trkpt lat="43.3497" lon="16.62325">
        <ele>102.77</ele>
      </trkpt>
      <trkpt lat="43.35089" lon="16.62352">
        <ele>90.18</ele>
      </trkpt>
      <trkpt lat="43.35094" lon="16.6238">
        <ele>88.95</ele>
      </trkpt>
      <trkpt lat="43.35133" lon="16.62436">
        <ele>86.8</ele>
      </trkpt>
      <trkpt lat="43.35129" lon="16.62456">
        <ele>87.62</ele>
      </trkpt>
      <trkpt lat="43.35109" lon="16.62464">
        <ele>88.27</ele>
      </trkpt>
      <trkpt lat="43.35087" lon="16.62492">
        <ele>95.4</ele>
      </trkpt>
      <trkpt lat="43.35003" lon="16.6262">
        <ele>130.17</ele>
      </trkpt>
      <trkpt lat="43.35004" lon="16.62538">
        <ele>126.15</ele>
      </trkpt>
      <trkpt lat="43.34976" lon="16.62587">
        <ele>141.34</ele>
      </trkpt>
      <trkpt lat="43.3497" lon="16.62506">
        <ele>136.26</ele>
      </trkpt>
      <trkpt lat="43.34959" lon="16.62485">
        <ele>140.91</ele>
      </trkpt>
      <trkpt lat="43.34943" lon="16.62474">
        <ele>148.44</ele>
      </trkpt>
      <trkpt lat="43.3492" lon="16.62466">
        <ele>153.95</ele>
      </trkpt>
      <trkpt lat="43.34934" lon="16.62503">
        <ele>154.16</ele>
      </trkpt>
      <trkpt lat="43.34926" lon="16.62588">
        <ele>160.54</ele>
      </trkpt>
      <trkpt lat="43.34899" lon="16.6253">
        <ele>169.93</ele>
      </trkpt>
      <trkpt lat="43.3487" lon="16.62514">
        <ele>177.69</ele>
      </trkpt>
      <trkpt lat="43.34806" lon="16.62502">
        <ele>190.44</ele>
      </trkpt>
      <trkpt lat="43.34844" lon="16.62559">
        <ele>195.25</ele>
      </trkpt>
      <trkpt lat="43.34838" lon="16.62629">
        <ele>204.79</ele>
      </trkpt>
      <trkpt lat="43.34846" lon="16.62766">
        <ele>217.93</ele>
      </trkpt>
      <trkpt lat="43.348" lon="16.62704">
        <ele>220.82</ele>
      </trkpt>
      <trkpt lat="43.34779" lon="16.62687">
        <ele>223.42</ele>
      </trkpt>
      <trkpt lat="43.34724" lon="16.62764">
        <ele>232.9</ele>
      </trkpt>
      <trkpt lat="43.3468" lon="16.62772">
        <ele>235.79</ele>
      </trkpt>
      <trkpt lat="43.34643" lon="16.62764">
        <ele>239.28</ele>
      </trkpt>
      <trkpt lat="43.34601" lon="16.6278">
        <ele>245.62</ele>
      </trkpt>
      <trkpt lat="43.34559" lon="16.62783">
        <ele>262.89</ele>
      </trkpt>
      <trkpt lat="43.34517" lon="16.62738">
        <ele>268.87</ele>
      </trkpt>
      <trkpt lat="43.34494" lon="16.62724">
        <ele>267.47</ele>
      </trkpt>
      <trkpt lat="43.34379" lon="16.62782">
        <ele>270.99</ele>
      </trkpt>
      <trkpt lat="43.34352" lon="16.62779">
        <ele>274.2</ele>
      </trkpt>
      <trkpt lat="43.34324" lon="16.62769">
        <ele>274.97</ele>
      </trkpt>
      <trkpt lat="43.34256" lon="16.62684">
        <ele>277.17</ele>
      </trkpt>
      <trkpt lat="43.34224" lon="16.62639">
        <ele>283.68</ele>
      </trkpt>
      <trkpt lat="43.34188" lon="16.62609">
        <ele>281.13</ele>
      </trkpt>
      <trkpt lat="43.3414" lon="16.62574">
        <ele>278.37</ele>
      </trkpt>
      <trkpt lat="43.34089" lon="16.62543">
        <ele>284.93</ele>
      </trkpt>
      <trkpt lat="43.34025" lon="16.62518">
        <ele>284.84</ele>
      </trkpt>
      <trkpt lat="43.33976" lon="16.62505">
        <ele>293.12</ele>
      </trkpt>
      <trkpt lat="43.3389" lon="16.62492">
        <ele>304.99</ele>
      </trkpt>
      <trkpt lat="43.33847" lon="16.62488">
        <ele>311.78</ele>
      </trkpt>
      <trkpt lat="43.3382" lon="16.62485">
        <ele>313.06</ele>
      </trkpt>
      <trkpt lat="43.33802" lon="16.62487">
        <ele>314.99</ele>
      </trkpt>
      <trkpt lat="43.33759" lon="16.62492">
        <ele>318.94</ele>
      </trkpt>
      <trkpt lat="43.33763" lon="16.62573">
        <ele>340.2</ele>
      </trkpt>
      <trkpt lat="43.33768" lon="16.62611">
        <ele>348.44</ele>
      </trkpt>
      <trkpt lat="43.33768" lon="16.62652">
        <ele>355.09</ele>
      </trkpt>
      <trkpt lat="43.33734" lon="16.62702">
        <ele>363.61</ele>
      </trkpt>
      <trkpt lat="43.33656" lon="16.62812">
        <ele>383.67</ele>
      </trkpt>
      <trkpt lat="43.33645" lon="16.62853">
        <ele>387.1</ele>
      </trkpt>
      <trkpt lat="43.33613" lon="16.62854">
        <ele>390.98</ele>
      </trkpt>
      <trkpt lat="43.3359" lon="16.62871">
        <ele>389.49</ele>
      </trkpt>
      <trkpt lat="43.33549" lon="16.62863">
        <ele>390.29</ele>
      </trkpt>
      <trkpt lat="43.33486" lon="16.62834">
        <ele>392.52</ele>
      </trkpt>
      <trkpt lat="43.33386" lon="16.62781">
        <ele>395.2</ele>
      </trkpt>
      <trkpt lat="43.33262" lon="16.627">
        <ele>396.75</ele>
      </trkpt>
      <trkpt lat="43.33182" lon="16.62611">
        <ele>393.46</ele>
      </trkpt>
      <trkpt lat="43.33112" lon="16.62498">
        <ele>410.66</ele>
      </trkpt>
      <trkpt lat="43.33065" lon="16.6247">
        <ele>419.49</ele>
      </trkpt>
      <trkpt lat="43.33048" lon="16.62459">
        <ele>425.32</ele>
      </trkpt>
      <trkpt lat="43.33018" lon="16.62461">
        <ele>430.44</ele>
      </trkpt>
      <trkpt lat="43.33015" lon="16.62426">
        <ele>433.36</ele>
      </trkpt>
      <trkpt lat="43.33004" lon="16.624">
        <ele>433.06</ele>
      </trkpt>
      <trkpt lat="43.32976" lon="16.62417">
        <ele>435.59</ele>
      </trkpt>
      <trkpt lat="43.32892" lon="16.62423">
        <ele>439.32</ele>
      </trkpt>
      <trkpt lat="43.32814" lon="16.62427">
        <ele>442.03</ele>
      </trkpt>
      <trkpt lat="43.32805" lon="16.62465">
        <ele>444.41</ele>
      </trkpt>
      <trkpt lat="43.32792" lon="16.625">
        <ele>444.54</ele>
      </trkpt>
      <trkpt lat="43.32768" lon="16.62545">
        <ele>445.01</ele>
      </trkpt>
      <trkpt lat="43.32739" lon="16.62562">
        <ele>450.14</ele>
      </trkpt>
      <trkpt lat="43.32722" lon="16.62587">
        <ele>455.33</ele>
      </trkpt>
      <trkpt lat="43.32657" lon="16.62594">
        <ele>472.11</ele>
      </trkpt>
      <trkpt lat="43.32623" lon="16.62602">
        <ele>478.26</ele>
      </trkpt>
      <trkpt lat="43.32594" lon="16.62625">
        <ele>480.46</ele>
      </trkpt>
      <trkpt lat="43.32567" lon="16.62636">
        <ele>480.02</ele>
      </trkpt>
      <trkpt lat="43.3254" lon="16.62656">
        <ele>485.58</ele>
      </trkpt>
      <trkpt lat="43.32494" lon="16.62654">
        <ele>489.89</ele>
      </trkpt>
      <trkpt lat="43.32459" lon="16.62665">
        <ele>491.56</ele>
      </trkpt>
      <trkpt lat="43.32425" lon="16.62716">
        <ele>488.13</ele>
      </trkpt>
      <trkpt lat="43.32375" lon="16.62729">
        <ele>490.63</ele>
      </trkpt>
      <trkpt lat="43.32307" lon="16.62641">
        <ele>493.78</ele>
      </trkpt>
      <trkpt lat="43.3224" lon="16.62566">
        <ele>489.57</ele>
      </trkpt>
      <trkpt lat="43.32181" lon="16.62547">
        <ele>496.42</ele>
      </trkpt>
      <trkpt lat="43.32098" lon="16.62455">
        <ele>502.38</ele>
      </trkpt>
      <trkpt lat="43.32067" lon="16.62388">
        <ele>509.44</ele>
      </trkpt>
      <trkpt lat="43.32004" lon="16.62294">
        <ele>509.96</ele>
      </trkpt>
      <trkpt lat="43.31953" lon="16.62283">
        <ele>514.63</ele>
      </trkpt>
      <trkpt lat="43.31918" lon="16.62287">
        <ele>515.02</ele>
      </trkpt>
      <trkpt lat="43.31868" lon="16.62343">
        <ele>519.24</ele>
      </trkpt>
      <trkpt lat="43.31775" lon="16.62339">
        <ele>519.79</ele>
      </trkpt>
      <trkpt lat="43.3169" lon="16.62345">
        <ele>525.9</ele>
      </trkpt>
      <trkpt lat="43.31625" lon="16.62274">
        <ele>534.66</ele>
      </trkpt>
      <trkpt lat="43.31589" lon="16.62236">
        <ele>539.88</ele>
      </trkpt>
      <trkpt lat="43.31539" lon="16.62244">
        <ele>538.39</ele>
      </trkpt>
      <trkpt lat="43.31483" lon="16.62287">
        <ele>543.63</ele>
      </trkpt>
      <trkpt lat="43.31434" lon="16.623">
        <ele>550.55</ele>
      </trkpt>
      <trkpt lat="43.31386" lon="16.62302">
        <ele>557.42</ele>
      </trkpt>
      <trkpt lat="43.3133" lon="16.62227">
        <ele>566.02</ele>
      </trkpt>
      <trkpt lat="43.31292" lon="16.62148">
        <ele>565.1</ele>
      </trkpt>
      <trkpt lat="43.31256" lon="16.62103">
        <ele>571.36</ele>
      </trkpt>
      <trkpt lat="43.31213" lon="16.62073">
        <ele>576.95</ele>
      </trkpt>
      <trkpt lat="43.31197" lon="16.62043">
        <ele>578.04</ele>
      </trkpt>
      <trkpt lat="43.3121" lon="16.62013">
        <ele>578.03</ele>
      </trkpt>
      <trkpt lat="43.31081" lon="16.61972">
        <ele>588.36</ele>
      </trkpt>
      <trkpt lat="43.31013" lon="16.61952">
        <ele>598.72</ele>
      </trkpt>
      <trkpt lat="43.30982" lon="16.61946">
        <ele>600.0</ele>
      </trkpt>
      <trkpt lat="43.30963" lon="16.6197">
        <ele>598.06</ele>
      </trkpt>
      <trkpt lat="43.30911" lon="16.62079">
        <ele>601.54</ele>
      </trkpt>
      <trkpt lat="43.30843" lon="16.62152">
        <ele>604.98</ele>
      </trkpt>
      <trkpt lat="43.30849" lon="16.62206">
        <ele>595.77</ele>
      </trkpt>
      <trkpt lat="43.30835" lon="16.62261">
        <ele>595.35</ele>
      </trkpt>
      <trkpt lat="43.30772" lon="16.62279">
        <ele>592.61</ele>
      </trkpt>
      <trkpt lat="43.30768" lon="16.62326">
        <ele>593.18</ele>
      </trkpt>
      <trkpt lat="43.30793" lon="16.62367">
        <ele>594.0</ele>
      </trkpt>
      <trkpt lat="43.30697" lon="16.62407">
        <ele>595.02</ele>
      </trkpt>
      <trkpt lat="43.30604" lon="16.62455">
        <ele>590.98</ele>
      </trkpt>
      <trkpt lat="43.30577" lon="16.62519">
        <ele>592.98</ele>
      </trkpt>
      <trkpt lat="43.30576" lon="16.62585">
        <ele>591.29</ele>
      </trkpt>
      <trkpt lat="43.3056" lon="16.62643">
        <ele>589.4</ele>
      </trkpt>
      <trkpt lat="43.30526" lon="16.62716">
        <ele>584.72</ele>
      </trkpt>
      <trkpt lat="43.30482" lon="16.62789">
        <ele>581.49</ele>
      </trkpt>
      <trkpt lat="43.30407" lon="16.62849">
        <ele>585.57</ele>
      </trkpt>
      <trkpt lat="43.30344" lon="16.62927">
        <ele>586.59</ele>
      </trkpt>
      <trkpt lat="43.30315" lon="16.62995">
        <ele>585.98</ele>
      </trkpt>
      <trkpt lat="43.30323" lon="16.63068">
        <ele>582.38</ele>
      </trkpt>
      <trkpt lat="43.3032" lon="16.63152">
        <ele>583.43</ele>
      </trkpt>
      <trkpt lat="43.30307" lon="16.63234">
        <ele>581.92</ele>
      </trkpt>
      <trkpt lat="43.30282" lon="16.63371">
        <ele>585.8</ele>
      </trkpt>
      <trkpt lat="43.30313" lon="16.6344">
        <ele>581.74</ele>
      </trkpt>
      <trkpt lat="43.30288" lon="16.63549">
        <ele>585.06</ele>
      </trkpt>
      <trkpt lat="43.30259" lon="16.6359">
        <ele>587.83</ele>
      </trkpt>
      <trkpt lat="43.30229" lon="16.63605">
        <ele>589.3</ele>
      </trkpt>
      <trkpt lat="43.30202" lon="16.63703">
        <ele>589.03</ele>
      </trkpt>
      <trkpt lat="43.30226" lon="16.63742">
        <ele>588.27</ele>
      </trkpt>
      <trkpt lat="43.30221" lon="16.63809">
        <ele>591.38</ele>
      </trkpt>
      <trkpt lat="43.30199" lon="16.63849">
        <ele>596.44</ele>
      </trkpt>
      <trkpt lat="43.30143" lon="16.63856">
        <ele>608.53</ele>
      </trkpt>
      <trkpt lat="43.3009" lon="16.63826">
        <ele>607.78</ele>
      </trkpt>
      <trkpt lat="43.30015" lon="16.63821">
        <ele>604.25</ele>
      </trkpt>
      <trkpt lat="43.29995" lon="16.63882">
        <ele>609.29</ele>
      </trkpt>
      <trkpt lat="43.29973" lon="16.63901">
        <ele>610.54</ele>
      </trkpt>
      <trkpt lat="43.29834" lon="16.63931">
        <ele>617.45</ele>
      </trkpt>
      <trkpt lat="43.29717" lon="16.63965">
        <ele>625.85</ele>
      </trkpt>
      <trkpt lat="43.29648" lon="16.63982">
        <ele>633.48</ele>
      </trkpt>
      <trkpt lat="43.29629" lon="16.64034">
        <ele>641.75</ele>
      </trkpt>
      <trkpt lat="43.29601" lon="16.64062">
        <ele>638.85</ele>
      </trkpt>
      <trkpt lat="43.29656" lon="16.64165">
        <ele>634.14</ele>
      </trkpt>
      <trkpt lat="43.29701" lon="16.64289">
        <ele>631.95</ele>
      </trkpt>
      <trkpt lat="43.29757" lon="16.64386">
        <ele>633.32</ele>
      </trkpt>
      <trkpt lat="43.29785" lon="16.64459">
        <ele>632.08</ele>
      </trkpt>
      <trkpt lat="43.29826" lon="16.64482">
        <ele>629.2</ele>
      </trkpt>
      <trkpt lat="43.29839" lon="16.64545">
        <ele>626.67</ele>
      </trkpt>
      <trkpt lat="43.29865" lon="16.64587">
        <ele>626.2</ele>
      </trkpt>
      <trkpt lat="43.29893" lon="16.64712">
        <ele>618.22</ele>
      </trkpt>
      <trkpt lat="43.29881" lon="16.64768">
        <ele>610.17</ele>
      </trkpt>
      <trkpt lat="43.29898" lon="16.64789">
        <ele>608.61</ele>
      </trkpt>
      <trkpt lat="43.29949" lon="16.64929">
        <ele>601.11</ele>
      </trkpt>
      <trkpt lat="43.29976" lon="16.65167">
        <ele>590.0</ele>
      </trkpt>
      <trkpt lat="43.29976" lon="16.65366">
        <ele>590.46</ele>
      </trkpt>
      <trkpt lat="43.29988" lon="16.65442">
        <ele>585.51</ele>
      </trkpt>
      <trkpt lat="43.30017" lon="16.65457">
        <ele>584.34</ele>
      </trkpt>
      <trkpt lat="43.3004" lon="16.65622">
        <ele>582.28</ele>
      </trkpt>
      <trkpt lat="43.30056" lon="16.65705">
        <ele>567.74</ele>
      </trkpt>
      <trkpt lat="43.30062" lon="16.65793">
        <ele>572.21</ele>
      </trkpt>
      <trkpt lat="43.30071" lon="16.65869">
        <ele>572.29</ele>
      </trkpt>
      <trkpt lat="43.30098" lon="16.65892">
        <ele>571.58</ele>
      </trkpt>
      <trkpt lat="43.30124" lon="16.65944">
        <ele>571.02</ele>
      </trkpt>
      <trkpt lat="43.30168" lon="16.65965">
        <ele>568.82</ele>
      </trkpt>
      <trkpt lat="43.30177" lon="16.66032">
        <ele>562.06</ele>
      </trkpt>
      <trkpt lat="43.30156" lon="16.6612">
        <ele>553.34</ele>
      </trkpt>
      <trkpt lat="43.30209" lon="16.66154">
        <ele>550.17</ele>
      </trkpt>
      <trkpt lat="43.30215" lon="16.66197">
        <ele>549.16</ele>
      </trkpt>
      <trkpt lat="43.30234" lon="16.66265">
        <ele>547.84</ele>
      </trkpt>
      <trkpt lat="43.3032" lon="16.66341">
        <ele>544.36</ele>
      </trkpt>
      <trkpt lat="43.30291" lon="16.66469">
        <ele>541.99</ele>
      </trkpt>
      <trkpt lat="43.30284" lon="16.66538">
        <ele>540.1</ele>
      </trkpt>
      <trkpt lat="43.3027" lon="16.66605">
        <ele>538.75</ele>
      </trkpt>
      <trkpt lat="43.30226" lon="16.6669">
        <ele>540.0</ele>
      </trkpt>
      <trkpt lat="43.30216" lon="16.66763">
        <ele>544.69</ele>
      </trkpt>
      <trkpt lat="43.30187" lon="16.66836">
        <ele>542.51</ele>
      </trkpt>
      <trkpt lat="43.30149" lon="16.66982">
        <ele>541.67</ele>
      </trkpt>
      <trkpt lat="43.30166" lon="16.67021">
        <ele>542.48</ele>
      </trkpt>
      <trkpt lat="43.30117" lon="16.67182">
        <ele>538.57</ele>
      </trkpt>
      <trkpt lat="43.30095" lon="16.67263">
        <ele>540.89</ele>
      </trkpt>
      <trkpt lat="43.3009" lon="16.67366">
        <ele>543.13</ele>
      </trkpt>
      <trkpt lat="43.30124" lon="16.67418">
        <ele>532.0</ele>
      </trkpt>
      <trkpt lat="43.30138" lon="16.67471">
        <ele>528.14</ele>
      </trkpt>
      <trkpt lat="43.30146" lon="16.67551">
        <ele>525.43</ele>
      </trkpt>
      <trkpt lat="43.30188" lon="16.67607">
        <ele>517.49</ele>
      </trkpt>
      <trkpt lat="43.30257" lon="16.67716">
        <ele>513.92</ele>
      </trkpt>
      <trkpt lat="43.30195" lon="16.67849">
        <ele>510.45</ele>
      </trkpt>
      <trkpt lat="43.30241" lon="16.67991">
        <ele>501.44</ele>
      </trkpt>
      <trkpt lat="43.30321" lon="16.67995">
        <ele>503.44</ele>
      </trkpt>
      <trkpt lat="43.30443" lon="16.68113">
        <ele>486.12</ele>
      </trkpt>
      <trkpt lat="43.30448" lon="16.68036">
        <ele>488.61</ele>
      </trkpt>
      <trkpt lat="43.30504" lon="16.68012">
        <ele>487.88</ele>
      </trkpt>
      <trkpt lat="43.30518" lon="16.67984">
        <ele>486.7</ele>
      </trkpt>
      <trkpt lat="43.30591" lon="16.6795">
        <ele>489.37</ele>
      </trkpt>
      <trkpt lat="43.30633" lon="16.67946">
        <ele>488.63</ele>
      </trkpt>
      <trkpt lat="43.30671" lon="16.67958">
        <ele>489.66</ele>
      </trkpt>
      <trkpt lat="43.3078" lon="16.67909">
        <ele>490.41</ele>
      </trkpt>
      <trkpt lat="43.30866" lon="16.67939">
        <ele>494.81</ele>
      </trkpt>
      <trkpt lat="43.3101" lon="16.68083">
        <ele>480.01</ele>
      </trkpt>
      <trkpt lat="43.31097" lon="16.68034">
        <ele>483.04</ele>
      </trkpt>
      <trkpt lat="43.31163" lon="16.67922">
        <ele>477.2</ele>
      </trkpt>
      <trkpt lat="43.31267" lon="16.67946">
        <ele>483.79</ele>
      </trkpt>
      <trkpt lat="43.31338" lon="16.67828">
        <ele>485.89</ele>
      </trkpt>
      <trkpt lat="43.31383" lon="16.67755">
        <ele>493.39</ele>
      </trkpt>
      <trkpt lat="43.31406" lon="16.67677">
        <ele>493.4</ele>
      </trkpt>
      <trkpt lat="43.31384" lon="16.67553">
        <ele>498.6</ele>
      </trkpt>
      <trkpt lat="43.31384" lon="16.67495">
        <ele>495.12</ele>
      </trkpt>
      <trkpt lat="43.31412" lon="16.67428">
        <ele>495.1</ele>
      </trkpt>
      <trkpt lat="43.31403" lon="16.67377">
        <ele>497.63</ele>
      </trkpt>
      <trkpt lat="43.31422" lon="16.67334">
        <ele>497.24</ele>
      </trkpt>
      <trkpt lat="43.31491" lon="16.6724">
        <ele>493.32</ele>
      </trkpt>
      <trkpt lat="43.31516" lon="16.67145">
        <ele>494.09</ele>
      </trkpt>
      <trkpt lat="43.31614" lon="16.67186">
        <ele>481.72</ele>
      </trkpt>
      <trkpt lat="43.31667" lon="16.67238">
        <ele>478.83</ele>
      </trkpt>
      <trkpt lat="43.31694" lon="16.67291">
        <ele>474.57</ele>
      </trkpt>
      <trkpt lat="43.31726" lon="16.6727">
        <ele>475.03</ele>
      </trkpt>
      <trkpt lat="43.31722" lon="16.6724">
        <ele>473.3</ele>
      </trkpt>
      <trkpt lat="43.31806" lon="16.67199">
        <ele>469.87</ele>
      </trkpt>
      <trkpt lat="43.31881" lon="16.67141">
        <ele>457.49</ele>
      </trkpt>
      <trkpt lat="43.31901" lon="16.6716">
        <ele>456.47</ele>
      </trkpt>
      <trkpt lat="43.31903" lon="16.67203">
        <ele>456.69</ele>
      </trkpt>
      <trkpt lat="43.31892" lon="16.67242">
        <ele>455.29</ele>
      </trkpt>
      <trkpt lat="43.31925" lon="16.6727">
        <ele>455.0</ele>
      </trkpt>
      <trkpt lat="43.32037" lon="16.67233">
        <ele>454.02</ele>
      </trkpt>
      <trkpt lat="43.32143" lon="16.6724">
        <ele>460.47</ele>
      </trkpt>
      <trkpt lat="43.32226" lon="16.67265">
        <ele>460.06</ele>
      </trkpt>
      <trkpt lat="43.32273" lon="16.67319">
        <ele>458.6</ele>
      </trkpt>
      <trkpt lat="43.3234" lon="16.67321">
        <ele>464.39</ele>
      </trkpt>
      <trkpt lat="43.32394" lon="16.67375">
        <ele>463.72</ele>
      </trkpt>
      <trkpt lat="43.32448" lon="16.67459">
        <ele>469.7</ele>
      </trkpt>
      <trkpt lat="43.32482" lon="16.67514">
        <ele>472.42</ele>
      </trkpt>
      <trkpt lat="43.32586" lon="16.6757">
        <ele>468.66</ele>
      </trkpt>
      <trkpt lat="43.326" lon="16.67624">
        <ele>471.31</ele>
      </trkpt>
      <trkpt lat="43.326" lon="16.6771">
        <ele>469.19</ele>
      </trkpt>
      <trkpt lat="43.32622" lon="16.67761">
        <ele>466.78</ele>
      </trkpt>
      <trkpt lat="43.32615" lon="16.67832">
        <ele>465.57</ele>
      </trkpt>
      <trkpt lat="43.32546" lon="16.67871">
        <ele>454.52</ele>
      </trkpt>
      <trkpt lat="43.32526" lon="16.67963">
        <ele>452.2</ele>
      </trkpt>
      <trkpt lat="43.32519" lon="16.68023">
        <ele>445.18</ele>
      </trkpt>
      <trkpt lat="43.32496" lon="16.68068">
        <ele>441.16</ele>
      </trkpt>
      <trkpt lat="43.32508" lon="16.68158">
        <ele>440.4</ele>
      </trkpt>
      <trkpt lat="43.32558" lon="16.68214">
        <ele>438.23</ele>
      </trkpt>
      <trkpt lat="43.32593" lon="16.6827">
        <ele>435.94</ele>
      </trkpt>
      <trkpt lat="43.32602" lon="16.68343">
        <ele>432.9</ele>
      </trkpt>
      <trkpt lat="43.32596" lon="16.68467">
        <ele>422.45</ele>
      </trkpt>
      <trkpt lat="43.32654" lon="16.68411">
        <ele>433.62</ele>
      </trkpt>
      <trkpt lat="43.32708" lon="16.68274">
        <ele>422.75</ele>
      </trkpt>
      <trkpt lat="43.327" lon="16.68173">
        <ele>414.03</ele>
      </trkpt>
      <trkpt lat="43.32761" lon="16.68111">
        <ele>407.47</ele>
      </trkpt>
      <trkpt lat="43.32939" lon="16.68098">
        <ele>393.09</ele>
      </trkpt>
      <trkpt lat="43.32988" lon="16.6807">
        <ele>385.84</ele>
      </trkpt>
      <trkpt lat="43.32981" lon="16.67989">
        <ele>380.0</ele>
      </trkpt>
      <trkpt lat="43.33033" lon="16.67922">
        <ele>362.63</ele>
      </trkpt>
      <trkpt lat="43.3305" lon="16.67853">
        <ele>358.09</ele>
      </trkpt>
      <trkpt lat="43.33055" lon="16.67748">
        <ele>351.33</ele>
      </trkpt>
      <trkpt lat="43.33166" lon="16.67757">
        <ele>345.53</ele>
      </trkpt>
      <trkpt lat="43.33276" lon="16.67776">
        <ele>324.37</ele>
      </trkpt>
      <trkpt lat="43.33348" lon="16.6781">
        <ele>312.99</ele>
      </trkpt>
      <trkpt lat="43.33378" lon="16.67853">
        <ele>304.94</ele>
      </trkpt>
      <trkpt lat="43.33417" lon="16.67871">
        <ele>297.3</ele>
      </trkpt>
      <trkpt lat="43.33456" lon="16.67819">
        <ele>287.72</ele>
      </trkpt>
      <trkpt lat="43.33573" lon="16.67793">
        <ele>272.76</ele>
      </trkpt>
      <trkpt lat="43.33663" lon="16.67677">
        <ele>253.05</ele>
      </trkpt>
      <trkpt lat="43.33854" lon="16.67626">
        <ele>237.13</ele>
      </trkpt>
      <trkpt lat="43.33905" lon="16.67615">
        <ele>234.7</ele>
      </trkpt>
      <trkpt lat="43.33943" lon="16.67555">
        <ele>228.85</ele>
      </trkpt>
      <trkpt lat="43.34079" lon="16.67553">
        <ele>216.04</ele>
      </trkpt>
      <trkpt lat="43.34146" lon="16.67514">
        <ele>211.87</ele>
      </trkpt>
      <trkpt lat="43.3421" lon="16.67446">
        <ele>209.53</ele>
      </trkpt>
      <trkpt lat="43.34275" lon="16.67411">
        <ele>199.89</ele>
      </trkpt>
      <trkpt lat="43.34409" lon="16.67364">
        <ele>176.7</ele>
      </trkpt>
      <trkpt lat="43.34478" lon="16.67306">
        <ele>162.11</ele>
      </trkpt>
      <trkpt lat="43.34556" lon="16.67291">
        <ele>169.03</ele>
      </trkpt>
      <trkpt lat="43.34584" lon="16.67298">
        <ele>172.54</ele>
      </trkpt>
      <trkpt lat="43.3462" lon="16.67274">
        <ele>173.49</ele>
      </trkpt>
      <trkpt lat="43.34698" lon="16.67268">
        <ele>173.25</ele>
      </trkpt>
      <trkpt lat="43.34898" lon="16.67143">
        <ele>166.15</ele>
      </trkpt>
      <trkpt lat="43.35001" lon="16.67122">
        <ele>147.44</ele>
      </trkpt>
      <trkpt lat="43.35104" lon="16.67124">
        <ele>159.14</ele>
      </trkpt>
      <trkpt lat="43.35202" lon="16.67177">
        <ele>155.0</ele>
      </trkpt>
      <trkpt lat="43.35299" lon="16.67257">
        <ele>150.44</ele>
      </trkpt>
      <trkpt lat="43.35327" lon="16.67293">
        <ele>146.38</ele>
      </trkpt>
      <trkpt lat="43.35438" lon="16.67334">
        <ele>131.16</ele>
      </trkpt>
      <trkpt lat="43.35548" lon="16.67491">
        <ele>148.84</ele>
      </trkpt>
      <trkpt lat="43.35701" lon="16.6754">
        <ele>150.8</ele>
      </trkpt>
      <trkpt lat="43.35804" lon="16.67557">
        <ele>150.0</ele>
      </trkpt>
      <trkpt lat="43.35906" lon="16.67557">
        <ele>141.05</ele>
      </trkpt>
      <trkpt lat="43.35981" lon="16.67585">
        <ele>148.05</ele>
      </trkpt>
      <trkpt lat="43.36021" lon="16.67645">
        <ele>152.92</ele>
      </trkpt>
      <trkpt lat="43.36088" lon="16.67673">
        <ele>147.22</ele>
      </trkpt>
      <trkpt lat="43.36227" lon="16.67613">
        <ele>139.5</ele>
      </trkpt>
      <trkpt lat="43.363" lon="16.67624">
        <ele>128.52</ele>
      </trkpt>
      <trkpt lat="43.36385" lon="16.67622">
        <ele>116.33</ele>
      </trkpt>
      <trkpt lat="43.3636" lon="16.67729">
        <ele>108.18</ele>
      </trkpt>
      <trkpt lat="43.36453" lon="16.6774">
        <ele>104.18</ele>
      </trkpt>
      <trkpt lat="43.36547" lon="16.67785">
        <ele>78.88</ele>
      </trkpt>
      <trkpt lat="43.36561" lon="16.67838">
        <ele>69.4</ele>
      </trkpt>
      <trkpt lat="43.36611" lon="16.67823">
        <ele>69.37</ele>
      </trkpt>
      <trkpt lat="43.36664" lon="16.67772">
        <ele>69.25</ele>
      </trkpt>
      <trkpt lat="43.36723" lon="16.67677">
        <ele>69.68</ele>
      </trkpt>
      <trkpt lat="43.36845" lon="16.67718">
        <ele>52.49</ele>
      </trkpt>
      <trkpt lat="43.36943" lon="16.67725">
        <ele>35.65</ele>
      </trkpt>
      <trkpt lat="43.36976" lon="16.67566">
        <ele>13.0</ele>
      </trkpt>
      <trkpt lat="43.37073" lon="16.67307">
        <ele>14.26</ele>
      </trkpt>
      <trkpt lat="43.37073" lon="16.67236">
        <ele>17.85</ele>
      </trkpt>
      <trkpt lat="43.37103" lon="16.67083">
        <ele>23.46</ele>
      </trkpt>
      <trkpt lat="43.37067" lon="16.66882">
        <ele>12.92</ele>
      </trkpt>
      <trkpt lat="43.3702" lon="16.66819">
        <ele>10.97</ele>
      </trkpt>
      <trkpt lat="43.36946" lon="16.66793">
        <ele>7.78</ele>
      </trkpt>
      <trkpt lat="43.36904" lon="16.66733">
        <ele>8.24</ele>
      </trkpt>
      <trkpt lat="43.36903" lon="16.66625">
        <ele>6.48</ele>
      </trkpt>
      <trkpt lat="43.36928" lon="16.66538">
        <ele>5.92</ele>
      </trkpt>
      <trkpt lat="43.36972" lon="16.66509">
        <ele>12.36</ele>
      </trkpt>
      <trkpt lat="43.37027" lon="16.66512">
        <ele>9.83</ele>
      </trkpt>
      <trkpt lat="43.37091" lon="16.66498">
        <ele>0.45</ele>
      </trkpt>
      <trkpt lat="43.37213" lon="16.66434">
        <ele>7.79</ele>
      </trkpt>
      <trkpt lat="43.37255" lon="16.66385">
        <ele>6.94</ele>
      </trkpt>
      <trkpt lat="43.3728" lon="16.6634">
        <ele>6.38</ele>
      </trkpt>
      <trkpt lat="43.37288" lon="16.66269">
        <ele>9.96</ele>
      </trkpt>
      <trkpt lat="43.37261" lon="16.66161">
        <ele>13.2</ele>
      </trkpt>
      <trkpt lat="43.37217" lon="16.66079">
        <ele>8.06</ele>
      </trkpt>
      <trkpt lat="43.37218" lon="16.66052">
        <ele>6.28</ele>
      </trkpt>
      <trkpt lat="43.37233" lon="16.66028">
        <ele>7.55</ele>
      </trkpt>
      <trkpt lat="43.37285" lon="16.66003">
        <ele>8.77</ele>
      </trkpt>
      <trkpt lat="43.37366" lon="16.65937">
        <ele>5.75</ele>
      </trkpt>
      <trkpt lat="43.37408" lon="16.65871">
        <ele>6.22</ele>
      </trkpt>
      <trkpt lat="43.37427" lon="16.65807">
        <ele>8.43</ele>
      </trkpt>
      <trkpt lat="43.37454" lon="16.65636">
        <ele>9.38</ele>
      </trkpt>
      <trkpt lat="43.37434" lon="16.65522">
        <ele>9.84</ele>
      </trkpt>
      <trkpt lat="43.37437" lon="16.65502">
        <ele>9.8</ele>
      </trkpt>
      <trkpt lat="43.37481" lon="16.65449">
        <ele>7.42</ele>
      </trkpt>
      <trkpt lat="43.37495" lon="16.6542">
        <ele>7.56</ele>
      </trkpt>
      <trkpt lat="43.37508" lon="16.65364">
        <ele>8.46</ele>
      </trkpt>
      <trkpt lat="43.37509" lon="16.65305">
        <ele>9.05</ele>
      </trkpt>
      <trkpt lat="43.37466" lon="16.65237">
        <ele>14.5</ele>
      </trkpt>
      <trkpt lat="43.37283" lon="16.65147">
        <ele>13.39</ele>
      </trkpt>
      <trkpt lat="43.37251" lon="16.65121">
        <ele>13.36</ele>
      </trkpt>
      <trkpt lat="43.37232" lon="16.65097">
        <ele>8.68</ele>
      </trkpt>
      <trkpt lat="43.3721" lon="16.65032">
        <ele>5.59</ele>
      </trkpt>
      <trkpt lat="43.37218" lon="16.64987">
        <ele>6.07</ele>
      </trkpt>
      <trkpt lat="43.37244" lon="16.64954">
        <ele>8.2</ele>
      </trkpt>
      <trkpt lat="43.37273" lon="16.6495">
        <ele>12.02</ele>
      </trkpt>
      <trkpt lat="43.37402" lon="16.64964">
        <ele>4.6</ele>
      </trkpt>
      <trkpt lat="43.37445" lon="16.64957">
        <ele>8.5</ele>
      </trkpt>
      <trkpt lat="43.37491" lon="16.64924">
        <ele>5.8</ele>
      </trkpt>
      <trkpt lat="43.37512" lon="16.64877">
        <ele>8.05</ele>
      </trkpt>
      <trkpt lat="43.37507" lon="16.64778">
        <ele>10.25</ele>
      </trkpt>
      <trkpt lat="43.37468" lon="16.64644">
        <ele>12.61</ele>
      </trkpt>
      <trkpt lat="43.37464" lon="16.64521">
        <ele>13.09</ele>
      </trkpt>
      <trkpt lat="43.37473" lon="16.64493">
        <ele>12.36</ele>
      </trkpt>
      <trkpt lat="43.37569" lon="16.64347">
        <ele>13.62</ele>
      </trkpt>
      <trkpt lat="43.37582" lon="16.64311">
        <ele>13.05</ele>
      </trkpt>
      <trkpt lat="43.37579" lon="16.64269">
        <ele>13.57</ele>
      </trkpt>
      <trkpt lat="43.37516" lon="16.64038">
        <ele>12.85</ele>
      </trkpt>
      <trkpt lat="43.37468" lon="16.63946">
        <ele>12.27</ele>
      </trkpt>
      <trkpt lat="43.37466" lon="16.63926">
        <ele>12.96</ele>
      </trkpt>
      <trkpt lat="43.37644" lon="16.63754">
        <ele>6.37</ele>
      </trkpt>
      <trkpt lat="43.37671" lon="16.63713">
        <ele>6.61</ele>
      </trkpt>
      <trkpt lat="43.37678" lon="16.63659">
        <ele>9.46</ele>
      </trkpt>
      <trkpt lat="43.37637" lon="16.6352">
        <ele>10.66</ele>
      </trkpt>
      <trkpt lat="43.37635" lon="16.6347">
        <ele>9.7</ele>
      </trkpt>
      <trkpt lat="43.37681" lon="16.63322">
        <ele>8.54</ele>
      </trkpt>
      <trkpt lat="43.37691" lon="16.63253">
        <ele>9.06</ele>
      </trkpt>
      <trkpt lat="43.37693" lon="16.63225">
        <ele>9.1</ele>
      </trkpt>
      <trkpt lat="43.37665" lon="16.6313">
        <ele>8.8</ele>
      </trkpt>
      <trkpt lat="43.37673" lon="16.63068">
        <ele>8.65</ele>
      </trkpt>
      <trkpt lat="43.37694" lon="16.63057">
        <ele>7.93</ele>
      </trkpt>
      <trkpt lat="43.37804" lon="16.63044">
        <ele>3.59</ele>
      </trkpt>
      <trkpt lat="43.37813" lon="16.63031">
        <ele>2.84</ele>
      </trkpt>
      <trkpt lat="43.37809" lon="16.62886">
        <ele>6.8</ele>
      </trkpt>
      <trkpt lat="43.37717" lon="16.62861">
        <ele>6.19</ele>
      </trkpt>
      <trkpt lat="43.37688" lon="16.62874">
        <ele>7.8</ele>
      </trkpt>
      <trkpt lat="43.37681" lon="16.6287">
        <ele>7.96</ele>
      </trkpt>
      <trkpt lat="43.37671" lon="16.62837">
        <ele>7.71</ele>
      </trkpt>
      <trkpt lat="43.3763" lon="16.62805">
        <ele>7.94</ele>
      </trkpt>
      <trkpt lat="43.37621" lon="16.62746">
        <ele>6.7</ele>
      </trkpt>
      <trkpt lat="43.37626" lon="16.62665">
        <ele>6.12</ele>
      </trkpt>
      <trkpt lat="43.3756" lon="16.62704">
        <ele>7.0</ele>
      </trkpt>
      <trkpt lat="43.37544" lon="16.62702">
        <ele>7.83</ele>
      </trkpt>
      <trkpt lat="43.37532" lon="16.62686">
        <ele>9.3</ele>
      </trkpt>
      <trkpt lat="43.37506" lon="16.62705">
        <ele>9.78</ele>
      </trkpt>
    </trkseg>
  </trk>
</gpx>
